{"type": "FeatureCollection", "features": [{"type": "Feature", "geometry": {"type": "Polygon", "coordinates": [[[74.24711, 16.70656], [74.24774, 16.70656], [74.24774, 16.70716753957808], [74.24713246042192, 16.707189999999997], [74.24711, 16.70656]]]}, "properties": {"parcel_id": "P-0101", "owner": "Meena More", "area_sq_m": 4546.9, "land_use": "Vacant", "ward": "Ward-07"}}, {"type": "Feature", "geometry": {"type": "Polygon", "coordinates": [[[74.24486, 16.71181], [74.24548999999999, 16.71181], [74.24548999999999, 16.712433807739036], [74.24486619226096, 16.712439999999997], [74.24486, 16.71181]]]}, "properties": {"parcel_id": "P-0102", "owner": "Suresh Gaikwad", "area_sq_m": 4665.8, "land_use": "Institutional", "ward": "Ward-07"}}, {"type": "Feature", "geometry": {"type": "Polygon", "coordinates": [[[74.25011, 16.70956], [74.25074, 16.70956], [74.25074, 16.71018157384986], [74.25011842615015, 16.710189999999997], [74.25011, 16.70956]]]}, "properties": {"parcel_id": "P-0103", "owner": "Rekha Jadhav", "area_sq_m": 4649.3, "land_use": "Vacant", "ward": "Ward-07"}}, {"type": "Feature", "geometry": {"type": "Polygon", "coordinates": [[[74.25161000000001, 16.70806], [74.25224, 16.70806], [74.25224, 16.70865971886258], [74.25164028113743, 16.708689999999997], [74.25161000000001, 16.70806]]]}, "properties": {"parcel_id": "P-0104", "owner": "Manoj Jadhav", "area_sq_m": 4490.8, "land_use": "Commercial", "ward": "Ward-07"}}, {"type": "Feature", "geometry": {"type": "Polygon", "coordinates": [[[74.24861000000001, 16.71331], [74.24924, 16.71331], [74.24924, 16.713924179438504], [74.24862582056151, 16.713939999999997], [74.24861000000001, 16.71331]]]}, "properties": {"parcel_id": "P-0105", "owner": "Priya Joshi", "area_sq_m": 4595.0, "land_use": "Commercial", "ward": "Ward-07"}}, {"type": "Feature", "geometry": {"type": "Polygon", "coordinates": [[[74.24561000000001, 16.70806], [74.24624, 16.70806], [74.24624, 16.70865615839254], [74.24564384160747, 16.708689999999997], [74.24561000000001, 16.70806]]]}, "properties": {"parcel_id": "P-0106", "owner": "Meena Chavan", "area_sq_m": 4465.6, "land_use": "Institutional", "ward": "Ward-07"}}, {"type": "Feature", "geometry": {"type": "Polygon", "coordinates": [[[74.25086, 16.71331], [74.25148999999999, 16.71331], [74.25148999999999, 16.71391828073909], [74.2508817192609, 16.713939999999997], [74.25086, 16.71331]]]}, "properties": {"parcel_id": "P-0107", "owner": "Vijay Shinde", "area_sq_m": 4552.2, "land_use": "Commercial", "ward": "Ward-07"}}, {"type": "Feature", "geometry": {"type": "Polygon", "coordinates": [[[74.24486, 16.71331], [74.24548999999999, 16.71331], [74.24548999999999, 16.71393850968766], [74.24486149031235, 16.713939999999997], [74.24486, 16.71331]]]}, "properties": {"parcel_id": "P-0108", "owner": "Sunil Kulkarni", "area_sq_m": 4700.7, "land_use": "Vacant", "ward": "Ward-07"}}, {"type": "Feature", "geometry": {"type": "Polygon", "coordinates": [[[74.25161000000001, 16.71256], [74.25224, 16.71256], [74.25224, 16.713155002773323], [74.25164499722669, 16.713189999999997], [74.25161000000001, 16.71256]]]}, "properties": {"parcel_id": "P-0109", "owner": "Anil More", "area_sq_m": 4457.4, "land_use": "Commercial", "ward": "Ward-07"}}, {"type": "Feature", "geometry": {"type": "Polygon", "coordinates": [[[74.24711, 16.70956], [74.24774, 16.70956], [74.24774, 16.71016308954298], [74.24713691045703, 16.710189999999997], [74.24711, 16.70956]]]}, "properties": {"parcel_id": "P-0110", "owner": "Anita Deshmukh", "area_sq_m": 4514.9, "land_use": "Mixed Use", "ward": "Ward-07"}}, {"type": "Feature", "geometry": {"type": "Polygon", "coordinates": [[[74.25161000000001, 16.70731], [74.25224, 16.70731], [74.25224, 16.70791896599257], [74.25163103400745, 16.707939999999997], [74.25161000000001, 16.70731]]]}, "properties": {"parcel_id": "P-0111", "owner": "Ganesh Deshmukh", "area_sq_m": 4557.2, "land_use": "Institutional", "ward": "Ward-07"}}, {"type": "Feature", "geometry": {"type": "Polygon", "coordinates": [[[74.25236000000001, 16.70581], [74.25299, 16.70581], [74.25299, 16.706436145239184], [74.25236385476082, 16.706439999999997], [74.25236000000001, 16.70581]]]}, "properties": {"parcel_id": "P-0112", "owner": "Sita Pawar", "area_sq_m": 4683.1, "land_use": "Commercial", "ward": "Ward-07"}}, {"type": "Feature", "geometry": {"type": "Polygon", "coordinates": [[[74.24411, 16.70806], [74.24474, 16.70806], [74.24474, 16.708685946414008], [74.244114053586, 16.708689999999997], [74.24411, 16.70806]]]}, "properties": {"parcel_id": "P-0113", "owner": "Priya Shinde", "area_sq_m": 4681.6, "land_use": "Commercial", "ward": "Ward-07"}}, {"type": "Feature", "geometry": {"type": "Polygon", "coordinates": [[[74.24936000000001, 16.71331], [74.24999, 16.71331], [74.24999, 16.713935674684304], [74.24936432531571, 16.713939999999997], [74.24936000000001, 16.71331]]]}, "properties": {"parcel_id": "P-0114", "owner": "Deepak Chavan", "area_sq_m": 4679.6, "land_use": "Vacant", "ward": "Ward-07"}}, {"type": "Feature", "geometry": {"type": "Polygon", "coordinates": [[[74.24561000000001, 16.70581], [74.24624, 16.70581], [74.24624, 16.706432872045955], [74.24561712795406, 16.706439999999997], [74.24561000000001, 16.70581]]]}, "properties": {"parcel_id": "P-0115", "owner": "Deepak Kulkarni", "area_sq_m": 4658.9, "land_use": "Institutional", "ward": "Ward-07"}}, {"type": "Feature", "geometry": {"type": "Polygon", "coordinates": [[[74.25386, 16.70581], [74.25448999999999, 16.70581], [74.25448999999999, 16.706424909985483], [74.25387509001452, 16.706439999999997], [74.25386, 16.70581]]]}, "properties": {"parcel_id": "P-0116", "owner": "Lata More", "area_sq_m": 4600.4, "land_use": "Mixed Use", "ward": "Ward-07"}}, {"type": "Feature", "geometry": {"type": "Polygon", "coordinates": [[[74.24936000000001, 16.70806], [74.24999, 16.70806], [74.24999, 16.70865400629986], [74.24939599370015, 16.708689999999997], [74.24936000000001, 16.70806]]]}, "properties": {"parcel_id": "P-0117", "owner": "Vijay More", "area_sq_m": 4450.4, "land_use": "Institutional", "ward": "Ward-07"}}, {"type": "Feature", "geometry": {"type": "Polygon", "coordinates": [[[74.24711, 16.71406], [74.24774, 16.71406], [74.24774, 16.71467560080747], [74.24712439919253, 16.714689999999997], [74.24711, 16.71406]]]}, "properties": {"parcel_id": "P-0118", "owner": "Prakash Chavan", "area_sq_m": 4605.4, "land_use": "Vacant", "ward": "Ward-07"}}, {"type": "Feature", "geometry": {"type": "Polygon", "coordinates": [[[74.24786, 16.70731], [74.24848999999999, 16.70731], [74.24848999999999, 16.707923278239544], [74.24787672176046, 16.707939999999997], [74.24786, 16.70731]]]}, "properties": {"parcel_id": "P-0119", "owner": "Prakash Bhosale", "area_sq_m": 4588.5, "land_use": "Vacant", "ward": "Ward-07"}}, {"type": "Feature", "geometry": {"type": "Polygon", "coordinates": [[[74.24486, 16.70806], [74.24548999999999, 16.70806], [74.24548999999999, 16.708672527838623], [74.24487747216138, 16.708689999999997], [74.24486, 16.70806]]]}, "properties": {"parcel_id": "P-0120", "owner": "Vijay Kulkarni", "area_sq_m": 4583.0, "land_use": "Institutional", "ward": "Ward-07"}}, {"type": "Feature", "geometry": {"type": "Polygon", "coordinates": [[[74.25236000000001, 16.71106], [74.25299, 16.71106], [74.25299, 16.711673656150897], [74.25237634384911, 16.711689999999997], [74.25236000000001, 16.71106]]]}, "properties": {"parcel_id": "P-0121", "owner": "Anita Bhosale", "area_sq_m": 4591.2, "land_use": "Commercial", "ward": "Ward-07"}}, {"type": "Feature", "geometry": {"type": "Polygon", "coordinates": [[[74.25011, 16.70731], [74.25074, 16.70731], [74.25074, 16.707933185161504], [74.2501168148385, 16.707939999999997], [74.25011, 16.70731]]]}, "properties": {"parcel_id": "P-0122", "owner": "Anil Gaikwad", "area_sq_m": 4661.2, "land_use": "Institutional", "ward": "Ward-07"}}, {"type": "Feature", "geometry": {"type": "Polygon", "coordinates": [[[74.25011, 16.71256], [74.25074, 16.71256], [74.25074, 16.71318849031984], [74.25011150968017, 16.713189999999997], [74.25011, 16.71256]]]}, "properties": {"parcel_id": "P-0123", "owner": "Sita Pawar", "area_sq_m": 4700.6, "land_use": "Commercial", "ward": "Ward-07"}}, {"type": "Feature", "geometry": {"type": "Polygon", "coordinates": [[[74.24411, 16.70581], [74.24474, 16.70581], [74.24474, 16.70641840762268], [74.24413159237731, 16.706439999999997], [74.24411, 16.70581]]]}, "properties": {"parcel_id": "P-0124", "owner": "Meena Shinde", "area_sq_m": 4553.1, "land_use": "Residential", "ward": "Ward-07"}}, {"type": "Feature", "geometry": {"type": "Polygon", "coordinates": [[[74.24636000000001, 16.70656], [74.24699, 16.70656], [74.24699, 16.70717610359214], [74.24637389640787, 16.707189999999997], [74.24636000000001, 16.70656]]]}, "properties": {"parcel_id": "P-0125", "owner": "Manoj Patil", "area_sq_m": 4609.1, "land_use": "Mixed Use", "ward": "Ward-07"}}, {"type": "Feature", "geometry": {"type": "Polygon", "coordinates": [[[74.25011, 16.70881], [74.25074, 16.70881], [74.25074, 16.709417782201783], [74.25013221779822, 16.709439999999997], [74.25011, 16.70881]]]}, "properties": {"parcel_id": "P-0126", "owner": "Sunita Jadhav", "area_sq_m": 4548.6, "land_use": "Institutional", "ward": "Ward-07"}}, {"type": "Feature", "geometry": {"type": "Polygon", "coordinates": [[[74.24936000000001, 16.71106], [74.24999, 16.71106], [74.24999, 16.711660081286617], [74.24938991871339, 16.711689999999997], [74.24936000000001, 16.71106]]]}, "properties": {"parcel_id": "P-0127", "owner": "Sunita Pawar", "area_sq_m": 4493.4, "land_use": "Commercial", "ward": "Ward-07"}}, {"type": "Feature", "geometry": {"type": "Polygon", "coordinates": [[[74.25011, 16.71406], [74.25074, 16.71406], [74.25074, 16.714674834957673], [74.25012516504233, 16.714689999999997], [74.25011, 16.71406]]]}, "properties": {"parcel_id": "P-0128", "owner": "Sunita Jadhav", "area_sq_m": 4599.8, "land_use": "Residential", "ward": "Ward-07"}}, {"type": "Feature", "geometry": {"type": "Polygon", "coordinates": [[[74.24786, 16.70656], [74.24848999999999, 16.70656], [74.24848999999999, 16.70715337723664], [74.24789662276336, 16.707189999999997], [74.24786, 16.70656]]]}, "properties": {"parcel_id": "P-0129", "owner": "Vijay Joshi", "area_sq_m": 4445.9, "land_use": "Institutional", "ward": "Ward-07"}}, {"type": "Feature", "geometry": {"type": "Polygon", "coordinates": [[[74.24561000000001, 16.70731], [74.24624, 16.70731], [74.24624, 16.70793572173222], [74.2456142782678, 16.707939999999997], [74.24561000000001, 16.70731]]]}, "properties": {"parcel_id": "P-0130", "owner": "Ashok Deshmukh", "area_sq_m": 4680.0, "land_use": "Residential", "ward": "Ward-07"}}, {"type": "Feature", "geometry": {"type": "Polygon", "coordinates": [[[74.24486, 16.71106], [74.24548999999999, 16.71106], [74.24548999999999, 16.711675735824016], [74.24487426417598, 16.711689999999997], [74.24486, 16.71106]]]}, "properties": {"parcel_id": "P-0131", "owner": "Shobha Bhosale", "area_sq_m": 4606.4, "land_use": "Commercial", "ward": "Ward-07"}}, {"type": "Feature", "geometry": {"type": "Polygon", "coordinates": [[[74.24786, 16.71181], [74.24848999999999, 16.71181], [74.24848999999999, 16.71241363796657], [74.24788636203343, 16.712439999999997], [74.24786, 16.71181]]]}, "properties": {"parcel_id": "P-0132", "owner": "Lata Patil", "area_sq_m": 4518.8, "land_use": "Commercial", "ward": "Ward-07"}}, {"type": "Feature", "geometry": {"type": "Polygon", "coordinates": [[[74.25161000000001, 16.71331], [74.25224, 16.71331], [74.25224, 16.7139176858486], [74.25163231415141, 16.713939999999997], [74.25161000000001, 16.71331]]]}, "properties": {"parcel_id": "P-0133", "owner": "Suresh Kulkarni", "area_sq_m": 4547.9, "land_use": "Residential", "ward": "Ward-07"}}, {"type": "Feature", "geometry": {"type": "Polygon", "coordinates": [[[74.24636000000001, 16.71106], [74.24699, 16.71106], [74.24699, 16.711653928333664], [74.24639607166634, 16.711689999999997], [74.24636000000001, 16.71106]]]}, "properties": {"parcel_id": "P-0134", "owner": "Ashok Bhosale", "area_sq_m": 4449.8, "land_use": "Mixed Use", "ward": "Ward-07"}}, {"type": "Feature", "geometry": {"type": "Polygon", "coordinates": [[[74.25086, 16.71256], [74.25148999999999, 16.71256], [74.25148999999999, 16.713164869993392], [74.25088513000661, 16.713189999999997], [74.25086, 16.71256]]]}, "properties": {"parcel_id": "P-0135", "owner": "Anil Jadhav", "area_sq_m": 4527.7, "land_use": "Mixed Use", "ward": "Ward-07"}}, {"type": "Feature", "geometry": {"type": "Polygon", "coordinates": [[[74.24561000000001, 16.70956], [74.24624, 16.70956], [74.24624, 16.710172675887062], [74.24562732411295, 16.710189999999997], [74.24561000000001, 16.70956]]]}, "properties": {"parcel_id": "P-0136", "owner": "Sunil More", "area_sq_m": 4584.1, "land_use": "Residential", "ward": "Ward-07"}}, {"type": "Feature", "geometry": {"type": "Polygon", "coordinates": [[[74.24636000000001, 16.70581], [74.24699, 16.70581], [74.24699, 16.706422695703964], [74.24637730429605, 16.706439999999997], [74.24636000000001, 16.70581]]]}, "properties": {"parcel_id": "P-0137", "owner": "Ramesh More", "area_sq_m": 4584.2, "land_use": "Institutional", "ward": "Ward-07"}}, {"type": "Feature", "geometry": {"type": "Polygon", "coordinates": [[[74.24636000000001, 16.71181], [74.24699, 16.71181], [74.24699, 16.712420940966563], [74.24637905903344, 16.712439999999997], [74.24636000000001, 16.71181]]]}, "properties": {"parcel_id": "P-0138", "owner": "Anita Deshmukh", "area_sq_m": 4571.5, "land_use": "Institutional", "ward": "Ward-07"}}, {"type": "Feature", "geometry": {"type": "Polygon", "coordinates": [[[74.24786, 16.70881], [74.24848999999999, 16.70881], [74.24848999999999, 16.70941930309686], [74.24788069690314, 16.709439999999997], [74.24786, 16.70881]]]}, "properties": {"parcel_id": "P-0139", "owner": "Suresh Jadhav", "area_sq_m": 4559.6, "land_use": "Vacant", "ward": "Ward-07"}}, {"type": "Feature", "geometry": {"type": "Polygon", "coordinates": [[[74.24711, 16.70731], [74.24774, 16.70731], [74.24774, 16.707935265764878], [74.24711473423513, 16.707939999999997], [74.24711, 16.70731]]]}, "properties": {"parcel_id": "P-0140", "owner": "Sunil Gaikwad", "area_sq_m": 4676.6, "land_use": "Commercial", "ward": "Ward-07"}}, {"type": "Feature", "geometry": {"type": "Polygon", "coordinates": [[[74.25236000000001, 16.70806], [74.25299, 16.70806], [74.25299, 16.708680061645765], [74.25236993835425, 16.708689999999997], [74.25236000000001, 16.70806]]]}, "properties": {"parcel_id": "P-0141", "owner": "Suresh Kulkarni", "area_sq_m": 4638.1, "land_use": "Institutional", "ward": "Ward-07"}}, {"type": "Feature", "geometry": {"type": "Polygon", "coordinates": [[[74.24411, 16.70656], [74.24474, 16.70656], [74.24474, 16.707166331461867], [74.24413366853814, 16.707189999999997], [74.24411, 16.70656]]]}, "properties": {"parcel_id": "P-0142", "owner": "Sunita More", "area_sq_m": 4538.2, "land_use": "Residential", "ward": "Ward-07"}}, {"type": "Feature", "geometry": {"type": "Polygon", "coordinates": [[[74.24861000000001, 16.71256], [74.24924, 16.71256], [74.24924, 16.71316443248607], [74.24863556751394, 16.713189999999997], [74.24861000000001, 16.71256]]]}, "properties": {"parcel_id": "P-0143", "owner": "Nirmala Deshmukh", "area_sq_m": 4524.5, "land_use": "Commercial", "ward": "Ward-07"}}, {"type": "Feature", "geometry": {"type": "Polygon", "coordinates": [[[74.24711, 16.70881], [74.24774, 16.70881], [74.24774, 16.70940455366369], [74.24714544633632, 16.709439999999997], [74.24711, 16.70881]]]}, "properties": {"parcel_id": "P-0144", "owner": "Lata Gaikwad", "area_sq_m": 4454.2, "land_use": "Vacant", "ward": "Ward-07"}}, {"type": "Feature", "geometry": {"type": "Polygon", "coordinates": [[[74.25161000000001, 16.71031], [74.25224, 16.71031], [74.25224, 16.710907559972583], [74.25164244002742, 16.710939999999997], [74.25161000000001, 16.71031]]]}, "properties": {"parcel_id": "P-0145", "owner": "Lata Patil", "area_sq_m": 4475.5, "land_use": "Institutional", "ward": "Ward-07"}}, {"type": "Feature", "geometry": {"type": "Polygon", "coordinates": [[[74.24936000000001, 16.70881], [74.24999, 16.70881], [74.24999, 16.7094125365087], [74.2493874634913, 16.709439999999997], [74.24936000000001, 16.70881]]]}, "properties": {"parcel_id": "P-0146", "owner": "Sita Shinde", "area_sq_m": 4510.9, "land_use": "Institutional", "ward": "Ward-07"}}, {"type": "Feature", "geometry": {"type": "Polygon", "coordinates": [[[74.24711, 16.71106], [74.24774, 16.71106], [74.24774, 16.711672437572915], [74.24712756242708, 16.711689999999997], [74.24711, 16.71106]]]}, "properties": {"parcel_id": "P-0147", "owner": "Sunita Shinde", "area_sq_m": 4582.3, "land_use": "Mixed Use", "ward": "Ward-07"}}, {"type": "Feature", "geometry": {"type": "Polygon", "coordinates": [[[74.25386, 16.70956], [74.25448999999999, 16.70956], [74.25448999999999, 16.710154739054055], [74.25389526094594, 16.710189999999997], [74.25386, 16.70956]]]}, "properties": {"parcel_id": "P-0148", "owner": "Prakash Pawar", "area_sq_m": 4455.5, "land_use": "Mixed Use", "ward": "Ward-07"}}, {"type": "Feature", "geometry": {"type": "Polygon", "coordinates": [[[74.25311, 16.70806], [74.25374, 16.70806], [74.25374, 16.708676087068167], [74.25312391293184, 16.708689999999997], [74.25311, 16.70806]]]}, "properties": {"parcel_id": "P-0149", "owner": "Kavita Joshi", "area_sq_m": 4609.0, "land_use": "Vacant", "ward": "Ward-07"}}, {"type": "Feature", "geometry": {"type": "Polygon", "coordinates": [[[74.24486, 16.71256], [74.24548999999999, 16.71256], [74.24548999999999, 16.71315792061775], [74.24489207938225, 16.713189999999997], [74.24486, 16.71256]]]}, "properties": {"parcel_id": "P-0150", "owner": "Rekha Joshi", "area_sq_m": 4478.0, "land_use": "Institutional", "ward": "Ward-07"}}, {"type": "Feature", "geometry": {"type": "Polygon", "coordinates": [[[74.24786, 16.71256], [74.24848999999999, 16.71256], [74.24848999999999, 16.713180866166354], [74.24786913383365, 16.713189999999997], [74.24786, 16.71256]]]}, "properties": {"parcel_id": "P-0151", "owner": "Shobha Patil", "area_sq_m": 4644.0, "land_use": "Residential", "ward": "Ward-07"}}, {"type": "Feature", "geometry": {"type": "Polygon", "coordinates": [[[74.25011, 16.71031], [74.25074, 16.71031], [74.25074, 16.71093587776195], [74.25011412223805, 16.710939999999997], [74.25011, 16.71031]]]}, "properties": {"parcel_id": "P-0152", "owner": "Suresh More", "area_sq_m": 4681.1, "land_use": "Mixed Use", "ward": "Ward-07"}}, {"type": "Feature", "geometry": {"type": "Polygon", "coordinates": [[[74.25086, 16.71181], [74.25148999999999, 16.71181], [74.25148999999999, 16.71242304979675], [74.25087695020325, 16.712439999999997], [74.25086, 16.71181]]]}, "properties": {"parcel_id": "P-0153", "owner": "Sunita Jadhav", "area_sq_m": 4586.8, "land_use": "Mixed Use", "ward": "Ward-07"}}, {"type": "Feature", "geometry": {"type": "Polygon", "coordinates": [[[74.25161000000001, 16.70881], [74.25224, 16.70881], [74.25224, 16.709435267815437], [74.25161473218458, 16.709439999999997], [74.25161000000001, 16.70881]]]}, "properties": {"parcel_id": "P-0154", "owner": "Anil Kulkarni", "area_sq_m": 4676.6, "land_use": "Mixed Use", "ward": "Ward-07"}}, {"type": "Feature", "geometry": {"type": "Polygon", "coordinates": [[[74.24561000000001, 16.70656], [74.24624, 16.70656], [74.24624, 16.707173872377183], [74.24562612762283, 16.707189999999997], [74.24561000000001, 16.70656]]]}, "properties": {"parcel_id": "P-0155", "owner": "Kavita Gaikwad", "area_sq_m": 4592.8, "land_use": "Vacant", "ward": "Ward-07"}}, {"type": "Feature", "geometry": {"type": "Polygon", "coordinates": [[[74.24786, 16.71031], [74.24848999999999, 16.71031], [74.24848999999999, 16.710912295150052], [74.24788770484994, 16.710939999999997], [74.24786, 16.71031]]]}, "properties": {"parcel_id": "P-0156", "owner": "Anil Kulkarni", "area_sq_m": 4509.2, "land_use": "Residential", "ward": "Ward-07"}}, {"type": "Feature", "geometry": {"type": "Polygon", "coordinates": [[[74.24786, 16.70956], [74.24848999999999, 16.70956], [74.24848999999999, 16.710176870725213], [74.24787312927478, 16.710189999999997], [74.24786, 16.70956]]]}, "properties": {"parcel_id": "P-0157", "owner": "Vijay Deshmukh", "area_sq_m": 4614.7, "land_use": "Institutional", "ward": "Ward-07"}}, {"type": "Feature", "geometry": {"type": "Polygon", "coordinates": [[[74.25386, 16.71406], [74.25448999999999, 16.71406], [74.25448999999999, 16.714658895220374], [74.25389110477963, 16.714689999999997], [74.25386, 16.71406]]]}, "properties": {"parcel_id": "P-0158", "owner": "Anita Patil", "area_sq_m": 4485.0, "land_use": "Vacant", "ward": "Ward-07"}}, {"type": "Feature", "geometry": {"type": "Polygon", "coordinates": [[[74.25311, 16.71031], [74.25374, 16.71031], [74.25374, 16.710928313598632], [74.25312168640137, 16.710939999999997], [74.25311, 16.71031]]]}, "properties": {"parcel_id": "P-0159", "owner": "Sunil Chavan", "area_sq_m": 4625.3, "land_use": "Institutional", "ward": "Ward-07"}}, {"type": "Feature", "geometry": {"type": "Polygon", "coordinates": [[[74.24711, 16.71331], [74.24774, 16.71331], [74.24774, 16.71393584163354], [74.24711415836646, 16.713939999999997], [74.24711, 16.71331]]]}, "properties": {"parcel_id": "P-0160", "owner": "Ganesh Joshi", "area_sq_m": 4680.9, "land_use": "Vacant", "ward": "Ward-07"}}, {"type": "Feature", "geometry": {"type": "Polygon", "coordinates": [[[74.25236000000001, 16.70656], [74.25299, 16.70656], [74.25299, 16.707155456408703], [74.25239454359131, 16.707189999999997], [74.25236000000001, 16.70656]]]}, "properties": {"parcel_id": "P-0161", "owner": "Anil Chavan", "area_sq_m": 4460.6, "land_use": "Residential", "ward": "Ward-07"}}, {"type": "Feature", "geometry": {"type": "Polygon", "coordinates": [[[74.25011, 16.71331], [74.25074, 16.71331], [74.25074, 16.71393087563219], [74.25011912436781, 16.713939999999997], [74.25011, 16.71331]]]}, "properties": {"parcel_id": "P-0162", "owner": "Rekha Kulkarni", "area_sq_m": 4644.1, "land_use": "Institutional", "ward": "Ward-07"}}, {"type": "Feature", "geometry": {"type": "Polygon", "coordinates": [[[74.24411, 16.71181], [74.24474, 16.71181], [74.24474, 16.71243040119167], [74.24411959880833, 16.712439999999997], [74.24411, 16.71181]]]}, "properties": {"parcel_id": "P-0163", "owner": "Rekha Kadam", "area_sq_m": 4640.6, "land_use": "Commercial", "ward": "Ward-07"}}, {"type": "Feature", "geometry": {"type": "Polygon", "coordinates": [[[74.25086, 16.70881], [74.25148999999999, 16.70881], [74.25148999999999, 16.709422415459365], [74.25087758454063, 16.709439999999997], [74.25086, 16.70881]]]}, "properties": {"parcel_id": "P-0164", "owner": "Shobha Pawar", "area_sq_m": 4582.2, "land_use": "Mixed Use", "ward": "Ward-07"}}, {"type": "Feature", "geometry": {"type": "Polygon", "coordinates": [[[74.25386, 16.70881], [74.25448999999999, 16.70881], [74.25448999999999, 16.70941229046079], [74.25388770953921, 16.709439999999997], [74.25386, 16.70881]]]}, "properties": {"parcel_id": "P-0165", "owner": "Prakash Bhosale", "area_sq_m": 4509.2, "land_use": "Vacant", "ward": "Ward-07"}}, {"type": "Feature", "geometry": {"type": "Polygon", "coordinates": [[[74.25386, 16.70656], [74.25448999999999, 16.70656], [74.25448999999999, 16.707188532170264], [74.25386146782974, 16.707189999999997], [74.25386, 16.70656]]]}, "properties": {"parcel_id": "P-0166", "owner": "Ashok Kadam", "area_sq_m": 4700.9, "land_use": "Residential", "ward": "Ward-07"}}, {"type": "Feature", "geometry": {"type": "Polygon", "coordinates": [[[74.24786, 16.71331], [74.24848999999999, 16.71331], [74.24848999999999, 16.713934696435725], [74.24786530356427, 16.713939999999997], [74.24786, 16.71331]]]}, "properties": {"parcel_id": "P-0167", "owner": "Shobha Deshmukh", "area_sq_m": 4672.4, "land_use": "Mixed Use", "ward": "Ward-07"}}, {"type": "Feature", "geometry": {"type": "Polygon", "coordinates": [[[74.24861000000001, 16.70956], [74.24924, 16.70956], [74.24924, 16.71018324014039], [74.24861675985962, 16.710189999999997], [74.24861000000001, 16.70956]]]}, "properties": {"parcel_id": "P-0168", "owner": "Nirmala More", "area_sq_m": 4661.6, "land_use": "Mixed Use", "ward": "Ward-07"}}, {"type": "Feature", "geometry": {"type": "Polygon", "coordinates": [[[74.25086, 16.70806], [74.25148999999999, 16.70806], [74.25148999999999, 16.708683218276228], [74.25086678172377, 16.708689999999997], [74.25086, 16.70806]]]}, "properties": {"parcel_id": "P-0169", "owner": "Shobha Deshmukh", "area_sq_m": 4661.4, "land_use": "Vacant", "ward": "Ward-07"}}, {"type": "Feature", "geometry": {"type": "Polygon", "coordinates": [[[74.24411, 16.71331], [74.24474, 16.71331], [74.24474, 16.713906100962316], [74.24414389903768, 16.713939999999997], [74.24411, 16.71331]]]}, "properties": {"parcel_id": "P-0170", "owner": "Priya More", "area_sq_m": 4465.2, "land_use": "Commercial", "ward": "Ward-07"}}, {"type": "Feature", "geometry": {"type": "Polygon", "coordinates": [[[74.24711, 16.70581], [74.24774, 16.70581], [74.24774, 16.706429770326263], [74.24712022967374, 16.706439999999997], [74.24711, 16.70581]]]}, "properties": {"parcel_id": "P-0171", "owner": "Kavita Shinde", "area_sq_m": 4636.0, "land_use": "Residential", "ward": "Ward-07"}}, {"type": "Feature", "geometry": {"type": "Polygon", "coordinates": [[[74.24561000000001, 16.71106], [74.24624, 16.71106], [74.24624, 16.711663897300426], [74.24563610269959, 16.711689999999997], [74.24561000000001, 16.71106]]]}, "properties": {"parcel_id": "P-0172", "owner": "Suresh Deshmukh", "area_sq_m": 4520.7, "land_use": "Residential", "ward": "Ward-07"}}, {"type": "Feature", "geometry": {"type": "Polygon", "coordinates": [[[74.24411, 16.71406], [74.24474, 16.71406], [74.24474, 16.714658624210475], [74.24414137578952, 16.714689999999997], [74.24411, 16.71406]]]}, "properties": {"parcel_id": "P-0173", "owner": "Priya Chavan", "area_sq_m": 4483.0, "land_use": "Vacant", "ward": "Ward-07"}}, {"type": "Feature", "geometry": {"type": "Polygon", "coordinates": [[[74.25386, 16.70731], [74.25448999999999, 16.70731], [74.25448999999999, 16.707938367459054], [74.25386163254095, 16.707939999999997], [74.25386, 16.70731]]]}, "properties": {"parcel_id": "P-0174", "owner": "Deepak More", "area_sq_m": 4699.7, "land_use": "Vacant", "ward": "Ward-07"}}, {"type": "Feature", "geometry": {"type": "Polygon", "coordinates": [[[74.25311, 16.71406], [74.25374, 16.71406], [74.25374, 16.71468763372986], [74.25311236627014, 16.714689999999997], [74.25311, 16.71406]]]}, "properties": {"parcel_id": "P-0175", "owner": "Prakash Kadam", "area_sq_m": 4694.2, "land_use": "Institutional", "ward": "Ward-07"}}, {"type": "Feature", "geometry": {"type": "Polygon", "coordinates": [[[74.25236000000001, 16.71256], [74.25299, 16.71256], [74.25299, 16.71316212596104], [74.25238787403897, 16.713189999999997], [74.25236000000001, 16.71256]]]}, "properties": {"parcel_id": "P-0176", "owner": "Kavita Pawar", "area_sq_m": 4508.0, "land_use": "Institutional", "ward": "Ward-07"}}, {"type": "Feature", "geometry": {"type": "Polygon", "coordinates": [[[74.24561000000001, 16.71256], [74.24624, 16.71256], [74.24624, 16.713183232881775], [74.24561676711824, 16.713189999999997], [74.24561000000001, 16.71256]]]}, "properties": {"parcel_id": "P-0177", "owner": "Anil Chavan", "area_sq_m": 4661.5, "land_use": "Vacant", "ward": "Ward-07"}}, {"type": "Feature", "geometry": {"type": "Polygon", "coordinates": [[[74.24411, 16.71256], [74.24474, 16.71256], [74.24474, 16.71318718595631], [74.24411281404369, 16.713189999999997], [74.24411, 16.71256]]]}, "properties": {"parcel_id": "P-0178", "owner": "Rekha Bhosale", "area_sq_m": 4690.9, "land_use": "Institutional", "ward": "Ward-07"}}, {"type": "Feature", "geometry": {"type": "Polygon", "coordinates": [[[74.24636000000001, 16.71406], [74.24699, 16.71406], [74.24699, 16.71466453517286], [74.24638546482714, 16.714689999999997], [74.24636000000001, 16.71406]]]}, "properties": {"parcel_id": "P-0179", "owner": "Rekha Chavan", "area_sq_m": 4525.3, "land_use": "Vacant", "ward": "Ward-07"}}, {"type": "Feature", "geometry": {"type": "Polygon", "coordinates": [[[74.25311, 16.71181], [74.25374, 16.71181], [74.25374, 16.712413598582078], [74.25313640141793, 16.712439999999997], [74.25311, 16.71181]]]}, "properties": {"parcel_id": "P-0180", "owner": "Anita Kulkarni", "area_sq_m": 4518.5, "land_use": "Mixed Use", "ward": "Ward-07"}}, {"type": "Feature", "geometry": {"type": "Polygon", "coordinates": [[[74.24636000000001, 16.70731], [74.24699, 16.70731], [74.24699, 16.70793756478456], [74.24636243521545, 16.707939999999997], [74.24636000000001, 16.70731]]]}, "properties": {"parcel_id": "P-0181", "owner": "Anil Gaikwad", "area_sq_m": 4693.7, "land_use": "Mixed Use", "ward": "Ward-07"}}, {"type": "Feature", "geometry": {"type": "Polygon", "coordinates": [[[74.25161000000001, 16.71181], [74.25224, 16.71181], [74.25224, 16.71243753444605], [74.25161246555396, 16.712439999999997], [74.25161000000001, 16.71181]]]}, "properties": {"parcel_id": "P-0182", "owner": "Anita Deshmukh", "area_sq_m": 4693.5, "land_use": "Vacant", "ward": "Ward-07"}}, {"type": "Feature", "geometry": {"type": "Polygon", "coordinates": [[[74.24936000000001, 16.70656], [74.24999, 16.70656], [74.24999, 16.707173776814255], [74.24937622318575, 16.707189999999997], [74.24936000000001, 16.70656]]]}, "properties": {"parcel_id": "P-0183", "owner": "Anita Gaikwad", "area_sq_m": 4592.1, "land_use": "Vacant", "ward": "Ward-07"}}, {"type": "Feature", "geometry": {"type": "Polygon", "coordinates": [[[74.25236000000001, 16.71031], [74.25299, 16.71031], [74.25299, 16.710928644077267], [74.25237135592273, 16.710939999999997], [74.25236000000001, 16.71031]]]}, "properties": {"parcel_id": "P-0184", "owner": "Ganesh Joshi", "area_sq_m": 4627.7, "land_use": "Vacant", "ward": "Ward-07"}}, {"type": "Feature", "geometry": {"type": "Polygon", "coordinates": [[[74.24936000000001, 16.70956], [74.24999, 16.70956], [74.24999, 16.710169540844365], [74.24938045915565, 16.710189999999997], [74.24936000000001, 16.70956]]]}, "properties": {"parcel_id": "P-0185", "owner": "Nirmala Bhosale", "area_sq_m": 4561.3, "land_use": "Residential", "ward": "Ward-07"}}, {"type": "Feature", "geometry": {"type": "Polygon", "coordinates": [[[74.25086, 16.70581], [74.25148999999999, 16.70581], [74.25148999999999, 16.706420688244968], [74.25087931175503, 16.706439999999997], [74.25086, 16.70581]]]}, "properties": {"parcel_id": "P-0186", "owner": "Rekha Chavan", "area_sq_m": 4569.6, "land_use": "Commercial", "ward": "Ward-07"}}, {"type": "Feature", "geometry": {"type": "Polygon", "coordinates": [[[74.25311, 16.70956], [74.25374, 16.70956], [74.25374, 16.710161382948428], [74.25313861705158, 16.710189999999997], [74.25311, 16.70956]]]}, "properties": {"parcel_id": "P-0187", "owner": "Meena Pawar", "area_sq_m": 4502.7, "land_use": "Vacant", "ward": "Ward-07"}}, {"type": "Feature", "geometry": {"type": "Polygon", "coordinates": [[[74.25311, 16.71256], [74.25374, 16.71256], [74.25374, 16.713173840208647], [74.25312615979136, 16.713189999999997], [74.25311, 16.71256]]]}, "properties": {"parcel_id": "P-0188", "owner": "Lata More", "area_sq_m": 4592.6, "land_use": "Residential", "ward": "Ward-07"}}, {"type": "Feature", "geometry": {"type": "Polygon", "coordinates": [[[74.24861000000001, 16.70731], [74.24924, 16.70731], [74.24924, 16.70792522861077], [74.24862477138925, 16.707939999999997], [74.24861000000001, 16.70731]]]}, "properties": {"parcel_id": "P-0189", "owner": "Shobha Gaikwad", "area_sq_m": 4602.7, "land_use": "Vacant", "ward": "Ward-07"}}, {"type": "Feature", "geometry": {"type": "Polygon", "coordinates": [[[74.24486, 16.71031], [74.24548999999999, 16.71031], [74.24548999999999, 16.71090285190984], [74.24489714809016, 16.710939999999997], [74.24486, 16.71031]]]}, "properties": {"parcel_id": "P-0190", "owner": "Suresh Pawar", "area_sq_m": 4442.2, "land_use": "Vacant", "ward": "Ward-07"}}, {"type": "Feature", "geometry": {"type": "Polygon", "coordinates": [[[74.24936000000001, 16.71256], [74.24999, 16.71256], [74.24999, 16.71315373484889], [74.24939626515112, 16.713189999999997], [74.24936000000001, 16.71256]]]}, "properties": {"parcel_id": "P-0191", "owner": "Manoj Shinde", "area_sq_m": 4448.4, "land_use": "Residential", "ward": "Ward-07"}}, {"type": "Feature", "geometry": {"type": "Polygon", "coordinates": [[[74.24636000000001, 16.70806], [74.24699, 16.70806], [74.24699, 16.708671181768576], [74.24637881823143, 16.708689999999997], [74.24636000000001, 16.70806]]]}, "properties": {"parcel_id": "P-0192", "owner": "Nirmala Deshmukh", "area_sq_m": 4573.2, "land_use": "Institutional", "ward": "Ward-07"}}, {"type": "Feature", "geometry": {"type": "Polygon", "coordinates": [[[74.24786, 16.70806], [74.24848999999999, 16.70806], [74.24848999999999, 16.708661050383093], [74.24788894961691, 16.708689999999997], [74.24786, 16.70806]]]}, "properties": {"parcel_id": "P-0193", "owner": "Prakash More", "area_sq_m": 4500.3, "land_use": "Mixed Use", "ward": "Ward-07"}}, {"type": "Feature", "geometry": {"type": "Polygon", "coordinates": [[[74.24861000000001, 16.70656], [74.24924, 16.70656], [74.24924, 16.707175761468047], [74.24862423853196, 16.707189999999997], [74.24861000000001, 16.70656]]]}, "properties": {"parcel_id": "P-0194", "owner": "Ganesh Shinde", "area_sq_m": 4606.6, "land_use": "Residential", "ward": "Ward-07"}}, {"type": "Feature", "geometry": {"type": "Polygon", "coordinates": [[[74.25386, 16.71106], [74.25448999999999, 16.71106], [74.25448999999999, 16.71168153731326], [74.25386846268674, 16.711689999999997], [74.25386, 16.71106]]]}, "properties": {"parcel_id": "P-0195", "owner": "Priya Joshi", "area_sq_m": 4649.0, "land_use": "Residential", "ward": "Ward-07"}}, {"type": "Feature", "geometry": {"type": "Polygon", "coordinates": [[[74.25236000000001, 16.70956], [74.25299, 16.70956], [74.25299, 16.710165538797607], [74.2523844612024, 16.710189999999997], [74.25236000000001, 16.70956]]]}, "properties": {"parcel_id": "P-0196", "owner": "Lata Pawar", "area_sq_m": 4532.5, "land_use": "Mixed Use", "ward": "Ward-07"}}, {"type": "Feature", "geometry": {"type": "Polygon", "coordinates": [[[74.25236000000001, 16.71181], [74.25299, 16.71181], [74.25299, 16.712435976224093], [74.25236402377591, 16.712439999999997], [74.25236000000001, 16.71181]]]}, "properties": {"parcel_id": "P-0197", "owner": "Lata Patil", "area_sq_m": 4681.9, "land_use": "Residential", "ward": "Ward-07"}}, {"type": "Feature", "geometry": {"type": "Polygon", "coordinates": [[[74.24936000000001, 16.71406], [74.24999, 16.71406], [74.24999, 16.714668708204158], [74.24938129179586, 16.714689999999997], [74.24936000000001, 16.71406]]]}, "properties": {"parcel_id": "P-0198", "owner": "Meena Patil", "area_sq_m": 4555.3, "land_use": "Mixed Use", "ward": "Ward-07"}}, {"type": "Feature", "geometry": {"type": "Polygon", "coordinates": [[[74.24936000000001, 16.71181], [74.24999, 16.71181], [74.24999, 16.712439571159965], [74.24936042884005, 16.712439999999997], [74.24936000000001, 16.71181]]]}, "properties": {"parcel_id": "P-0199", "owner": "Ganesh Pawar", "area_sq_m": 4708.7, "land_use": "Mixed Use", "ward": "Ward-07"}}, {"type": "Feature", "geometry": {"type": "Polygon", "coordinates": [[[74.25311, 16.70581], [74.25374, 16.70581], [74.25374, 16.706411599355373], [74.25313840064463, 16.706439999999997], [74.25311, 16.70581]]]}, "properties": {"parcel_id": "P-0200", "owner": "Shobha Pawar", "area_sq_m": 4504.2, "land_use": "Institutional", "ward": "Ward-07"}}, {"type": "Feature", "geometry": {"type": "Polygon", "coordinates": [[[74.24861000000001, 16.71106], [74.24924, 16.71106], [74.24924, 16.71167343097927], [74.24862656902074, 16.711689999999997], [74.24861000000001, 16.71106]]]}, "properties": {"parcel_id": "P-0201", "owner": "Manoj More", "area_sq_m": 4589.6, "land_use": "Commercial", "ward": "Ward-07"}}, {"type": "Feature", "geometry": {"type": "Polygon", "coordinates": [[[74.25011, 16.71181], [74.25074, 16.71181], [74.25074, 16.712437411782016], [74.25011258821799, 16.712439999999997], [74.25011, 16.71181]]]}, "properties": {"parcel_id": "P-0202", "owner": "Anil More", "area_sq_m": 4692.6, "land_use": "Residential", "ward": "Ward-07"}}, {"type": "Feature", "geometry": {"type": "Polygon", "coordinates": [[[74.24711, 16.71181], [74.24774, 16.71181], [74.24774, 16.712403844585882], [74.24714615541411, 16.712439999999997], [74.24711, 16.71181]]]}, "properties": {"parcel_id": "P-0203", "owner": "Sunil Jadhav", "area_sq_m": 4449.2, "land_use": "Institutional", "ward": "Ward-07"}}, {"type": "Feature", "geometry": {"type": "Polygon", "coordinates": [[[74.24411, 16.71106], [74.24474, 16.71106], [74.24474, 16.711682931983077], [74.24411706801693, 16.711689999999997], [74.24411, 16.71106]]]}, "properties": {"parcel_id": "P-0204", "owner": "Priya Joshi", "area_sq_m": 4659.3, "land_use": "Institutional", "ward": "Ward-07"}}, {"type": "Feature", "geometry": {"type": "Polygon", "coordinates": [[[74.24486, 16.70731], [74.24548999999999, 16.70731], [74.24548999999999, 16.70791975900716], [74.24488024099284, 16.707939999999997], [74.24486, 16.70731]]]}, "properties": {"parcel_id": "P-0205", "owner": "Sita Joshi", "area_sq_m": 4562.9, "land_use": "Residential", "ward": "Ward-07"}}, {"type": "Feature", "geometry": {"type": "Polygon", "coordinates": [[[74.24411, 16.71031], [74.24474, 16.71031], [74.24474, 16.710907010729088], [74.24414298927091, 16.710939999999997], [74.24411, 16.71031]]]}, "properties": {"parcel_id": "P-0206", "owner": "Nirmala Shinde", "area_sq_m": 4471.6, "land_use": "Mixed Use", "ward": "Ward-07"}}, {"type": "Feature", "geometry": {"type": "Polygon", "coordinates": [[[74.25386, 16.71181], [74.25448999999999, 16.71181], [74.25448999999999, 16.712419101746566], [74.25388089825344, 16.712439999999997], [74.25386, 16.71181]]]}, "properties": {"parcel_id": "P-0207", "owner": "Sita More", "area_sq_m": 4558.2, "land_use": "Institutional", "ward": "Ward-07"}}, {"type": "Feature", "geometry": {"type": "Polygon", "coordinates": [[[74.24486, 16.71406], [74.24548999999999, 16.71406], [74.24548999999999, 16.714682057208545], [74.24486794279146, 16.714689999999997], [74.24486, 16.71406]]]}, "properties": {"parcel_id": "P-0208", "owner": "Sunita Joshi", "area_sq_m": 4652.8, "land_use": "Mixed Use", "ward": "Ward-07"}}, {"type": "Feature", "geometry": {"type": "Polygon", "coordinates": [[[74.24861000000001, 16.71031], [74.24924, 16.71031], [74.24924, 16.710920769379747], [74.24862923062027, 16.710939999999997], [74.24861000000001, 16.71031]]]}, "properties": {"parcel_id": "P-0209", "owner": "Anita Gaikwad", "area_sq_m": 4570.2, "land_use": "Mixed Use", "ward": "Ward-07"}}, {"type": "Feature", "geometry": {"type": "Polygon", "coordinates": [[[74.24711, 16.71256], [74.24774, 16.71256], [74.24774, 16.71317127619441], [74.2471287238056, 16.713189999999997], [74.24711, 16.71256]]]}, "properties": {"parcel_id": "P-0210", "owner": "Vijay Pawar", "area_sq_m": 4573.9, "land_use": "Commercial", "ward": "Ward-07"}}, {"type": "Feature", "geometry": {"type": "Polygon", "coordinates": [[[74.24636000000001, 16.70956], [74.24699, 16.70956], [74.24699, 16.71016494191712], [74.2463850580829, 16.710189999999997], [74.24636000000001, 16.70956]]]}, "properties": {"parcel_id": "P-0211", "owner": "Deepak Patil", "area_sq_m": 4528.2, "land_use": "Residential", "ward": "Ward-07"}}, {"type": "Feature", "geometry": {"type": "Polygon", "coordinates": [[[74.24711, 16.70806], [74.24774, 16.70806], [74.24774, 16.708669313366464], [74.24713068663354, 16.708689999999997], [74.24711, 16.70806]]]}, "properties": {"parcel_id": "P-0212", "owner": "Shobha Jadhav", "area_sq_m": 4559.7, "land_use": "Institutional", "ward": "Ward-07"}}, {"type": "Feature", "geometry": {"type": "Polygon", "coordinates": [[[74.25311, 16.71106], [74.25374, 16.71106], [74.25374, 16.711681530353022], [74.25311846964698, 16.711689999999997], [74.25311, 16.71106]]]}, "properties": {"parcel_id": "P-0213", "owner": "Prakash Bhosale", "area_sq_m": 4648.9, "land_use": "Commercial", "ward": "Ward-07"}}, {"type": "Feature", "geometry": {"type": "Polygon", "coordinates": [[[74.25086, 16.70956], [74.25148999999999, 16.70956], [74.25148999999999, 16.710165815978424], [74.25088418402157, 16.710189999999997], [74.25086, 16.70956]]]}, "properties": {"parcel_id": "P-0214", "owner": "Meena Kulkarni", "area_sq_m": 4534.5, "land_use": "Institutional", "ward": "Ward-07"}}, {"type": "Feature", "geometry": {"type": "Polygon", "coordinates": [[[74.25161000000001, 16.70956], [74.25224, 16.70956], [74.25224, 16.71015627581309], [74.25164372418692, 16.710189999999997], [74.25161000000001, 16.70956]]]}, "properties": {"parcel_id": "P-0215", "owner": "Ganesh Patil", "area_sq_m": 4466.4, "land_use": "Residential", "ward": "Ward-07"}}, {"type": "Feature", "geometry": {"type": "Polygon", "coordinates": [[[74.25011, 16.71106], [74.25074, 16.71106], [74.25074, 16.711664150854702], [74.2501358491453, 16.711689999999997], [74.25011, 16.71106]]]}, "properties": {"parcel_id": "P-0216", "owner": "Sunil Kadam", "area_sq_m": 4522.5, "land_use": "Commercial", "ward": "Ward-07"}}, {"type": "Feature", "geometry": {"type": "Polygon", "coordinates": [[[74.25086, 16.70731], [74.25148999999999, 16.70731], [74.25148999999999, 16.707923805702013], [74.25087619429799, 16.707939999999997], [74.25086, 16.70731]]]}, "properties": {"parcel_id": "P-0217", "owner": "Prakash Jadhav", "area_sq_m": 4592.3, "land_use": "Commercial", "ward": "Ward-07"}}, {"type": "Feature", "geometry": {"type": "Polygon", "coordinates": [[[74.25161000000001, 16.71406], [74.25224, 16.71406], [74.25224, 16.71466911306129], [74.25163088693873, 16.714689999999997], [74.25161000000001, 16.71406]]]}, "properties": {"parcel_id": "P-0218", "owner": "Kavita Deshmukh", "area_sq_m": 4558.2, "land_use": "Residential", "ward": "Ward-07"}}, {"type": "Feature", "geometry": {"type": "Polygon", "coordinates": [[[74.25161000000001, 16.70581], [74.25224, 16.70581], [74.25224, 16.706425722549117], [74.2516242774509, 16.706439999999997], [74.25161000000001, 16.70581]]]}, "properties": {"parcel_id": "P-0219", "owner": "Anita Joshi", "area_sq_m": 4606.3, "land_use": "Vacant", "ward": "Ward-07"}}, {"type": "Feature", "geometry": {"type": "Polygon", "coordinates": [[[74.24861000000001, 16.70806], [74.24924, 16.70806], [74.24924, 16.70865776843248], [74.24864223156753, 16.708689999999997], [74.24861000000001, 16.70806]]]}, "properties": {"parcel_id": "P-0220", "owner": "Prakash Pawar", "area_sq_m": 4477.0, "land_use": "Institutional", "ward": "Ward-07"}}, {"type": "Feature", "geometry": {"type": "Polygon", "coordinates": [[[74.24861000000001, 16.71181], [74.24924, 16.71181], [74.24924, 16.712409381455668], [74.24864061854434, 16.712439999999997], [74.24861000000001, 16.71181]]]}, "properties": {"parcel_id": "P-0221", "owner": "Sunita Bhosale", "area_sq_m": 4488.4, "land_use": "Commercial", "ward": "Ward-07"}}, {"type": "Feature", "geometry": {"type": "Polygon", "coordinates": [[[74.24486, 16.70656], [74.24548999999999, 16.70656], [74.24548999999999, 16.707160162868647], [74.24488983713135, 16.707189999999997], [74.24486, 16.70656]]]}, "properties": {"parcel_id": "P-0222", "owner": "Lata Kadam", "area_sq_m": 4494.0, "land_use": "Residential", "ward": "Ward-07"}}, {"type": "Feature", "geometry": {"type": "Polygon", "coordinates": [[[74.25311, 16.70881], [74.25374, 16.70881], [74.25374, 16.709426517644008], [74.25312348235599, 16.709439999999997], [74.25311, 16.70881]]]}, "properties": {"parcel_id": "P-0223", "owner": "Nirmala More", "area_sq_m": 4612.1, "land_use": "Residential", "ward": "Ward-07"}}, {"type": "Feature", "geometry": {"type": "Polygon", "coordinates": [[[74.24561000000001, 16.70881], [74.24624, 16.70881], [74.24624, 16.709431674959514], [74.2456183250405, 16.709439999999997], [74.24561000000001, 16.70881]]]}, "properties": {"parcel_id": "P-0224", "owner": "Ashok Chavan", "area_sq_m": 4650.0, "land_use": "Residential", "ward": "Ward-07"}}, {"type": "Feature", "geometry": {"type": "Polygon", "coordinates": [[[74.25086, 16.71031], [74.25148999999999, 16.71031], [74.25148999999999, 16.710934687180867], [74.25086531281913, 16.710939999999997], [74.25086, 16.71031]]]}, "properties": {"parcel_id": "P-0225", "owner": "Lata Chavan", "area_sq_m": 4672.3, "land_use": "Residential", "ward": "Ward-07"}}, {"type": "Feature", "geometry": {"type": "Polygon", "coordinates": [[[74.24786, 16.70581], [74.24848999999999, 16.70581], [74.24848999999999, 16.706415982042124], [74.24788401795787, 16.706439999999997], [74.24786, 16.70581]]]}, "properties": {"parcel_id": "P-0226", "owner": "Prakash Joshi", "area_sq_m": 4535.7, "land_use": "Institutional", "ward": "Ward-07"}}, {"type": "Feature", "geometry": {"type": "Polygon", "coordinates": [[[74.24786, 16.71106], [74.24848999999999, 16.71106], [74.24848999999999, 16.71166484869644], [74.24788515130356, 16.711689999999997], [74.24786, 16.71106]]]}, "properties": {"parcel_id": "P-0227", "owner": "Rekha Pawar", "area_sq_m": 4527.5, "land_use": "Commercial", "ward": "Ward-07"}}, {"type": "Feature", "geometry": {"type": "Polygon", "coordinates": [[[74.25236000000001, 16.70881], [74.25299, 16.70881], [74.25299, 16.70943558018802], [74.25236441981198, 16.709439999999997], [74.25236000000001, 16.70881]]]}, "properties": {"parcel_id": "P-0228", "owner": "Shobha Bhosale", "area_sq_m": 4678.9, "land_use": "Residential", "ward": "Ward-07"}}, {"type": "Feature", "geometry": {"type": "Polygon", "coordinates": [[[74.24711, 16.71031], [74.24774, 16.71031], [74.24774, 16.71093298380325], [74.24711701619675, 16.710939999999997], [74.24711, 16.71031]]]}, "properties": {"parcel_id": "P-0229", "owner": "Meena More", "area_sq_m": 4659.7, "land_use": "Commercial", "ward": "Ward-07"}}, {"type": "Feature", "geometry": {"type": "Polygon", "coordinates": [[[74.24936000000001, 16.71031], [74.24999, 16.71031], [74.24999, 16.71091015446664], [74.24938984553337, 16.710939999999997], [74.24936000000001, 16.71031]]]}, "properties": {"parcel_id": "P-0230", "owner": "Prakash Jadhav", "area_sq_m": 4493.9, "land_use": "Commercial", "ward": "Ward-07"}}, {"type": "Feature", "geometry": {"type": "Polygon", "coordinates": [[[74.25161000000001, 16.70656], [74.25224, 16.70656], [74.25224, 16.707159126894698], [74.25164087310532, 16.707189999999997], [74.25161000000001, 16.70656]]]}, "properties": {"parcel_id": "P-0231", "owner": "Manoj Kulkarni", "area_sq_m": 4486.6, "land_use": "Mixed Use", "ward": "Ward-07"}}, {"type": "Feature", "geometry": {"type": "Polygon", "coordinates": [[[74.25386, 16.71031], [74.25448999999999, 16.71031], [74.25448999999999, 16.71092353487862], [74.25387646512138, 16.710939999999997], [74.25386, 16.71031]]]}, "properties": {"parcel_id": "P-0232", "owner": "Lata Patil", "area_sq_m": 4590.3, "land_use": "Institutional", "ward": "Ward-07"}}, {"type": "Feature", "geometry": {"type": "Polygon", "coordinates": [[[74.25386, 16.71331], [74.25448999999999, 16.71331], [74.25448999999999, 16.71391979617952], [74.25388020382049, 16.713939999999997], [74.25386, 16.71331]]]}, "properties": {"parcel_id": "P-0233", "owner": "Sita Bhosale", "area_sq_m": 4563.2, "land_use": "Mixed Use", "ward": "Ward-07"}}, {"type": "Feature", "geometry": {"type": "Polygon", "coordinates": [[[74.24861000000001, 16.71406], [74.24924, 16.71406], [74.24924, 16.714677921373312], [74.2486220786267, 16.714689999999997], [74.24861000000001, 16.71406]]]}, "properties": {"parcel_id": "P-0234", "owner": "Suresh Kadam", "area_sq_m": 4622.4, "land_use": "Commercial", "ward": "Ward-07"}}, {"type": "Feature", "geometry": {"type": "Polygon", "coordinates": [[[74.24561000000001, 16.71031], [74.24624, 16.71031], [74.24624, 16.710936507187817], [74.2456134928122, 16.710939999999997], [74.24561000000001, 16.71031]]]}, "properties": {"parcel_id": "P-0235", "owner": "Sunita Pawar", "area_sq_m": 4685.8, "land_use": "Vacant", "ward": "Ward-07"}}, {"type": "Feature", "geometry": {"type": "Polygon", "coordinates": [[[74.25311, 16.71331], [74.25374, 16.71331], [74.25374, 16.713939389449283], [74.25311061055072, 16.713939999999997], [74.25311, 16.71331]]]}, "properties": {"parcel_id": "P-0236", "owner": "Sita Patil", "area_sq_m": 4707.3, "land_use": "Residential", "ward": "Ward-07"}}, {"type": "Feature", "geometry": {"type": "Polygon", "coordinates": [[[74.25236000000001, 16.70731], [74.25299, 16.70731], [74.25299, 16.70791508091957], [74.25238491908044, 16.707939999999997], [74.25236000000001, 16.70731]]]}, "properties": {"parcel_id": "P-0237", "owner": "Anil Gaikwad", "area_sq_m": 4529.2, "land_use": "Mixed Use", "ward": "Ward-07"}}, {"type": "Feature", "geometry": {"type": "Polygon", "coordinates": [[[74.24561000000001, 16.71331], [74.24624, 16.71331], [74.24624, 16.713936129942503], [74.24561387005751, 16.713939999999997], [74.24561000000001, 16.71331]]]}, "properties": {"parcel_id": "P-0238", "owner": "Priya Chavan", "area_sq_m": 4683.0, "land_use": "Residential", "ward": "Ward-07"}}, {"type": "Feature", "geometry": {"type": "Polygon", "coordinates": [[[74.24636000000001, 16.71031], [74.24699, 16.71031], [74.24699, 16.71093674919874], [74.24636325080127, 16.710939999999997], [74.24636000000001, 16.71031]]]}, "properties": {"parcel_id": "P-0239", "owner": "Suresh Chavan", "area_sq_m": 4687.6, "land_use": "Vacant", "ward": "Ward-07"}}, {"type": "Feature", "geometry": {"type": "Polygon", "coordinates": [[[74.24561000000001, 16.71406], [74.24624, 16.71406], [74.24624, 16.71466195586346], [74.24563804413656, 16.714689999999997], [74.24561000000001, 16.71406]]]}, "properties": {"parcel_id": "P-0240", "owner": "Lata Joshi", "area_sq_m": 4506.8, "land_use": "Vacant", "ward": "Ward-07"}}, {"type": "Feature", "geometry": {"type": "Polygon", "coordinates": [[[74.25311, 16.70731], [74.25374, 16.70731], [74.25374, 16.707939482746532], [74.25311051725348, 16.707939999999997], [74.25311, 16.70731]]]}, "properties": {"parcel_id": "P-0241", "owner": "Meena Jadhav", "area_sq_m": 4708.0, "land_use": "Residential", "ward": "Ward-07"}}, {"type": "Feature", "geometry": {"type": "Polygon", "coordinates": [[[74.24486, 16.70581], [74.24548999999999, 16.70581], [74.24548999999999, 16.706428378491786], [74.24487162150821, 16.706439999999997], [74.24486, 16.70581]]]}, "properties": {"parcel_id": "P-0242", "owner": "Anita More", "area_sq_m": 4625.7, "land_use": "Vacant", "ward": "Ward-07"}}, {"type": "Feature", "geometry": {"type": "Polygon", "coordinates": [[[74.24486, 16.70956], [74.24548999999999, 16.70956], [74.24548999999999, 16.71018565050319], [74.24486434949681, 16.710189999999997], [74.24486, 16.70956]]]}, "properties": {"parcel_id": "P-0243", "owner": "Sita Joshi", "area_sq_m": 4679.4, "land_use": "Residential", "ward": "Ward-07"}}, {"type": "Feature", "geometry": {"type": "Polygon", "coordinates": [[[74.24561000000001, 16.71181], [74.24624, 16.71181], [74.24624, 16.71243889914058], [74.24561110085943, 16.712439999999997], [74.24561000000001, 16.71181]]]}, "properties": {"parcel_id": "P-0244", "owner": "Ganesh Kadam", "area_sq_m": 4703.6, "land_use": "Residential", "ward": "Ward-07"}}, {"type": "Feature", "geometry": {"type": "Polygon", "coordinates": [[[74.24411, 16.70881], [74.24474, 16.70881], [74.24474, 16.70943082932061], [74.2441191706794, 16.709439999999997], [74.24411, 16.70881]]]}, "properties": {"parcel_id": "P-0245", "owner": "Kavita Joshi", "area_sq_m": 4643.8, "land_use": "Vacant", "ward": "Ward-07"}}, {"type": "Feature", "geometry": {"type": "Polygon", "coordinates": [[[74.25086, 16.71106], [74.25148999999999, 16.71106], [74.25148999999999, 16.71167800243234], [74.25087199756766, 16.711689999999997], [74.25086, 16.71106]]]}, "properties": {"parcel_id": "P-0246", "owner": "Ashok Joshi", "area_sq_m": 4623.0, "land_use": "Institutional", "ward": "Ward-07"}}, {"type": "Feature", "geometry": {"type": "Polygon", "coordinates": [[[74.24786, 16.71406], [74.24848999999999, 16.71406], [74.24848999999999, 16.714662265900493], [74.2478877340995, 16.714689999999997], [74.24786, 16.71406]]]}, "properties": {"parcel_id": "P-0247", "owner": "Ramesh Pawar", "area_sq_m": 4509.0, "land_use": "Commercial", "ward": "Ward-07"}}, {"type": "Feature", "geometry": {"type": "Polygon", "coordinates": [[[74.25011, 16.70806], [74.25074, 16.70806], [74.25074, 16.708662729436032], [74.25013727056397, 16.708689999999997], [74.25011, 16.70806]]]}, "properties": {"parcel_id": "P-0248", "owner": "Ashok Patil", "area_sq_m": 4512.3, "land_use": "Institutional", "ward": "Ward-07"}}, {"type": "Feature", "geometry": {"type": "Polygon", "coordinates": [[[74.24636000000001, 16.71331], [74.24699, 16.71331], [74.24699, 16.713909251391552], [74.24639074860846, 16.713939999999997], [74.24636000000001, 16.71331]]]}, "properties": {"parcel_id": "P-0249", "owner": "Anil Bhosale", "area_sq_m": 4487.5, "land_use": "Residential", "ward": "Ward-07"}}, {"type": "Feature", "geometry": {"type": "Polygon", "coordinates": [[[74.25236000000001, 16.71406], [74.25299, 16.71406], [74.25299, 16.71468006220274], [74.25236993779727, 16.714689999999997], [74.25236000000001, 16.71406]]]}, "properties": {"parcel_id": "P-0250", "owner": "Anita Pawar", "area_sq_m": 4638.1, "land_use": "Commercial", "ward": "Ward-07"}}, {"type": "Feature", "geometry": {"type": "Polygon", "coordinates": [[[74.24636000000001, 16.71256], [74.24699, 16.71256], [74.24699, 16.713180630526438], [74.24636936947357, 16.713189999999997], [74.24636000000001, 16.71256]]]}, "properties": {"parcel_id": "P-0251", "owner": "Ramesh Chavan", "area_sq_m": 4642.3, "land_use": "Institutional", "ward": "Ward-07"}}, {"type": "Feature", "geometry": {"type": "Polygon", "coordinates": [[[74.24636000000001, 16.70881], [74.24699, 16.70881], [74.24699, 16.709423371325354], [74.24637662867465, 16.709439999999997], [74.24636000000001, 16.70881]]]}, "properties": {"parcel_id": "P-0252", "owner": "Anil Patil", "area_sq_m": 4589.1, "land_use": "Residential", "ward": "Ward-07"}}, {"type": "Feature", "geometry": {"type": "Polygon", "coordinates": [[[74.25386, 16.70806], [74.25448999999999, 16.70806], [74.25448999999999, 16.708674278694204], [74.2538757213058, 16.708689999999997], [74.25386, 16.70806]]]}, "properties": {"parcel_id": "P-0253", "owner": "Sunita Patil", "area_sq_m": 4595.8, "land_use": "Residential", "ward": "Ward-07"}}, {"type": "Feature", "geometry": {"type": "Polygon", "coordinates": [[[74.25086, 16.70656], [74.25148999999999, 16.70656], [74.25148999999999, 16.707178042091222], [74.25087195790877, 16.707189999999997], [74.25086, 16.70656]]]}, "properties": {"parcel_id": "P-0254", "owner": "Deepak Pawar", "area_sq_m": 4623.3, "land_use": "Institutional", "ward": "Ward-07"}}, {"type": "Feature", "geometry": {"type": "Polygon", "coordinates": [[[74.24936000000001, 16.70581], [74.24999, 16.70581], [74.24999, 16.706437903425403], [74.2493620965746, 16.706439999999997], [74.24936000000001, 16.70581]]]}, "properties": {"parcel_id": "P-0255", "owner": "Kavita Joshi", "area_sq_m": 4696.2, "land_use": "Commercial", "ward": "Ward-07"}}, {"type": "Feature", "geometry": {"type": "Polygon", "coordinates": [[[74.25011, 16.70581], [74.25074, 16.70581], [74.25074, 16.70642160863424], [74.25012839136576, 16.706439999999997], [74.25011, 16.70581]]]}, "properties": {"parcel_id": "P-0256", "owner": "Manoj Joshi", "area_sq_m": 4576.3, "land_use": "Institutional", "ward": "Ward-07"}}, {"type": "Feature", "geometry": {"type": "Polygon", "coordinates": [[[74.25161000000001, 16.71106], [74.25224, 16.71106], [74.25224, 16.711655604094467], [74.25164439590554, 16.711689999999997], [74.25161000000001, 16.71106]]]}, "properties": {"parcel_id": "P-0257", "owner": "Ashok Patil", "area_sq_m": 4461.6, "land_use": "Residential", "ward": "Ward-07"}}, {"type": "Feature", "geometry": {"type": "Polygon", "coordinates": [[[74.25236000000001, 16.71331], [74.25299, 16.71331], [74.25299, 16.713910487807777], [74.25238951219224, 16.713939999999997], [74.25236000000001, 16.71331]]]}, "properties": {"parcel_id": "P-0258", "owner": "Meena Kadam", "area_sq_m": 4496.3, "land_use": "Vacant", "ward": "Ward-07"}}, {"type": "Feature", "geometry": {"type": "Polygon", "coordinates": [[[74.25011, 16.70656], [74.25074, 16.70656], [74.25074, 16.707187082251053], [74.25011291774895, 16.707189999999997], [74.25011, 16.70656]]]}, "properties": {"parcel_id": "P-0259", "owner": "Manoj Kulkarni", "area_sq_m": 4690.1, "land_use": "Institutional", "ward": "Ward-07"}}, {"type": "Feature", "geometry": {"type": "Polygon", "coordinates": [[[74.25386, 16.71256], [74.25448999999999, 16.71256], [74.25448999999999, 16.713160422625204], [74.25388957737479, 16.713189999999997], [74.25386, 16.71256]]]}, "properties": {"parcel_id": "P-0260", "owner": "Anita Chavan", "area_sq_m": 4495.8, "land_use": "Residential", "ward": "Ward-07"}}, {"type": "Feature", "geometry": {"type": "Polygon", "coordinates": [[[74.25311, 16.70656], [74.25374, 16.70656], [74.25374, 16.707156504018524], [74.25314349598148, 16.707189999999997], [74.25311, 16.70656]]]}, "properties": {"parcel_id": "P-0261", "owner": "Anita Kulkarni", "area_sq_m": 4468.0, "land_use": "Mixed Use", "ward": "Ward-07"}}, {"type": "Feature", "geometry": {"type": "Polygon", "coordinates": [[[74.24936000000001, 16.70731], [74.24999, 16.70731], [74.24999, 16.70792905707002], [74.24937094292999, 16.707939999999997], [74.24936000000001, 16.70731]]]}, "properties": {"parcel_id": "P-0262", "owner": "Vijay Kulkarni", "area_sq_m": 4630.7, "land_use": "Residential", "ward": "Ward-07"}}, {"type": "Feature", "geometry": {"type": "Polygon", "coordinates": [[[74.24486, 16.70881], [74.24548999999999, 16.70881], [74.24548999999999, 16.709424301297187], [74.24487569870281, 16.709439999999997], [74.24486, 16.70881]]]}, "properties": {"parcel_id": "P-0263", "owner": "Anita Patil", "area_sq_m": 4595.9, "land_use": "Institutional", "ward": "Ward-07"}}, {"type": "Feature", "geometry": {"type": "Polygon", "coordinates": [[[74.24861000000001, 16.70881], [74.24924, 16.70881], [74.24924, 16.70942316100989], [74.24862683899012, 16.709439999999997], [74.24861000000001, 16.70881]]]}, "properties": {"parcel_id": "P-0264", "owner": "Shobha Deshmukh", "area_sq_m": 4587.6, "land_use": "Residential", "ward": "Ward-07"}}, {"type": "Feature", "geometry": {"type": "Polygon", "coordinates": [[[74.24411, 16.70956], [74.24474, 16.70956], [74.24474, 16.71015787659322], [74.24414212340677, 16.710189999999997], [74.24411, 16.70956]]]}, "properties": {"parcel_id": "P-0265", "owner": "Anil Chavan", "area_sq_m": 4477.7, "land_use": "Vacant", "ward": "Ward-07"}}, {"type": "Feature", "geometry": {"type": "Polygon", "coordinates": [[[74.24861000000001, 16.70581], [74.24924, 16.70581], [74.24924, 16.70641053453886], [74.24863946546115, 16.706439999999997], [74.24861000000001, 16.70581]]]}, "properties": {"parcel_id": "P-0266", "owner": "Kavita Kulkarni", "area_sq_m": 4496.6, "land_use": "Vacant", "ward": "Ward-07"}}, {"type": "Feature", "geometry": {"type": "Polygon", "coordinates": [[[74.24411, 16.70731], [74.24474, 16.70731], [74.24474, 16.70790546868814], [74.24414453131186, 16.707939999999997], [74.24411, 16.70731]]]}, "properties": {"parcel_id": "P-0267", "owner": "Ashok Kadam", "area_sq_m": 4460.7, "land_use": "Commercial", "ward": "Ward-07"}}, {"type": "Feature", "geometry": {"type": "Polygon", "coordinates": [[[74.25086, 16.71406], [74.25148999999999, 16.71406], [74.25148999999999, 16.714662214570037], [74.25088778542997, 16.714689999999997], [74.25086, 16.71406]]]}, "properties": {"parcel_id": "P-0268", "owner": "Anil Joshi", "area_sq_m": 4508.6, "land_use": "Institutional", "ward": "Ward-07"}}, {"type": "Feature", "geometry": {"type": "Polygon", "coordinates": [[[74.24555000000001, 16.70725], [74.2463, 16.708], [74.2463, 16.70725], [74.24555000000001, 16.708], [74.24555000000001, 16.70725]]]}, "properties": {"parcel_id": "P-9001", "owner": "Bowtie Test Parcel", "area_sq_m": 4200.0, "land_use": "Vacant", "ward": "Ward-07"}}, {"type": "Feature", "geometry": {"type": "Polygon", "coordinates": [[[74.24561000000001, 16.70806], [74.24624, 16.70806], [74.24624, 16.70865615839254], [74.24564384160747, 16.708689999999997], [74.24561000000001, 16.70806]]]}, "properties": {"parcel_id": "P-9002", "owner": "Duplicate Test Entry", "area_sq_m": 4465.6, "land_use": "Institutional", "ward": "Ward-07"}}, {"type": "Feature", "geometry": {"type": "Polygon", "coordinates": [[[74.25011, 16.70956], [74.25074, 16.70956], [74.25074, 16.710180644115198], [74.2501193558848, 16.710189999999997], [74.25011, 16.70956]]]}, "properties": {"parcel_id": "P-9003", "owner": "Overlap Test A", "area_sq_m": 4642.4, "land_use": "Residential", "ward": "Ward-07"}}, {"type": "Feature", "geometry": {"type": "Polygon", "coordinates": [[[74.2502225, 16.7097475], [74.2508525, 16.7097475], [74.2508525, 16.71036038317498], [74.25023961682503, 16.710377499999996], [74.2502225, 16.7097475]]]}, "properties": {"parcel_id": "P-9004", "owner": "Overlap Test B", "area_sq_m": 4585.6, "land_use": "Residential", "ward": "Ward-07"}}]}