{"type": "FeatureCollection", "features": [{"type": "Feature", "geometry": {"type": "Polygon", "coordinates": [[[74.2501625, 16.7096125], [74.2503875, 16.7096125], [74.2503875, 16.7098375], [74.2501625, 16.7098375], [74.2501625, 16.7096125]]]}, "properties": {"property_id": "B-0103-1", "owner_name": "Rekha Jadhav", "plot_area": 601.0, "usage_type": "Vacant", "linked_parcel": "P-0103"}}, {"type": "Feature", "geometry": {"type": "Polygon", "coordinates": [[[74.24866250000001, 16.7133625], [74.24888750000001, 16.7133625], [74.24888750000001, 16.7135875], [74.24866250000001, 16.7135875], [74.24866250000001, 16.7133625]]]}, "properties": {"property_id": "B-0105-1", "owner_name": "Priya Joshi", "plot_area": 601.0, "usage_type": "Commercial", "linked_parcel": "P-0105"}}, {"type": "Feature", "geometry": {"type": "Polygon", "coordinates": [[[74.24566250000001, 16.7081125], [74.24588750000001, 16.7081125], [74.24588750000001, 16.7083375], [74.24566250000001, 16.7083375], [74.24566250000001, 16.7081125]]]}, "properties": {"property_id": "B-0106-1", "owner_name": "Meena Chavan", "plot_area": 601.0, "usage_type": "Institutional", "linked_parcel": "P-0106"}}, {"type": "Feature", "geometry": {"type": "Polygon", "coordinates": [[[74.2449125, 16.7133625], [74.2451375, 16.7133625], [74.2451375, 16.7135875], [74.2449125, 16.7135875], [74.2449125, 16.7133625]]]}, "properties": {"property_id": "B-0108-1", "owner_name": "Sunil", "plot_area": 601.0, "usage_type": "Vacant", "linked_parcel": "P-0108"}}, {"type": "Feature", "geometry": {"type": "Polygon", "coordinates": [[[74.2451375, 16.7135875], [74.2453625, 16.7135875], [74.2453625, 16.7138125], [74.2451375, 16.7138125], [74.2451375, 16.7135875]]]}, "properties": {"property_id": "B-0108-2", "owner_name": "Sunil Kulkarni", "plot_area": 601.0, "usage_type": "Vacant", "linked_parcel": "P-0108"}}, {"type": "Feature", "geometry": {"type": "Polygon", "coordinates": [[[74.25167750000001, 16.7126275], [74.25190250000001, 16.7126275], [74.25190250000001, 16.7128525], [74.25167750000001, 16.7128525], [74.25167750000001, 16.7126275]]]}, "properties": {"property_id": "B-0109-1-EXT", "owner_name": "Anil More", "plot_area": 601.0, "usage_type": "Commercial", "linked_parcel": "P-0109"}}, {"type": "Feature", "geometry": {"type": "Polygon", "coordinates": [[[74.2471625, 16.7096125], [74.2473875, 16.7096125], [74.2473875, 16.7098375], [74.2471625, 16.7098375], [74.2471625, 16.7096125]]]}, "properties": {"property_id": "B-0110-1", "owner_name": "Anita", "plot_area": 601.0, "usage_type": "Mixed Use", "linked_parcel": "P-0110"}}, {"type": "Feature", "geometry": {"type": "Polygon", "coordinates": [[[74.25166250000001, 16.7073625], [74.25188750000001, 16.7073625], [74.25188750000001, 16.7075875], [74.25166250000001, 16.7075875], [74.25166250000001, 16.7073625]]]}, "properties": {"property_id": "B-0111-1", "owner_name": "Ganesh", "plot_area": 601.0, "usage_type": "Institutional", "linked_parcel": "P-0111"}}, {"type": "Feature", "geometry": {"type": "Polygon", "coordinates": [[[74.2524125, 16.7058625], [74.2526375, 16.7058625], [74.2526375, 16.7060875], [74.2524125, 16.7060875], [74.2524125, 16.7058625]]]}, "properties": {"property_id": "B-0112-1", "owner_name": "Sita Pawar", "plot_area": 601.0, "usage_type": "Commercial", "linked_parcel": "P-0112"}}, {"type": "Feature", "geometry": {"type": "Polygon", "coordinates": [[[74.2526375, 16.7060875], [74.2528625, 16.7060875], [74.2528625, 16.7063125], [74.2526375, 16.7063125], [74.2526375, 16.7060875]]]}, "properties": {"property_id": "B-0112-2", "owner_name": "Sita", "plot_area": 601.0, "usage_type": "Commercial", "linked_parcel": "P-0112"}}, {"type": "Feature", "geometry": {"type": "Polygon", "coordinates": [[[74.2527125, 16.706162499999998], [74.2529375, 16.706162499999998], [74.2529375, 16.706387499999998], [74.2527125, 16.706387499999998], [74.2527125, 16.706162499999998]]]}, "properties": {"property_id": "B-0112-3", "owner_name": "Sita Pawar", "plot_area": 601.0, "usage_type": "Commercial", "linked_parcel": "P-0112"}}, {"type": "Feature", "geometry": {"type": "Polygon", "coordinates": [[[74.2539125, 16.7058625], [74.2541375, 16.7058625], [74.2541375, 16.7060875], [74.2539125, 16.7060875], [74.2539125, 16.7058625]]]}, "properties": {"property_id": "B-0116-1", "owner_name": "Lata More", "plot_area": 601.0, "usage_type": "Mixed Use", "linked_parcel": "P-0116"}}, {"type": "Feature", "geometry": {"type": "Polygon", "coordinates": [[[74.2471625, 16.7141125], [74.2473875, 16.7141125], [74.2473875, 16.7143375], [74.2471625, 16.7143375], [74.2471625, 16.7141125]]]}, "properties": {"property_id": "B-0118-1", "owner_name": "Prakash Chavan", "plot_area": 601.0, "usage_type": "Vacant", "linked_parcel": "P-0118"}}, {"type": "Feature", "geometry": {"type": "Polygon", "coordinates": [[[74.2473875, 16.7143375], [74.2476125, 16.7143375], [74.2476125, 16.7145625], [74.2473875, 16.7145625], [74.2473875, 16.7143375]]]}, "properties": {"property_id": "B-0118-2", "owner_name": "Prakash Chavan", "plot_area": 601.0, "usage_type": "Vacant", "linked_parcel": "P-0118"}}, {"type": "Feature", "geometry": {"type": "Polygon", "coordinates": [[[74.2474625, 16.714412499999998], [74.2476875, 16.714412499999998], [74.2476875, 16.7146375], [74.2474625, 16.7146375], [74.2474625, 16.714412499999998]]]}, "properties": {"property_id": "B-0118-3", "owner_name": "Prakash Chavan", "plot_area": 601.0, "usage_type": "Vacant", "linked_parcel": "P-0118"}}, {"type": "Feature", "geometry": {"type": "Polygon", "coordinates": [[[74.2479125, 16.7073625], [74.2481375, 16.7073625], [74.2481375, 16.7075875], [74.2479125, 16.7075875], [74.2479125, 16.7073625]]]}, "properties": {"property_id": "B-0119-1", "owner_name": "Prakash Bhosale", "plot_area": 601.0, "usage_type": "Vacant", "linked_parcel": "P-0119"}}, {"type": "Feature", "geometry": {"type": "Polygon", "coordinates": [[[74.2481375, 16.7075875], [74.2483625, 16.7075875], [74.2483625, 16.7078125], [74.2481375, 16.7078125], [74.2481375, 16.7075875]]]}, "properties": {"property_id": "B-0119-2", "owner_name": "Prakash Bhosale", "plot_area": 601.0, "usage_type": "Vacant", "linked_parcel": "P-0119"}}, {"type": "Feature", "geometry": {"type": "Polygon", "coordinates": [[[74.2449125, 16.7081125], [74.2451375, 16.7081125], [74.2451375, 16.7083375], [74.2449125, 16.7083375], [74.2449125, 16.7081125]]]}, "properties": {"property_id": "B-0120-1", "owner_name": "Vijay Kulkarni", "plot_area": 601.0, "usage_type": "Institutional", "linked_parcel": "P-0120"}}, {"type": "Feature", "geometry": {"type": "Polygon", "coordinates": [[[74.2451375, 16.7083375], [74.2453625, 16.7083375], [74.2453625, 16.7085625], [74.2451375, 16.7085625], [74.2451375, 16.7083375]]]}, "properties": {"property_id": "B-0120-2", "owner_name": "Vijay Kulkarni", "plot_area": 601.0, "usage_type": "Institutional", "linked_parcel": "P-0120"}}, {"type": "Feature", "geometry": {"type": "Polygon", "coordinates": [[[74.2524125, 16.7111125], [74.2526375, 16.7111125], [74.2526375, 16.7113375], [74.2524125, 16.7113375], [74.2524125, 16.7111125]]]}, "properties": {"property_id": "B-0121-1", "owner_name": "Anita Bhosale Sr.", "plot_area": 601.0, "usage_type": "Commercial", "linked_parcel": "P-0121"}}, {"type": "Feature", "geometry": {"type": "Polygon", "coordinates": [[[74.2501625, 16.7073625], [74.2503875, 16.7073625], [74.2503875, 16.7075875], [74.2501625, 16.7075875], [74.2501625, 16.7073625]]]}, "properties": {"property_id": "B-0122-1", "owner_name": "Anil Gaikwad", "plot_area": 601.0, "usage_type": "Institutional", "linked_parcel": "P-0122"}}, {"type": "Feature", "geometry": {"type": "Polygon", "coordinates": [[[74.2501625, 16.7126125], [74.2503875, 16.7126125], [74.2503875, 16.7128375], [74.2501625, 16.7128375], [74.2501625, 16.7126125]]]}, "properties": {"property_id": "B-0123-1", "owner_name": "Sita Pawar", "plot_area": 601.0, "usage_type": "Commercial", "linked_parcel": "P-0123"}}, {"type": "Feature", "geometry": {"type": "Polygon", "coordinates": [[[74.2503875, 16.7128375], [74.2506125, 16.7128375], [74.2506125, 16.7130625], [74.2503875, 16.7130625], [74.2503875, 16.7128375]]]}, "properties": {"property_id": "B-0123-2", "owner_name": "Sita Pawar", "plot_area": 601.0, "usage_type": "Commercial", "linked_parcel": "P-0123"}}, {"type": "Feature", "geometry": {"type": "Polygon", "coordinates": [[[74.2504625, 16.712912499999998], [74.2506875, 16.712912499999998], [74.2506875, 16.7131375], [74.2504625, 16.7131375], [74.2504625, 16.712912499999998]]]}, "properties": {"property_id": "B-0123-3", "owner_name": "Sita Pawar", "plot_area": 601.0, "usage_type": "Commercial", "linked_parcel": "P-0123"}}, {"type": "Feature", "geometry": {"type": "Polygon", "coordinates": [[[74.2441625, 16.7058625], [74.2443875, 16.7058625], [74.2443875, 16.7060875], [74.2441625, 16.7060875], [74.2441625, 16.7058625]]]}, "properties": {"property_id": "B-0124-1", "owner_name": "Meena Shinde", "plot_area": 601.0, "usage_type": "Residential", "linked_parcel": "P-0124"}}, {"type": "Feature", "geometry": {"type": "Polygon", "coordinates": [[[74.2464125, 16.7066125], [74.2466375, 16.7066125], [74.2466375, 16.7068375], [74.2464125, 16.7068375], [74.2464125, 16.7066125]]]}, "properties": {"property_id": "B-0125-1", "owner_name": "Manoj Patil", "plot_area": 601.0, "usage_type": "Mixed Use", "linked_parcel": "P-0125"}}, {"type": "Feature", "geometry": {"type": "Polygon", "coordinates": [[[74.2466375, 16.7068375], [74.2468625, 16.7068375], [74.2468625, 16.7070625], [74.2466375, 16.7070625], [74.2466375, 16.7068375]]]}, "properties": {"property_id": "B-0125-2", "owner_name": "Manoj Patil", "plot_area": 601.0, "usage_type": "Mixed Use", "linked_parcel": "P-0125"}}, {"type": "Feature", "geometry": {"type": "Polygon", "coordinates": [[[74.2467125, 16.706912499999998], [74.2469375, 16.706912499999998], [74.2469375, 16.707137499999998], [74.2467125, 16.707137499999998], [74.2467125, 16.706912499999998]]]}, "properties": {"property_id": "B-0125-3", "owner_name": "Manoj Patil", "plot_area": 601.0, "usage_type": "Mixed Use", "linked_parcel": "P-0125"}}, {"type": "Feature", "geometry": {"type": "Polygon", "coordinates": [[[74.2494125, 16.7111125], [74.2496375, 16.7111125], [74.2496375, 16.7113375], [74.2494125, 16.7113375], [74.2494125, 16.7111125]]]}, "properties": {"property_id": "B-0127-1", "owner_name": "Sunita Pawar", "plot_area": 601.0, "usage_type": "Commercial", "linked_parcel": "P-0127"}}, {"type": "Feature", "geometry": {"type": "Polygon", "coordinates": [[[74.2501625, 16.7141125], [74.2503875, 16.7141125], [74.2503875, 16.7143375], [74.2501625, 16.7143375], [74.2501625, 16.7141125]]]}, "properties": {"property_id": "B-0128-1", "owner_name": "Sunita Jadhav", "plot_area": 601.0, "usage_type": "Residential", "linked_parcel": "P-0128"}}, {"type": "Feature", "geometry": {"type": "Polygon", "coordinates": [[[74.2479125, 16.7066125], [74.2481375, 16.7066125], [74.2481375, 16.7068375], [74.2479125, 16.7068375], [74.2479125, 16.7066125]]]}, "properties": {"property_id": "B-0129-1", "owner_name": "Vijaay Joshi", "plot_area": 601.0, "usage_type": "Institutional", "linked_parcel": "P-0129"}}, {"type": "Feature", "geometry": {"type": "Polygon", "coordinates": [[[74.2481375, 16.7068375], [74.2483625, 16.7068375], [74.2483625, 16.7070625], [74.2481375, 16.7070625], [74.2481375, 16.7068375]]]}, "properties": {"property_id": "B-0129-2", "owner_name": "Vijay Joshi", "plot_area": 601.0, "usage_type": "Institutional", "linked_parcel": "P-0129"}}, {"type": "Feature", "geometry": {"type": "Polygon", "coordinates": [[[74.24566250000001, 16.707625], [74.24588750000001, 16.707625], [74.24588750000001, 16.70785], [74.24566250000001, 16.70785], [74.24566250000001, 16.707625]]]}, "properties": {"property_id": "B-0130-1", "owner_name": "Ashok Deshmukh", "plot_area": 601.0, "usage_type": "Residential", "linked_parcel": "P-0130"}}, {"type": "Feature", "geometry": {"type": "Polygon", "coordinates": [[[74.25166250000001, 16.7133625], [74.25188750000001, 16.7133625], [74.25188750000001, 16.7135875], [74.25166250000001, 16.7135875], [74.25166250000001, 16.7133625]]]}, "properties": {"property_id": "B-0133-1", "owner_name": "Suresh Kulkarni", "plot_area": 601.0, "usage_type": "Residential", "linked_parcel": "P-0133"}}, {"type": "Feature", "geometry": {"type": "Polygon", "coordinates": [[[74.2464125, 16.7111125], [74.2466375, 16.7111125], [74.2466375, 16.7113375], [74.2464125, 16.7113375], [74.2464125, 16.7111125]]]}, "properties": {"property_id": "B-0134-1", "owner_name": "Ashok Bhosale", "plot_area": 601.0, "usage_type": "Mixed Use", "linked_parcel": "P-0134"}}, {"type": "Feature", "geometry": {"type": "Polygon", "coordinates": [[[74.2509125, 16.7126125], [74.2511375, 16.7126125], [74.2511375, 16.7128375], [74.2509125, 16.7128375], [74.2509125, 16.7126125]]]}, "properties": {"property_id": "B-0135-1", "owner_name": "Anil Jadhav", "plot_area": 601.0, "usage_type": "Mixed Use", "linked_parcel": "P-0135"}}, {"type": "Feature", "geometry": {"type": "Polygon", "coordinates": [[[74.24566250000001, 16.7096125], [74.24588750000001, 16.7096125], [74.24588750000001, 16.7098375], [74.24566250000001, 16.7098375], [74.24566250000001, 16.7096125]]]}, "properties": {"property_id": "B-0136-1", "owner_name": "Sunil More", "plot_area": 601.0, "usage_type": "Residential", "linked_parcel": "P-0136"}}, {"type": "Feature", "geometry": {"type": "Polygon", "coordinates": [[[74.24588750000001, 16.7098375], [74.24611250000001, 16.7098375], [74.24611250000001, 16.7100625], [74.24588750000001, 16.7100625], [74.24588750000001, 16.7098375]]]}, "properties": {"property_id": "B-0136-2", "owner_name": "SUNIL MORE", "plot_area": 601.0, "usage_type": "Residential", "linked_parcel": "P-0136"}}, {"type": "Feature", "geometry": {"type": "Polygon", "coordinates": [[[74.2464125, 16.7118625], [74.2466375, 16.7118625], [74.2466375, 16.7120875], [74.2464125, 16.7120875], [74.2464125, 16.7118625]]]}, "properties": {"property_id": "B-0138-1", "owner_name": "Anita Deshmukh", "plot_area": 601.0, "usage_type": "Institutional", "linked_parcel": "P-0138"}}, {"type": "Feature", "geometry": {"type": "Polygon", "coordinates": [[[74.2466375, 16.7120875], [74.2468625, 16.7120875], [74.2468625, 16.7123125], [74.2466375, 16.7123125], [74.2466375, 16.7120875]]]}, "properties": {"property_id": "B-0138-2", "owner_name": "Anita Deshmukh", "plot_area": 601.0, "usage_type": "Institutional", "linked_parcel": "P-0138"}}, {"type": "Feature", "geometry": {"type": "Polygon", "coordinates": [[[74.2479125, 16.7088625], [74.2481375, 16.7088625], [74.2481375, 16.7090875], [74.2479125, 16.7090875], [74.2479125, 16.7088625]]]}, "properties": {"property_id": "B-0139-1", "owner_name": "Suresh Jadhav Sr.", "plot_area": 601.0, "usage_type": "Vacant", "linked_parcel": "P-0139"}}, {"type": "Feature", "geometry": {"type": "Polygon", "coordinates": [[[74.2441625, 16.7066125], [74.2443875, 16.7066125], [74.2443875, 16.7068375], [74.2441625, 16.7068375], [74.2441625, 16.7066125]]]}, "properties": {"property_id": "B-0142-1", "owner_name": "Sunita More", "plot_area": 601.0, "usage_type": "Residential", "linked_parcel": "P-0142"}}, {"type": "Feature", "geometry": {"type": "Polygon", "coordinates": [[[74.24866250000001, 16.7126125], [74.24888750000001, 16.7126125], [74.24888750000001, 16.7128375], [74.24866250000001, 16.7128375], [74.24866250000001, 16.7126125]]]}, "properties": {"property_id": "B-0143-1", "owner_name": "Nirmala Deshmukh", "plot_area": 601.0, "usage_type": "Commercial", "linked_parcel": "P-0143"}}, {"type": "Feature", "geometry": {"type": "Polygon", "coordinates": [[[74.24888750000001, 16.7128375], [74.24911250000001, 16.7128375], [74.24911250000001, 16.7130625], [74.24888750000001, 16.7130625], [74.24888750000001, 16.7128375]]]}, "properties": {"property_id": "B-0143-2", "owner_name": "Nirmala Deshmukh", "plot_area": 601.0, "usage_type": "Commercial", "linked_parcel": "P-0143"}}, {"type": "Feature", "geometry": {"type": "Polygon", "coordinates": [[[74.2471625, 16.7088625], [74.2473875, 16.7088625], [74.2473875, 16.7090875], [74.2471625, 16.7090875], [74.2471625, 16.7088625]]]}, "properties": {"property_id": "B-0144-1", "owner_name": "Lata Gaikwad Sr.", "plot_area": 601.0, "usage_type": "Vacant", "linked_parcel": "P-0144"}}, {"type": "Feature", "geometry": {"type": "Polygon", "coordinates": [[[74.25166250000001, 16.7103625], [74.25188750000001, 16.7103625], [74.25188750000001, 16.7105875], [74.25166250000001, 16.7105875], [74.25166250000001, 16.7103625]]]}, "properties": {"property_id": "B-0145-1", "owner_name": "Lata Patil", "plot_area": 601.0, "usage_type": "Institutional", "linked_parcel": "P-0145"}}, {"type": "Feature", "geometry": {"type": "Polygon", "coordinates": [[[74.25188750000001, 16.7105875], [74.25211250000001, 16.7105875], [74.25211250000001, 16.7108125], [74.25188750000001, 16.7108125], [74.25188750000001, 16.7105875]]]}, "properties": {"property_id": "B-0145-2", "owner_name": "Lata Patil", "plot_area": 601.0, "usage_type": "Institutional", "linked_parcel": "P-0145"}}, {"type": "Feature", "geometry": {"type": "Polygon", "coordinates": [[[74.2494125, 16.7088625], [74.2496375, 16.7088625], [74.2496375, 16.7090875], [74.2494125, 16.7090875], [74.2494125, 16.7088625]]]}, "properties": {"property_id": "B-0146-1", "owner_name": "Sita Shinde", "plot_area": 601.0, "usage_type": "Institutional", "linked_parcel": "P-0146"}}, {"type": "Feature", "geometry": {"type": "Polygon", "coordinates": [[[74.2539125, 16.709875], [74.2541375, 16.709875], [74.2541375, 16.7101], [74.2539125, 16.7101], [74.2539125, 16.709875]]]}, "properties": {"property_id": "B-0148-1", "owner_name": "Prakash Pawar", "plot_area": 601.0, "usage_type": "Mixed Use", "linked_parcel": "P-0148"}}, {"type": "Feature", "geometry": {"type": "Polygon", "coordinates": [[[74.2541375, 16.7098375], [74.2543625, 16.7098375], [74.2543625, 16.7100625], [74.2541375, 16.7100625], [74.2541375, 16.7098375]]]}, "properties": {"property_id": "B-0148-2", "owner_name": "Prakash Pawar", "plot_area": 601.0, "usage_type": "Mixed Use", "linked_parcel": "P-0148"}}, {"type": "Feature", "geometry": {"type": "Polygon", "coordinates": [[[74.2542125, 16.709912499999998], [74.2544375, 16.709912499999998], [74.2544375, 16.7101375], [74.2542125, 16.7101375], [74.2542125, 16.709912499999998]]]}, "properties": {"property_id": "B-0148-3", "owner_name": "Praakash Pawar", "plot_area": 601.0, "usage_type": "Mixed Use", "linked_parcel": "P-0148"}}, {"type": "Feature", "geometry": {"type": "Polygon", "coordinates": [[[74.2531625, 16.7081125], [74.2533875, 16.7081125], [74.2533875, 16.7083375], [74.2531625, 16.7083375], [74.2531625, 16.7081125]]]}, "properties": {"property_id": "B-0149-1", "owner_name": "Kavita Joshi", "plot_area": 601.0, "usage_type": "Vacant", "linked_parcel": "P-0149"}}, {"type": "Feature", "geometry": {"type": "Polygon", "coordinates": [[[74.2449125, 16.7126125], [74.2451375, 16.7126125], [74.2451375, 16.7128375], [74.2449125, 16.7128375], [74.2449125, 16.7126125]]]}, "properties": {"property_id": "B-0150-1", "owner_name": "Rekha Joshi", "plot_area": 601.0, "usage_type": "Institutional", "linked_parcel": "P-0150"}}, {"type": "Feature", "geometry": {"type": "Polygon", "coordinates": [[[74.24566250000001, 16.7066125], [74.24588750000001, 16.7066125], [74.24588750000001, 16.7068375], [74.24566250000001, 16.7068375], [74.24566250000001, 16.7066125]]]}, "properties": {"property_id": "B-0155-1", "owner_name": "Kavita Gaikwad", "plot_area": 601.0, "usage_type": "Vacant", "linked_parcel": "P-0155"}}, {"type": "Feature", "geometry": {"type": "Polygon", "coordinates": [[[74.2481375, 16.7105875], [74.2483625, 16.7105875], [74.2483625, 16.7108125], [74.2481375, 16.7108125], [74.2481375, 16.7105875]]]}, "properties": {"property_id": "B-0156-2", "owner_name": "Anil Kulkarni", "plot_area": 601.0, "usage_type": "Residential", "linked_parcel": "P-0156"}}, {"type": "Feature", "geometry": {"type": "Polygon", "coordinates": [[[74.2482125, 16.710662499999998], [74.2484375, 16.710662499999998], [74.2484375, 16.7108875], [74.2482125, 16.7108875], [74.2482125, 16.710662499999998]]]}, "properties": {"property_id": "B-0156-3", "owner_name": "Anil Kulkarni", "plot_area": 601.0, "usage_type": "Residential", "linked_parcel": "P-0156"}}, {"type": "Feature", "geometry": {"type": "Polygon", "coordinates": [[[74.2531625, 16.7103625], [74.2533875, 16.7103625], [74.2533875, 16.7105875], [74.2531625, 16.7105875], [74.2531625, 16.7103625]]]}, "properties": {"property_id": "B-0159-1", "owner_name": "Sunil Chavan", "plot_area": 601.0, "usage_type": "Institutional", "linked_parcel": "P-0159"}}, {"type": "Feature", "geometry": {"type": "Polygon", "coordinates": [[[74.2471625, 16.7133625], [74.2473875, 16.7133625], [74.2473875, 16.7135875], [74.2471625, 16.7135875], [74.2471625, 16.7133625]]]}, "properties": {"property_id": "B-0160-1", "owner_name": "Ganesh Joshi", "plot_area": 601.0, "usage_type": "Vacant", "linked_parcel": "P-0160"}}, {"type": "Feature", "geometry": {"type": "Polygon", "coordinates": [[[74.2524125, 16.7066125], [74.2526375, 16.7066125], [74.2526375, 16.7068375], [74.2524125, 16.7068375], [74.2524125, 16.7066125]]]}, "properties": {"property_id": "B-0161-1", "owner_name": "Anil Chavan", "plot_area": 601.0, "usage_type": "Residential", "linked_parcel": "P-0161"}}, {"type": "Feature", "geometry": {"type": "Polygon", "coordinates": [[[74.2441625, 16.7118625], [74.2443875, 16.7118625], [74.2443875, 16.7120875], [74.2441625, 16.7120875], [74.2441625, 16.7118625]]]}, "properties": {"property_id": "B-0163-1", "owner_name": "Rekha Kadam", "plot_area": 601.0, "usage_type": "Commercial", "linked_parcel": "P-0163"}}, {"type": "Feature", "geometry": {"type": "Polygon", "coordinates": [[[74.2539125, 16.7066125], [74.2541375, 16.7066125], [74.2541375, 16.7068375], [74.2539125, 16.7068375], [74.2539125, 16.7066125]]]}, "properties": {"property_id": "B-0166-1", "owner_name": "Ashok Kadam", "plot_area": 601.0, "usage_type": "Residential", "linked_parcel": "P-0166"}}, {"type": "Feature", "geometry": {"type": "Polygon", "coordinates": [[[74.2479125, 16.7133625], [74.2481375, 16.7133625], [74.2481375, 16.7135875], [74.2479125, 16.7135875], [74.2479125, 16.7133625]]]}, "properties": {"property_id": "B-0167-1", "owner_name": "Shobha Deshmukh", "plot_area": 601.0, "usage_type": "Mixed Use", "linked_parcel": "P-0167"}}, {"type": "Feature", "geometry": {"type": "Polygon", "coordinates": [[[74.2481375, 16.7135875], [74.2483625, 16.7135875], [74.2483625, 16.7138125], [74.2481375, 16.7138125], [74.2481375, 16.7135875]]]}, "properties": {"property_id": "B-0167-2", "owner_name": "Shobha Deshmukh", "plot_area": 601.0, "usage_type": "Mixed Use", "linked_parcel": "P-0167"}}, {"type": "Feature", "geometry": {"type": "Polygon", "coordinates": [[[74.2482125, 16.713662499999998], [74.2484375, 16.713662499999998], [74.2484375, 16.7138875], [74.2482125, 16.7138875], [74.2482125, 16.713662499999998]]]}, "properties": {"property_id": "B-0167-3", "owner_name": "Shobha Deshmukh", "plot_area": 601.0, "usage_type": "Mixed Use", "linked_parcel": "P-0167"}}, {"type": "Feature", "geometry": {"type": "Polygon", "coordinates": [[[74.24866250000001, 16.7096125], [74.24888750000001, 16.7096125], [74.24888750000001, 16.7098375], [74.24866250000001, 16.7098375], [74.24866250000001, 16.7096125]]]}, "properties": {"property_id": "B-0168-1", "owner_name": "Nirmala More", "plot_area": 601.0, "usage_type": "Mixed Use", "linked_parcel": "P-0168"}}, {"type": "Feature", "geometry": {"type": "Polygon", "coordinates": [[[74.2509125, 16.7081125], [74.2511375, 16.7081125], [74.2511375, 16.7083375], [74.2509125, 16.7083375], [74.2509125, 16.7081125]]]}, "properties": {"property_id": "B-0169-1", "owner_name": "Shobha Deshmukh", "plot_area": 601.0, "usage_type": "Vacant", "linked_parcel": "P-0169"}}, {"type": "Feature", "geometry": {"type": "Polygon", "coordinates": [[[74.2441625, 16.7133625], [74.2443875, 16.7133625], [74.2443875, 16.7135875], [74.2441625, 16.7135875], [74.2441625, 16.7133625]]]}, "properties": {"property_id": "B-0170-1", "owner_name": "Priya More", "plot_area": 601.0, "usage_type": "Commercial", "linked_parcel": "P-0170"}}, {"type": "Feature", "geometry": {"type": "Polygon", "coordinates": [[[74.24566250000001, 16.7111125], [74.24588750000001, 16.7111125], [74.24588750000001, 16.7113375], [74.24566250000001, 16.7113375], [74.24566250000001, 16.7111125]]]}, "properties": {"property_id": "B-0172-1", "owner_name": "Suresh Deshmukh", "plot_area": 601.0, "usage_type": "Residential", "linked_parcel": "P-0172"}}, {"type": "Feature", "geometry": {"type": "Polygon", "coordinates": [[[74.2539125, 16.707625], [74.2541375, 16.707625], [74.2541375, 16.70785], [74.2539125, 16.70785], [74.2539125, 16.707625]]]}, "properties": {"property_id": "B-0174-1", "owner_name": "Deepak More", "plot_area": 601.0, "usage_type": "Vacant", "linked_parcel": "P-0174"}}, {"type": "Feature", "geometry": {"type": "Polygon", "coordinates": [[[74.2531625, 16.7141125], [74.2533875, 16.7141125], [74.2533875, 16.7143375], [74.2531625, 16.7143375], [74.2531625, 16.7141125]]]}, "properties": {"property_id": "B-0175-1", "owner_name": "Prakash Kadam", "plot_area": 601.0, "usage_type": "Institutional", "linked_parcel": "P-0175"}}, {"type": "Feature", "geometry": {"type": "Polygon", "coordinates": [[[74.2464125, 16.7141125], [74.2466375, 16.7141125], [74.2466375, 16.7143375], [74.2464125, 16.7143375], [74.2464125, 16.7141125]]]}, "properties": {"property_id": "B-0179-1", "owner_name": "REKHA CHAVAN", "plot_area": 601.0, "usage_type": "Vacant", "linked_parcel": "P-0179"}}, {"type": "Feature", "geometry": {"type": "Polygon", "coordinates": [[[74.2464125, 16.7073625], [74.2466375, 16.7073625], [74.2466375, 16.7075875], [74.2464125, 16.7075875], [74.2464125, 16.7073625]]]}, "properties": {"property_id": "B-0181-1", "owner_name": "ANIL GAIKWAD", "plot_area": 601.0, "usage_type": "Mixed Use", "linked_parcel": "P-0181"}}, {"type": "Feature", "geometry": {"type": "Polygon", "coordinates": [[[74.2466375, 16.7075875], [74.2468625, 16.7075875], [74.2468625, 16.7078125], [74.2466375, 16.7078125], [74.2466375, 16.7075875]]]}, "properties": {"property_id": "B-0181-2", "owner_name": "Anil Gaikwad", "plot_area": 601.0, "usage_type": "Mixed Use", "linked_parcel": "P-0181"}}, {"type": "Feature", "geometry": {"type": "Polygon", "coordinates": [[[74.2467125, 16.707662499999998], [74.2469375, 16.707662499999998], [74.2469375, 16.7078875], [74.2467125, 16.7078875], [74.2467125, 16.707662499999998]]]}, "properties": {"property_id": "B-0181-3", "owner_name": "Anil Gaikwad", "plot_area": 601.0, "usage_type": "Mixed Use", "linked_parcel": "P-0181"}}, {"type": "Feature", "geometry": {"type": "Polygon", "coordinates": [[[74.2494125, 16.7066125], [74.2496375, 16.7066125], [74.2496375, 16.7068375], [74.2494125, 16.7068375], [74.2494125, 16.7066125]]]}, "properties": {"property_id": "B-0183-1", "owner_name": "Anita Gaikwad", "plot_area": 601.0, "usage_type": "Vacant", "linked_parcel": "P-0183"}}, {"type": "Feature", "geometry": {"type": "Polygon", "coordinates": [[[74.2524125, 16.7103625], [74.2526375, 16.7103625], [74.2526375, 16.7105875], [74.2524125, 16.7105875], [74.2524125, 16.7103625]]]}, "properties": {"property_id": "B-0184-1", "owner_name": "Ganesh Joshi", "plot_area": 601.0, "usage_type": "Vacant", "linked_parcel": "P-0184"}}, {"type": "Feature", "geometry": {"type": "Polygon", "coordinates": [[[74.2526375, 16.7105875], [74.2528625, 16.7105875], [74.2528625, 16.7108125], [74.2526375, 16.7108125], [74.2526375, 16.7105875]]]}, "properties": {"property_id": "B-0184-2", "owner_name": "Ganesh Joshi", "plot_area": 601.0, "usage_type": "Vacant", "linked_parcel": "P-0184"}}, {"type": "Feature", "geometry": {"type": "Polygon", "coordinates": [[[74.2527125, 16.710925], [74.2529375, 16.710925], [74.2529375, 16.71115], [74.2527125, 16.71115], [74.2527125, 16.710925]]]}, "properties": {"property_id": "B-0184-3", "owner_name": "Ganesh", "plot_area": 601.0, "usage_type": "Vacant", "linked_parcel": "P-0184"}}, {"type": "Feature", "geometry": {"type": "Polygon", "coordinates": [[[74.2494125, 16.7096125], [74.2496375, 16.7096125], [74.2496375, 16.7098375], [74.2494125, 16.7098375], [74.2494125, 16.7096125]]]}, "properties": {"property_id": "B-0185-1", "owner_name": "Nirmala Bhosale", "plot_area": 601.0, "usage_type": "Residential", "linked_parcel": "P-0185"}}, {"type": "Feature", "geometry": {"type": "Polygon", "coordinates": [[[74.2496375, 16.7098375], [74.2498625, 16.7098375], [74.2498625, 16.7100625], [74.2496375, 16.7100625], [74.2496375, 16.7098375]]]}, "properties": {"property_id": "B-0185-2", "owner_name": "Nirmala Bhosale", "plot_area": 601.0, "usage_type": "Residential", "linked_parcel": "P-0185"}}, {"type": "Feature", "geometry": {"type": "Polygon", "coordinates": [[[74.2497125, 16.709912499999998], [74.2499375, 16.709912499999998], [74.2499375, 16.7101375], [74.2497125, 16.7101375], [74.2497125, 16.709912499999998]]]}, "properties": {"property_id": "B-0185-3", "owner_name": "Nirmala Bhosale", "plot_area": 601.0, "usage_type": "Residential", "linked_parcel": "P-0185"}}, {"type": "Feature", "geometry": {"type": "Polygon", "coordinates": [[[74.2531625, 16.7096125], [74.2533875, 16.7096125], [74.2533875, 16.7098375], [74.2531625, 16.7098375], [74.2531625, 16.7096125]]]}, "properties": {"property_id": "B-0187-1", "owner_name": "Meena Pawar", "plot_area": 601.0, "usage_type": "Vacant", "linked_parcel": "P-0187"}}, {"type": "Feature", "geometry": {"type": "Polygon", "coordinates": [[[74.2449125, 16.7103625], [74.2451375, 16.7103625], [74.2451375, 16.7105875], [74.2449125, 16.7105875], [74.2449125, 16.7103625]]]}, "properties": {"property_id": "B-0190-1", "owner_name": "Suresh Pawar", "plot_area": 601.0, "usage_type": "Vacant", "linked_parcel": "P-0190"}}, {"type": "Feature", "geometry": {"type": "Polygon", "coordinates": [[[74.2494125, 16.7126125], [74.2496375, 16.7126125], [74.2496375, 16.7128375], [74.2494125, 16.7128375], [74.2494125, 16.7126125]]]}, "properties": {"property_id": "B-0191-1", "owner_name": "Manoj Shinde", "plot_area": 601.0, "usage_type": "Residential", "linked_parcel": "P-0191"}}, {"type": "Feature", "geometry": {"type": "Polygon", "coordinates": [[[74.2464125, 16.7081125], [74.2466375, 16.7081125], [74.2466375, 16.7083375], [74.2464125, 16.7083375], [74.2464125, 16.7081125]]]}, "properties": {"property_id": "B-0192-1", "owner_name": "Nirmala Deshmukh", "plot_area": 601.0, "usage_type": "Institutional", "linked_parcel": "P-0192"}}, {"type": "Feature", "geometry": {"type": "Polygon", "coordinates": [[[74.2479125, 16.7081125], [74.2481375, 16.7081125], [74.2481375, 16.7083375], [74.2479125, 16.7083375], [74.2479125, 16.7081125]]]}, "properties": {"property_id": "B-0193-1", "owner_name": "Prakash More", "plot_area": 601.0, "usage_type": "Mixed Use", "linked_parcel": "P-0193"}}, {"type": "Feature", "geometry": {"type": "Polygon", "coordinates": [[[74.2481375, 16.7083375], [74.2483625, 16.7083375], [74.2483625, 16.7085625], [74.2481375, 16.7085625], [74.2481375, 16.7083375]]]}, "properties": {"property_id": "B-0193-2", "owner_name": "Prakash More", "plot_area": 601.0, "usage_type": "Mixed Use", "linked_parcel": "P-0193"}}, {"type": "Feature", "geometry": {"type": "Polygon", "coordinates": [[[74.2482125, 16.708412499999998], [74.2484375, 16.708412499999998], [74.2484375, 16.7086375], [74.2482125, 16.7086375], [74.2482125, 16.708412499999998]]]}, "properties": {"property_id": "B-0193-3", "owner_name": "Prakash More", "plot_area": 601.0, "usage_type": "Mixed Use", "linked_parcel": "P-0193"}}, {"type": "Feature", "geometry": {"type": "Polygon", "coordinates": [[[74.24866250000001, 16.7066125], [74.24888750000001, 16.7066125], [74.24888750000001, 16.7068375], [74.24866250000001, 16.7068375], [74.24866250000001, 16.7066125]]]}, "properties": {"property_id": "B-0194-1", "owner_name": "Ganesh Shinde", "plot_area": 601.0, "usage_type": "Residential", "linked_parcel": "P-0194"}}, {"type": "Feature", "geometry": {"type": "Polygon", "coordinates": [[[74.24888750000001, 16.7068375], [74.24911250000001, 16.7068375], [74.24911250000001, 16.7070625], [74.24888750000001, 16.7070625], [74.24888750000001, 16.7068375]]]}, "properties": {"property_id": "B-0194-2", "owner_name": "Ganesh Shinde", "plot_area": 601.0, "usage_type": "Residential", "linked_parcel": "P-0194"}}, {"type": "Feature", "geometry": {"type": "Polygon", "coordinates": [[[74.2539125, 16.7111125], [74.2541375, 16.7111125], [74.2541375, 16.7113375], [74.2539125, 16.7113375], [74.2539125, 16.7111125]]]}, "properties": {"property_id": "B-0195-1", "owner_name": "Priya Joshi", "plot_area": 601.0, "usage_type": "Residential", "linked_parcel": "P-0195"}}, {"type": "Feature", "geometry": {"type": "Polygon", "coordinates": [[[74.2541375, 16.7113375], [74.2543625, 16.7113375], [74.2543625, 16.7115625], [74.2541375, 16.7115625], [74.2541375, 16.7113375]]]}, "properties": {"property_id": "B-0195-2", "owner_name": "Priya Joshi", "plot_area": 601.0, "usage_type": "Residential", "linked_parcel": "P-0195"}}, {"type": "Feature", "geometry": {"type": "Polygon", "coordinates": [[[74.2524125, 16.7118625], [74.2526375, 16.7118625], [74.2526375, 16.7120875], [74.2524125, 16.7120875], [74.2524125, 16.7118625]]]}, "properties": {"property_id": "B-0197-1", "owner_name": "Lata Patil", "plot_area": 601.0, "usage_type": "Residential", "linked_parcel": "P-0197"}}, {"type": "Feature", "geometry": {"type": "Polygon", "coordinates": [[[74.2526375, 16.71235], [74.2528625, 16.71235], [74.2528625, 16.712575], [74.2526375, 16.712575], [74.2526375, 16.71235]]]}, "properties": {"property_id": "B-0197-2", "owner_name": "Lata Patil", "plot_area": 601.0, "usage_type": "Residential", "linked_parcel": "P-0197"}}, {"type": "Feature", "geometry": {"type": "Polygon", "coordinates": [[[74.2494125, 16.7118625], [74.2496375, 16.7118625], [74.2496375, 16.7120875], [74.2494125, 16.7120875], [74.2494125, 16.7118625]]]}, "properties": {"property_id": "B-0199-1", "owner_name": "Ganesh Pawar", "plot_area": 601.0, "usage_type": "Mixed Use", "linked_parcel": "P-0199"}}, {"type": "Feature", "geometry": {"type": "Polygon", "coordinates": [[[74.2496375, 16.7120875], [74.2498625, 16.7120875], [74.2498625, 16.7123125], [74.2496375, 16.7123125], [74.2496375, 16.7120875]]]}, "properties": {"property_id": "B-0199-2", "owner_name": "Ganesh", "plot_area": 601.0, "usage_type": "Mixed Use", "linked_parcel": "P-0199"}}, {"type": "Feature", "geometry": {"type": "Polygon", "coordinates": [[[74.2531625, 16.7058625], [74.2533875, 16.7058625], [74.2533875, 16.7060875], [74.2531625, 16.7060875], [74.2531625, 16.7058625]]]}, "properties": {"property_id": "B-0200-1", "owner_name": "Shobha Pawar", "plot_area": 601.0, "usage_type": "Institutional", "linked_parcel": "P-0200"}}, {"type": "Feature", "geometry": {"type": "Polygon", "coordinates": [[[74.24866250000001, 16.7111125], [74.24888750000001, 16.7111125], [74.24888750000001, 16.7113375], [74.24866250000001, 16.7113375], [74.24866250000001, 16.7111125]]]}, "properties": {"property_id": "B-0201-1", "owner_name": "Manoj More Sr.", "plot_area": 601.0, "usage_type": "Commercial", "linked_parcel": "P-0201"}}, {"type": "Feature", "geometry": {"type": "Polygon", "coordinates": [[[74.24888750000001, 16.7113375], [74.24911250000001, 16.7113375], [74.24911250000001, 16.7115625], [74.24888750000001, 16.7115625], [74.24888750000001, 16.7113375]]]}, "properties": {"property_id": "B-0201-2", "owner_name": "Manoj More", "plot_area": 601.0, "usage_type": "Commercial", "linked_parcel": "P-0201"}}, {"type": "Feature", "geometry": {"type": "Polygon", "coordinates": [[[74.2471625, 16.7118625], [74.2473875, 16.7118625], [74.2473875, 16.7120875], [74.2471625, 16.7120875], [74.2471625, 16.7118625]]]}, "properties": {"property_id": "B-0203-1", "owner_name": "Sunil Jadhav", "plot_area": 601.0, "usage_type": "Institutional", "linked_parcel": "P-0203"}}, {"type": "Feature", "geometry": {"type": "Polygon", "coordinates": [[[74.2473875, 16.7120875], [74.2476125, 16.7120875], [74.2476125, 16.7123125], [74.2473875, 16.7123125], [74.2473875, 16.7120875]]]}, "properties": {"property_id": "B-0203-2", "owner_name": "Sunil Jadhav", "plot_area": 601.0, "usage_type": "Institutional", "linked_parcel": "P-0203"}}, {"type": "Feature", "geometry": {"type": "Polygon", "coordinates": [[[74.2474625, 16.712162499999998], [74.2476875, 16.712162499999998], [74.2476875, 16.7123875], [74.2474625, 16.7123875], [74.2474625, 16.712162499999998]]]}, "properties": {"property_id": "B-0203-3", "owner_name": "Sunil Jadhav", "plot_area": 601.0, "usage_type": "Institutional", "linked_parcel": "P-0203"}}, {"type": "Feature", "geometry": {"type": "Polygon", "coordinates": [[[74.2441625, 16.7111125], [74.2443875, 16.7111125], [74.2443875, 16.7113375], [74.2441625, 16.7113375], [74.2441625, 16.7111125]]]}, "properties": {"property_id": "B-0204-1", "owner_name": "Priyaa Joshi", "plot_area": 601.0, "usage_type": "Institutional", "linked_parcel": "P-0204"}}, {"type": "Feature", "geometry": {"type": "Polygon", "coordinates": [[[74.2449125, 16.7073625], [74.2451375, 16.7073625], [74.2451375, 16.7075875], [74.2449125, 16.7075875], [74.2449125, 16.7073625]]]}, "properties": {"property_id": "B-0205-1", "owner_name": "Sita Joshi", "plot_area": 601.0, "usage_type": "Residential", "linked_parcel": "P-0205"}}, {"type": "Feature", "geometry": {"type": "Polygon", "coordinates": [[[74.2441625, 16.7103625], [74.2443875, 16.7103625], [74.2443875, 16.7105875], [74.2441625, 16.7105875], [74.2441625, 16.7103625]]]}, "properties": {"property_id": "B-0206-1", "owner_name": "Nirmala Shinde", "plot_area": 601.0, "usage_type": "Mixed Use", "linked_parcel": "P-0206"}}, {"type": "Feature", "geometry": {"type": "Polygon", "coordinates": [[[74.2443875, 16.7105875], [74.2446125, 16.7105875], [74.2446125, 16.7108125], [74.2443875, 16.7108125], [74.2443875, 16.7105875]]]}, "properties": {"property_id": "B-0206-2", "owner_name": "Nirmala Shinde Sr.", "plot_area": 601.0, "usage_type": "Mixed Use", "linked_parcel": "P-0206"}}, {"type": "Feature", "geometry": {"type": "Polygon", "coordinates": [[[74.24866250000001, 16.7103625], [74.24888750000001, 16.7103625], [74.24888750000001, 16.7105875], [74.24866250000001, 16.7105875], [74.24866250000001, 16.7103625]]]}, "properties": {"property_id": "B-0209-1", "owner_name": "Anita Gaikwad", "plot_area": 601.0, "usage_type": "Mixed Use", "linked_parcel": "P-0209"}}, {"type": "Feature", "geometry": {"type": "Polygon", "coordinates": [[[74.2471625, 16.7126125], [74.2473875, 16.7126125], [74.2473875, 16.7128375], [74.2471625, 16.7128375], [74.2471625, 16.7126125]]]}, "properties": {"property_id": "B-0210-1", "owner_name": "Vijay Pawar", "plot_area": 601.0, "usage_type": "Commercial", "linked_parcel": "P-0210"}}, {"type": "Feature", "geometry": {"type": "Polygon", "coordinates": [[[74.2471625, 16.7081125], [74.2473875, 16.7081125], [74.2473875, 16.7083375], [74.2471625, 16.7083375], [74.2471625, 16.7081125]]]}, "properties": {"property_id": "B-0212-1", "owner_name": "Shobha Jadhav", "plot_area": 601.0, "usage_type": "Institutional", "linked_parcel": "P-0212"}}, {"type": "Feature", "geometry": {"type": "Polygon", "coordinates": [[[74.2473875, 16.7086], [74.2476125, 16.7086], [74.2476125, 16.708825], [74.2473875, 16.708825], [74.2473875, 16.7086]]]}, "properties": {"property_id": "B-0212-2", "owner_name": "SHOBHA JADHAV", "plot_area": 601.0, "usage_type": "Institutional", "linked_parcel": "P-0212"}}, {"type": "Feature", "geometry": {"type": "Polygon", "coordinates": [[[74.25166250000001, 16.7096125], [74.25188750000001, 16.7096125], [74.25188750000001, 16.7098375], [74.25166250000001, 16.7098375], [74.25166250000001, 16.7096125]]]}, "properties": {"property_id": "B-0215-1", "owner_name": "Ganesh Patil", "plot_area": 601.0, "usage_type": "Residential", "linked_parcel": "P-0215"}}, {"type": "Feature", "geometry": {"type": "Polygon", "coordinates": [[[74.2509125, 16.7073625], [74.2511375, 16.7073625], [74.2511375, 16.7075875], [74.2509125, 16.7075875], [74.2509125, 16.7073625]]]}, "properties": {"property_id": "B-0217-1", "owner_name": "Prakash Jadhav", "plot_area": 601.0, "usage_type": "Commercial", "linked_parcel": "P-0217"}}, {"type": "Feature", "geometry": {"type": "Polygon", "coordinates": [[[74.25166250000001, 16.714375], [74.25188750000001, 16.714375], [74.25188750000001, 16.7146], [74.25166250000001, 16.7146], [74.25166250000001, 16.714375]]]}, "properties": {"property_id": "B-0218-1", "owner_name": "Kavita Deshmukh", "plot_area": 601.0, "usage_type": "Residential", "linked_parcel": "P-0218"}}, {"type": "Feature", "geometry": {"type": "Polygon", "coordinates": [[[74.25166250000001, 16.706125], [74.25188750000001, 16.706125], [74.25188750000001, 16.70635], [74.25166250000001, 16.70635], [74.25166250000001, 16.706125]]]}, "properties": {"property_id": "B-0219-1", "owner_name": "Anita Joshi", "plot_area": 601.0, "usage_type": "Vacant", "linked_parcel": "P-0219"}}, {"type": "Feature", "geometry": {"type": "Polygon", "coordinates": [[[74.25188750000001, 16.7060875], [74.25211250000001, 16.7060875], [74.25211250000001, 16.7063125], [74.25188750000001, 16.7063125], [74.25188750000001, 16.7060875]]]}, "properties": {"property_id": "B-0219-2", "owner_name": "Anita Joshi", "plot_area": 601.0, "usage_type": "Vacant", "linked_parcel": "P-0219"}}, {"type": "Feature", "geometry": {"type": "Polygon", "coordinates": [[[74.2519625, 16.706162499999998], [74.2521875, 16.706162499999998], [74.2521875, 16.706387499999998], [74.2519625, 16.706387499999998], [74.2519625, 16.706162499999998]]]}, "properties": {"property_id": "B-0219-3", "owner_name": "Anita Joshi", "plot_area": 601.0, "usage_type": "Vacant", "linked_parcel": "P-0219"}}, {"type": "Feature", "geometry": {"type": "Polygon", "coordinates": [[[74.24866250000001, 16.7118625], [74.24888750000001, 16.7118625], [74.24888750000001, 16.7120875], [74.24866250000001, 16.7120875], [74.24866250000001, 16.7118625]]]}, "properties": {"property_id": "B-0221-1", "owner_name": "Sunita Bhosale", "plot_area": 601.0, "usage_type": "Commercial", "linked_parcel": "P-0221"}}, {"type": "Feature", "geometry": {"type": "Polygon", "coordinates": [[[74.24566250000001, 16.7088625], [74.24588750000001, 16.7088625], [74.24588750000001, 16.7090875], [74.24566250000001, 16.7090875], [74.24566250000001, 16.7088625]]]}, "properties": {"property_id": "B-0224-1", "owner_name": "Ashok Chavan", "plot_area": 601.0, "usage_type": "Residential", "linked_parcel": "P-0224"}}, {"type": "Feature", "geometry": {"type": "Polygon", "coordinates": [[[74.2509125, 16.7103625], [74.2511375, 16.7103625], [74.2511375, 16.7105875], [74.2509125, 16.7105875], [74.2509125, 16.7103625]]]}, "properties": {"property_id": "B-0225-1", "owner_name": "Lata Chavan", "plot_area": 601.0, "usage_type": "Residential", "linked_parcel": "P-0225"}}, {"type": "Feature", "geometry": {"type": "Polygon", "coordinates": [[[74.2511375, 16.7105875], [74.2513625, 16.7105875], [74.2513625, 16.7108125], [74.2511375, 16.7108125], [74.2511375, 16.7105875]]]}, "properties": {"property_id": "B-0225-2", "owner_name": "Lata", "plot_area": 601.0, "usage_type": "Residential", "linked_parcel": "P-0225"}}, {"type": "Feature", "geometry": {"type": "Polygon", "coordinates": [[[74.2512125, 16.710662499999998], [74.2514375, 16.710662499999998], [74.2514375, 16.7108875], [74.2512125, 16.7108875], [74.2512125, 16.710662499999998]]]}, "properties": {"property_id": "B-0225-3", "owner_name": "Lata Chavan", "plot_area": 601.0, "usage_type": "Residential", "linked_parcel": "P-0225"}}, {"type": "Feature", "geometry": {"type": "Polygon", "coordinates": [[[74.2479125, 16.7058625], [74.2481375, 16.7058625], [74.2481375, 16.7060875], [74.2479125, 16.7060875], [74.2479125, 16.7058625]]]}, "properties": {"property_id": "B-0226-1", "owner_name": "Prakash Joshi", "plot_area": 601.0, "usage_type": "Institutional", "linked_parcel": "P-0226"}}, {"type": "Feature", "geometry": {"type": "Polygon", "coordinates": [[[74.2479125, 16.7111125], [74.2481375, 16.7111125], [74.2481375, 16.7113375], [74.2479125, 16.7113375], [74.2479125, 16.7111125]]]}, "properties": {"property_id": "B-0227-1", "owner_name": "Rekha Pawar", "plot_area": 601.0, "usage_type": "Commercial", "linked_parcel": "P-0227"}}, {"type": "Feature", "geometry": {"type": "Polygon", "coordinates": [[[74.2524125, 16.7088625], [74.2526375, 16.7088625], [74.2526375, 16.7090875], [74.2524125, 16.7090875], [74.2524125, 16.7088625]]]}, "properties": {"property_id": "B-0228-1", "owner_name": "Shobha Bhosale", "plot_area": 601.0, "usage_type": "Residential", "linked_parcel": "P-0228"}}, {"type": "Feature", "geometry": {"type": "Polygon", "coordinates": [[[74.2471625, 16.7103625], [74.2473875, 16.7103625], [74.2473875, 16.7105875], [74.2471625, 16.7105875], [74.2471625, 16.7103625]]]}, "properties": {"property_id": "B-0229-1", "owner_name": "Meena More", "plot_area": 601.0, "usage_type": "Commercial", "linked_parcel": "P-0229"}}, {"type": "Feature", "geometry": {"type": "Polygon", "coordinates": [[[74.2539125, 16.713625], [74.2541375, 16.713625], [74.2541375, 16.71385], [74.2539125, 16.71385], [74.2539125, 16.713625]]]}, "properties": {"property_id": "B-0233-1", "owner_name": "Sita Bhosale", "plot_area": 601.0, "usage_type": "Mixed Use", "linked_parcel": "P-0233"}}, {"type": "Feature", "geometry": {"type": "Polygon", "coordinates": [[[74.2541375, 16.7135875], [74.2543625, 16.7135875], [74.2543625, 16.7138125], [74.2541375, 16.7138125], [74.2541375, 16.7135875]]]}, "properties": {"property_id": "B-0233-2", "owner_name": "Sita Bhosale", "plot_area": 601.0, "usage_type": "Mixed Use", "linked_parcel": "P-0233"}}, {"type": "Feature", "geometry": {"type": "Polygon", "coordinates": [[[74.24866250000001, 16.714375], [74.24888750000001, 16.714375], [74.24888750000001, 16.7146], [74.24866250000001, 16.7146], [74.24866250000001, 16.714375]]]}, "properties": {"property_id": "B-0234-1", "owner_name": "Suresh Kadam", "plot_area": 601.0, "usage_type": "Commercial", "linked_parcel": "P-0234"}}, {"type": "Feature", "geometry": {"type": "Polygon", "coordinates": [[[74.24888750000001, 16.7143375], [74.24911250000001, 16.7143375], [74.24911250000001, 16.7145625], [74.24888750000001, 16.7145625], [74.24888750000001, 16.7143375]]]}, "properties": {"property_id": "B-0234-2", "owner_name": "Suresh Kadam", "plot_area": 601.0, "usage_type": "Commercial", "linked_parcel": "P-0234"}}, {"type": "Feature", "geometry": {"type": "Polygon", "coordinates": [[[74.2489625, 16.714412499999998], [74.2491875, 16.714412499999998], [74.2491875, 16.7146375], [74.2489625, 16.7146375], [74.2489625, 16.714412499999998]]]}, "properties": {"property_id": "B-0234-3", "owner_name": "Suresh Kadam", "plot_area": 601.0, "usage_type": "Commercial", "linked_parcel": "P-0234"}}, {"type": "Feature", "geometry": {"type": "Polygon", "coordinates": [[[74.24566250000001, 16.7103625], [74.24588750000001, 16.7103625], [74.24588750000001, 16.7105875], [74.24566250000001, 16.7105875], [74.24566250000001, 16.7103625]]]}, "properties": {"property_id": "B-0235-1", "owner_name": "Sunita Pawar", "plot_area": 601.0, "usage_type": "Vacant", "linked_parcel": "P-0235"}}, {"type": "Feature", "geometry": {"type": "Polygon", "coordinates": [[[74.24588750000001, 16.7105875], [74.24611250000001, 16.7105875], [74.24611250000001, 16.7108125], [74.24588750000001, 16.7108125], [74.24588750000001, 16.7105875]]]}, "properties": {"property_id": "B-0235-2", "owner_name": "Sunita Pawar", "plot_area": 601.0, "usage_type": "Vacant", "linked_parcel": "P-0235"}}, {"type": "Feature", "geometry": {"type": "Polygon", "coordinates": [[[74.2459625, 16.710662499999998], [74.2461875, 16.710662499999998], [74.2461875, 16.7108875], [74.2459625, 16.7108875], [74.2459625, 16.710662499999998]]]}, "properties": {"property_id": "B-0235-3", "owner_name": "Sunita Pawar Sr.", "plot_area": 601.0, "usage_type": "Vacant", "linked_parcel": "P-0235"}}, {"type": "Feature", "geometry": {"type": "Polygon", "coordinates": [[[74.2531625, 16.7133625], [74.2533875, 16.7133625], [74.2533875, 16.7135875], [74.2531625, 16.7135875], [74.2531625, 16.7133625]]]}, "properties": {"property_id": "B-0236-1", "owner_name": "Sita Patil", "plot_area": 601.0, "usage_type": "Residential", "linked_parcel": "P-0236"}}, {"type": "Feature", "geometry": {"type": "Polygon", "coordinates": [[[74.2524125, 16.707625], [74.2526375, 16.707625], [74.2526375, 16.70785], [74.2524125, 16.70785], [74.2524125, 16.707625]]]}, "properties": {"property_id": "B-0237-1", "owner_name": "Anil Gaikwad", "plot_area": 601.0, "usage_type": "Mixed Use", "linked_parcel": "P-0237"}}, {"type": "Feature", "geometry": {"type": "Polygon", "coordinates": [[[74.2464125, 16.7103625], [74.2466375, 16.7103625], [74.2466375, 16.7105875], [74.2464125, 16.7105875], [74.2464125, 16.7103625]]]}, "properties": {"property_id": "B-0239-1", "owner_name": "Suresh", "plot_area": 601.0, "usage_type": "Vacant", "linked_parcel": "P-0239"}}, {"type": "Feature", "geometry": {"type": "Polygon", "coordinates": [[[74.24566250000001, 16.714375], [74.24588750000001, 16.714375], [74.24588750000001, 16.7146], [74.24566250000001, 16.7146], [74.24566250000001, 16.714375]]]}, "properties": {"property_id": "B-0240-1", "owner_name": "Lata Joshi", "plot_area": 601.0, "usage_type": "Vacant", "linked_parcel": "P-0240"}}, {"type": "Feature", "geometry": {"type": "Polygon", "coordinates": [[[74.2479125, 16.7141125], [74.2481375, 16.7141125], [74.2481375, 16.7143375], [74.2479125, 16.7143375], [74.2479125, 16.7141125]]]}, "properties": {"property_id": "B-0247-1", "owner_name": "Ramesh Pawar", "plot_area": 601.0, "usage_type": "Commercial", "linked_parcel": "P-0247"}}, {"type": "Feature", "geometry": {"type": "Polygon", "coordinates": [[[74.2464125, 16.7133625], [74.2466375, 16.7133625], [74.2466375, 16.7135875], [74.2464125, 16.7135875], [74.2464125, 16.7133625]]]}, "properties": {"property_id": "B-0249-1", "owner_name": "Anil Bhosale", "plot_area": 601.0, "usage_type": "Residential", "linked_parcel": "P-0249"}}, {"type": "Feature", "geometry": {"type": "Polygon", "coordinates": [[[74.2466375, 16.7135875], [74.2468625, 16.7135875], [74.2468625, 16.7138125], [74.2466375, 16.7138125], [74.2466375, 16.7135875]]]}, "properties": {"property_id": "B-0249-2", "owner_name": "Anil Bhosale", "plot_area": 601.0, "usage_type": "Residential", "linked_parcel": "P-0249"}}, {"type": "Feature", "geometry": {"type": "Polygon", "coordinates": [[[74.2467125, 16.713662499999998], [74.2469375, 16.713662499999998], [74.2469375, 16.7138875], [74.2467125, 16.7138875], [74.2467125, 16.713662499999998]]]}, "properties": {"property_id": "B-0249-3", "owner_name": "ANIL BHOSALE", "plot_area": 601.0, "usage_type": "Residential", "linked_parcel": "P-0249"}}, {"type": "Feature", "geometry": {"type": "Polygon", "coordinates": [[[74.2524125, 16.7141125], [74.2526375, 16.7141125], [74.2526375, 16.7143375], [74.2524125, 16.7143375], [74.2524125, 16.7141125]]]}, "properties": {"property_id": "B-0250-1", "owner_name": "Anita Pawar", "plot_area": 601.0, "usage_type": "Commercial", "linked_parcel": "P-0250"}}, {"type": "Feature", "geometry": {"type": "Polygon", "coordinates": [[[74.2464125, 16.7126125], [74.2466375, 16.7126125], [74.2466375, 16.7128375], [74.2464125, 16.7128375], [74.2464125, 16.7126125]]]}, "properties": {"property_id": "B-0251-1", "owner_name": "Ramesh Chavan", "plot_area": 601.0, "usage_type": "Institutional", "linked_parcel": "P-0251"}}, {"type": "Feature", "geometry": {"type": "Polygon", "coordinates": [[[74.2466375, 16.7128375], [74.2468625, 16.7128375], [74.2468625, 16.7130625], [74.2466375, 16.7130625], [74.2466375, 16.7128375]]]}, "properties": {"property_id": "B-0251-2", "owner_name": "Ramesh Chavan", "plot_area": 601.0, "usage_type": "Institutional", "linked_parcel": "P-0251"}}, {"type": "Feature", "geometry": {"type": "Polygon", "coordinates": [[[74.2464125, 16.7088625], [74.2466375, 16.7088625], [74.2466375, 16.7090875], [74.2464125, 16.7090875], [74.2464125, 16.7088625]]]}, "properties": {"property_id": "B-0252-1", "owner_name": "Anil Patil", "plot_area": 601.0, "usage_type": "Residential", "linked_parcel": "P-0252"}}, {"type": "Feature", "geometry": {"type": "Polygon", "coordinates": [[[74.2466375, 16.7090875], [74.2468625, 16.7090875], [74.2468625, 16.7093125], [74.2466375, 16.7093125], [74.2466375, 16.7090875]]]}, "properties": {"property_id": "B-0252-2", "owner_name": "Anil Patil Sr.", "plot_area": 601.0, "usage_type": "Residential", "linked_parcel": "P-0252"}}, {"type": "Feature", "geometry": {"type": "Polygon", "coordinates": [[[74.2467125, 16.709162499999998], [74.2469375, 16.709162499999998], [74.2469375, 16.7093875], [74.2467125, 16.7093875], [74.2467125, 16.709162499999998]]]}, "properties": {"property_id": "B-0252-3", "owner_name": "Anil Patil", "plot_area": 601.0, "usage_type": "Residential", "linked_parcel": "P-0252"}}, {"type": "Feature", "geometry": {"type": "Polygon", "coordinates": [[[74.2539125, 16.7081125], [74.2541375, 16.7081125], [74.2541375, 16.7083375], [74.2539125, 16.7083375], [74.2539125, 16.7081125]]]}, "properties": {"property_id": "B-0253-1", "owner_name": "Sunita Patil", "plot_area": 601.0, "usage_type": "Residential", "linked_parcel": "P-0253"}}, {"type": "Feature", "geometry": {"type": "Polygon", "coordinates": [[[74.2494125, 16.7058625], [74.2496375, 16.7058625], [74.2496375, 16.7060875], [74.2494125, 16.7060875], [74.2494125, 16.7058625]]]}, "properties": {"property_id": "B-0255-1", "owner_name": "Kavita Joshi", "plot_area": 601.0, "usage_type": "Commercial", "linked_parcel": "P-0255"}}, {"type": "Feature", "geometry": {"type": "Polygon", "coordinates": [[[74.2496375, 16.7060875], [74.2498625, 16.7060875], [74.2498625, 16.7063125], [74.2496375, 16.7063125], [74.2496375, 16.7060875]]]}, "properties": {"property_id": "B-0255-2", "owner_name": "Kavita Joshi", "plot_area": 601.0, "usage_type": "Commercial", "linked_parcel": "P-0255"}}, {"type": "Feature", "geometry": {"type": "Polygon", "coordinates": [[[74.2497275, 16.7061775], [74.2499525, 16.7061775], [74.2499525, 16.7064025], [74.2497275, 16.7064025], [74.2497275, 16.7061775]]]}, "properties": {"property_id": "B-0255-3-EXT", "owner_name": "Kavita", "plot_area": 601.0, "usage_type": "Commercial", "linked_parcel": "P-0255"}}, {"type": "Feature", "geometry": {"type": "Polygon", "coordinates": [[[74.2501625, 16.7058625], [74.2503875, 16.7058625], [74.2503875, 16.7060875], [74.2501625, 16.7060875], [74.2501625, 16.7058625]]]}, "properties": {"property_id": "B-0256-1", "owner_name": "Manoj Joshi", "plot_area": 601.0, "usage_type": "Institutional", "linked_parcel": "P-0256"}}, {"type": "Feature", "geometry": {"type": "Polygon", "coordinates": [[[74.25166250000001, 16.711375], [74.25188750000001, 16.711375], [74.25188750000001, 16.7116], [74.25166250000001, 16.7116], [74.25166250000001, 16.711375]]]}, "properties": {"property_id": "B-0257-1", "owner_name": "Ashok Patil", "plot_area": 601.0, "usage_type": "Residential", "linked_parcel": "P-0257"}}, {"type": "Feature", "geometry": {"type": "Polygon", "coordinates": [[[74.25188750000001, 16.7113375], [74.25211250000001, 16.7113375], [74.25211250000001, 16.7115625], [74.25188750000001, 16.7115625], [74.25188750000001, 16.7113375]]]}, "properties": {"property_id": "B-0257-2", "owner_name": "Ashok Patil", "plot_area": 601.0, "usage_type": "Residential", "linked_parcel": "P-0257"}}, {"type": "Feature", "geometry": {"type": "Polygon", "coordinates": [[[74.2519625, 16.711412499999998], [74.2521875, 16.711412499999998], [74.2521875, 16.7116375], [74.2519625, 16.7116375], [74.2519625, 16.711412499999998]]]}, "properties": {"property_id": "B-0257-3", "owner_name": "Ashok Patil", "plot_area": 601.0, "usage_type": "Residential", "linked_parcel": "P-0257"}}, {"type": "Feature", "geometry": {"type": "Polygon", "coordinates": [[[74.2524125, 16.7133625], [74.2526375, 16.7133625], [74.2526375, 16.7135875], [74.2524125, 16.7135875], [74.2524125, 16.7133625]]]}, "properties": {"property_id": "B-0258-1", "owner_name": "Meena Kadam", "plot_area": 601.0, "usage_type": "Vacant", "linked_parcel": "P-0258"}}, {"type": "Feature", "geometry": {"type": "Polygon", "coordinates": [[[74.2526375, 16.7135875], [74.2528625, 16.7135875], [74.2528625, 16.7138125], [74.2526375, 16.7138125], [74.2526375, 16.7135875]]]}, "properties": {"property_id": "B-0258-2", "owner_name": "Meena Kadam", "plot_area": 601.0, "usage_type": "Vacant", "linked_parcel": "P-0258"}}, {"type": "Feature", "geometry": {"type": "Polygon", "coordinates": [[[74.2501625, 16.7066125], [74.2503875, 16.7066125], [74.2503875, 16.7068375], [74.2501625, 16.7068375], [74.2501625, 16.7066125]]]}, "properties": {"property_id": "B-0259-1", "owner_name": "MANOJ KULKARNI", "plot_area": 601.0, "usage_type": "Institutional", "linked_parcel": "P-0259"}}, {"type": "Feature", "geometry": {"type": "Polygon", "coordinates": [[[74.2503875, 16.7068375], [74.2506125, 16.7068375], [74.2506125, 16.7070625], [74.2503875, 16.7070625], [74.2503875, 16.7068375]]]}, "properties": {"property_id": "B-0259-2", "owner_name": "Manoj", "plot_area": 601.0, "usage_type": "Institutional", "linked_parcel": "P-0259"}}, {"type": "Feature", "geometry": {"type": "Polygon", "coordinates": [[[74.2504625, 16.706912499999998], [74.2506875, 16.706912499999998], [74.2506875, 16.707137499999998], [74.2504625, 16.707137499999998], [74.2504625, 16.706912499999998]]]}, "properties": {"property_id": "B-0259-3", "owner_name": "Manoj Kulkarni", "plot_area": 601.0, "usage_type": "Institutional", "linked_parcel": "P-0259"}}, {"type": "Feature", "geometry": {"type": "Polygon", "coordinates": [[[74.2531625, 16.7066125], [74.2533875, 16.7066125], [74.2533875, 16.7068375], [74.2531625, 16.7068375], [74.2531625, 16.7066125]]]}, "properties": {"property_id": "B-0261-1", "owner_name": "Anita Kulkarni", "plot_area": 601.0, "usage_type": "Mixed Use", "linked_parcel": "P-0261"}}, {"type": "Feature", "geometry": {"type": "Polygon", "coordinates": [[[74.2533875, 16.7068375], [74.2536125, 16.7068375], [74.2536125, 16.7070625], [74.2533875, 16.7070625], [74.2533875, 16.7068375]]]}, "properties": {"property_id": "B-0261-2", "owner_name": "Anita Kulkarni", "plot_area": 601.0, "usage_type": "Mixed Use", "linked_parcel": "P-0261"}}, {"type": "Feature", "geometry": {"type": "Polygon", "coordinates": [[[74.2494125, 16.7073625], [74.2496375, 16.7073625], [74.2496375, 16.7075875], [74.2494125, 16.7075875], [74.2494125, 16.7073625]]]}, "properties": {"property_id": "B-0262-1", "owner_name": "Vijay Kulkarni", "plot_area": 601.0, "usage_type": "Residential", "linked_parcel": "P-0262"}}, {"type": "Feature", "geometry": {"type": "Polygon", "coordinates": [[[74.2496375, 16.7075875], [74.2498625, 16.7075875], [74.2498625, 16.7078125], [74.2496375, 16.7078125], [74.2496375, 16.7075875]]]}, "properties": {"property_id": "B-0262-2", "owner_name": "Vijay Kulkarni", "plot_area": 601.0, "usage_type": "Residential", "linked_parcel": "P-0262"}}, {"type": "Feature", "geometry": {"type": "Polygon", "coordinates": [[[74.2497125, 16.707925], [74.2499375, 16.707925], [74.2499375, 16.70815], [74.2497125, 16.70815], [74.2497125, 16.707925]]]}, "properties": {"property_id": "B-0262-3", "owner_name": "Vijay Kulkarni", "plot_area": 601.0, "usage_type": "Residential", "linked_parcel": "P-0262"}}, {"type": "Feature", "geometry": {"type": "Polygon", "coordinates": [[[74.2441625, 16.7096125], [74.2443875, 16.7096125], [74.2443875, 16.7098375], [74.2441625, 16.7098375], [74.2441625, 16.7096125]]]}, "properties": {"property_id": "B-0265-1", "owner_name": "Anil Chavan", "plot_area": 601.0, "usage_type": "Vacant", "linked_parcel": "P-0265"}}, {"type": "Feature", "geometry": {"type": "Polygon", "coordinates": [[[74.2441625, 16.707625], [74.2443875, 16.707625], [74.2443875, 16.70785], [74.2441625, 16.70785], [74.2441625, 16.707625]]]}, "properties": {"property_id": "B-0267-1", "owner_name": "Ashok Kadam", "plot_area": 601.0, "usage_type": "Commercial", "linked_parcel": "P-0267"}}, {"type": "Feature", "geometry": {"type": "Polygon", "coordinates": [[[74.2509125, 16.7141125], [74.2511375, 16.7141125], [74.2511375, 16.7143375], [74.2509125, 16.7143375], [74.2509125, 16.7141125]]]}, "properties": {"property_id": "B-0268-1", "owner_name": "Anil Joshi", "plot_area": 601.0, "usage_type": "Institutional", "linked_parcel": "P-0268"}}, {"type": "Feature", "geometry": {"type": "Polygon", "coordinates": [[[74.247275, 16.706725], [74.2475, 16.706725], [74.2475, 16.70695], [74.247275, 16.70695], [74.247275, 16.706725]]]}, "properties": {"property_id": "B-NEW-001", "owner_name": "Meena More", "plot_area": 601.0, "usage_type": "Residential", "linked_parcel": "P-0101"}}, {"type": "Feature", "geometry": {"type": "Polygon", "coordinates": [[[74.245025, 16.711975], [74.24525, 16.711975], [74.24525, 16.7122], [74.245025, 16.7122], [74.245025, 16.711975]]]}, "properties": {"property_id": "B-NEW-002", "owner_name": "Suresh Gaikwad", "plot_area": 601.0, "usage_type": "Residential", "linked_parcel": "P-0102"}}, {"type": "Feature", "geometry": {"type": "Polygon", "coordinates": [[[74.25177500000001, 16.708225], [74.25200000000001, 16.708225], [74.25200000000001, 16.70845], [74.25177500000001, 16.70845], [74.25177500000001, 16.708225]]]}, "properties": {"property_id": "B-NEW-003", "owner_name": "Manoj Jadhav", "plot_area": 601.0, "usage_type": "Residential", "linked_parcel": "P-0104"}}]}