{"type": "FeatureCollection", "features": [{"type": "Feature", "geometry": {"type": "Point", "coordinates": [74.2474480081751, 16.706893086638523]}, "properties": {"gt_id": "GT-0101", "parcel_id": "P-0101", "field_verified": true, "verification_date": "2026-02-14", "notes": "Structure matches records"}}, {"type": "Feature", "geometry": {"type": "Point", "coordinates": [74.25192526688052, 16.70835537741105]}, "properties": {"gt_id": "GT-0104", "parcel_id": "P-0104", "field_verified": true, "verification_date": "2026-02-14", "notes": "Boundary confirmed"}}, {"type": "Feature", "geometry": {"type": "Point", "coordinates": [74.2511568666873, 16.713626697817755]}, "properties": {"gt_id": "GT-0107", "parcel_id": "P-0107", "field_verified": true, "verification_date": "2026-02-14", "notes": "Structure matches records"}}, {"type": "Feature", "geometry": {"type": "Point", "coordinates": [74.24518445952224, 16.713629351945336]}, "properties": {"gt_id": "GT-0108", "parcel_id": "P-0108", "field_verified": true, "verification_date": "2026-02-14", "notes": "Boundary confirmed"}}, {"type": "Feature", "geometry": {"type": "Point", "coordinates": [74.25044538758544, 16.71435737483522]}, "properties": {"gt_id": "GT-0128", "parcel_id": "P-0128", "field_verified": true, "verification_date": "2026-02-14", "notes": "Structure matches records"}}, {"type": "Feature", "geometry": {"type": "Point", "coordinates": [74.24517170486195, 16.71138563679119]}, "properties": {"gt_id": "GT-0131", "parcel_id": "P-0131", "field_verified": true, "verification_date": "2026-02-14", "notes": "Verified via local witness"}}, {"type": "Feature", "geometry": {"type": "Point", "coordinates": [74.24669041763848, 16.711376090937375]}, "properties": {"gt_id": "GT-0134", "parcel_id": "P-0134", "field_verified": true, "verification_date": "2026-02-14", "notes": "Verified via local witness"}}, {"type": "Feature", "geometry": {"type": "Point", "coordinates": [74.24445312789442, 16.706853585448663]}, "properties": {"gt_id": "GT-0142", "parcel_id": "P-0142", "field_verified": true, "verification_date": "2026-02-14", "notes": "Minor discrepancy noted"}}, {"type": "Feature", "geometry": {"type": "Point", "coordinates": [74.24742148369879, 16.711352943786604]}, "properties": {"gt_id": "GT-0147", "parcel_id": "P-0147", "field_verified": true, "verification_date": "2026-02-14", "notes": "Boundary confirmed"}}, {"type": "Feature", "geometry": {"type": "Point", "coordinates": [74.24820732328608, 16.71283542920795]}, "properties": {"gt_id": "GT-0151", "parcel_id": "P-0151", "field_verified": true, "verification_date": "2026-02-14", "notes": "Structure matches records"}}, {"type": "Feature", "geometry": {"type": "Point", "coordinates": [74.25419276409586, 16.71433202308747]}, "properties": {"gt_id": "GT-0158", "parcel_id": "P-0158", "field_verified": true, "verification_date": "2026-02-14", "notes": "Structure matches records"}}, {"type": "Feature", "geometry": {"type": "Point", "coordinates": [74.24743044385919, 16.713636564021265]}, "properties": {"gt_id": "GT-0160", "parcel_id": "P-0160", "field_verified": true, "verification_date": "2026-02-14", "notes": "Minor discrepancy noted"}}, {"type": "Feature", "geometry": {"type": "Point", "coordinates": [74.25042802749664, 16.713653163112916]}, "properties": {"gt_id": "GT-0162", "parcel_id": "P-0162", "field_verified": true, "verification_date": "2026-02-14", "notes": "Minor discrepancy noted"}}, {"type": "Feature", "geometry": {"type": "Point", "coordinates": [74.2512067148877, 16.709147250867698]}, "properties": {"gt_id": "GT-0164", "parcel_id": "P-0164", "field_verified": true, "verification_date": "2026-02-14", "notes": "Verified via local witness"}}, {"type": "Feature", "geometry": {"type": "Point", "coordinates": [74.2474598693613, 16.706147880803137]}, "properties": {"gt_id": "GT-0171", "parcel_id": "P-0171", "field_verified": true, "verification_date": "2026-02-14", "notes": "Minor discrepancy noted"}}, {"type": "Feature", "geometry": {"type": "Point", "coordinates": [74.24591563329327, 16.7113535606647]}, "properties": {"gt_id": "GT-0172", "parcel_id": "P-0172", "field_verified": true, "verification_date": "2026-02-14", "notes": "Boundary confirmed"}}, {"type": "Feature", "geometry": {"type": "Point", "coordinates": [74.2541643305637, 16.707612482909127]}, "properties": {"gt_id": "GT-0174", "parcel_id": "P-0174", "field_verified": true, "verification_date": "2026-02-14", "notes": "Structure matches records"}}, {"type": "Feature", "geometry": {"type": "Point", "coordinates": [74.24439324601316, 16.712895185142088]}, "properties": {"gt_id": "GT-0178", "parcel_id": "P-0178", "field_verified": true, "verification_date": "2026-02-14", "notes": "Minor discrepancy noted"}}, {"type": "Feature", "geometry": {"type": "Point", "coordinates": [74.25192305387846, 16.712125685612396]}, "properties": {"gt_id": "GT-0182", "parcel_id": "P-0182", "field_verified": true, "verification_date": "2026-02-14", "notes": "Structure matches records"}}, {"type": "Feature", "geometry": {"type": "Point", "coordinates": [74.25343177132817, 16.709896521197834]}, "properties": {"gt_id": "GT-0187", "parcel_id": "P-0187", "field_verified": true, "verification_date": "2026-02-14", "notes": "Verified via local witness"}}, {"type": "Feature", "geometry": {"type": "Point", "coordinates": [74.25342935911252, 16.712890790360763]}, "properties": {"gt_id": "GT-0188", "parcel_id": "P-0188", "field_verified": true, "verification_date": "2026-02-14", "notes": "Minor discrepancy noted"}}, {"type": "Feature", "geometry": {"type": "Point", "coordinates": [74.25270633054046, 16.70989048174664]}, "properties": {"gt_id": "GT-0196", "parcel_id": "P-0196", "field_verified": true, "verification_date": "2026-02-14", "notes": "Structure matches records"}}, {"type": "Feature", "geometry": {"type": "Point", "coordinates": [74.24970940925027, 16.71212325643247]}, "properties": {"gt_id": "GT-0199", "parcel_id": "P-0199", "field_verified": true, "verification_date": "2026-02-14", "notes": "Verified via local witness"}}, {"type": "Feature", "geometry": {"type": "Point", "coordinates": [74.2534567582152, 16.706148116450862]}, "properties": {"gt_id": "GT-0200", "parcel_id": "P-0200", "field_verified": true, "verification_date": "2026-02-14", "notes": "Structure matches records"}}, {"type": "Feature", "geometry": {"type": "Point", "coordinates": [74.24520827962236, 16.707656366918844]}, "properties": {"gt_id": "GT-0205", "parcel_id": "P-0205", "field_verified": true, "verification_date": "2026-02-14", "notes": "Structure matches records"}}, {"type": "Feature", "geometry": {"type": "Point", "coordinates": [74.24516360682352, 16.714356743741952]}, "properties": {"gt_id": "GT-0208", "parcel_id": "P-0208", "field_verified": true, "verification_date": "2026-02-14", "notes": "Verified via local witness"}}, {"type": "Feature", "geometry": {"type": "Point", "coordinates": [74.25346464120445, 16.709134939803192]}, "properties": {"gt_id": "GT-0223", "parcel_id": "P-0223", "field_verified": true, "verification_date": "2026-02-14", "notes": "Verified via local witness"}}, {"type": "Feature", "geometry": {"type": "Point", "coordinates": [74.24815113589312, 16.70614689396028]}, "properties": {"gt_id": "GT-0226", "parcel_id": "P-0226", "field_verified": true, "verification_date": "2026-02-14", "notes": "Structure matches records"}}, {"type": "Feature", "geometry": {"type": "Point", "coordinates": [74.25415205890279, 16.71059888019387]}, "properties": {"gt_id": "GT-0232", "parcel_id": "P-0232", "field_verified": true, "verification_date": "2026-02-14", "notes": "Structure matches records"}}, {"type": "Feature", "geometry": {"type": "Point", "coordinates": [74.24519280606818, 16.706139341501252]}, "properties": {"gt_id": "GT-0242", "parcel_id": "P-0242", "field_verified": true, "verification_date": "2026-02-14", "notes": "Structure matches records"}}, {"type": "Feature", "geometry": {"type": "Point", "coordinates": [74.24818504941487, 16.714378262113087]}, "properties": {"gt_id": "GT-0247", "parcel_id": "P-0247", "field_verified": true, "verification_date": "2026-02-14", "notes": "Boundary confirmed"}}, {"type": "Feature", "geometry": {"type": "Point", "coordinates": [74.25266239750265, 16.714396522271873]}, "properties": {"gt_id": "GT-0250", "parcel_id": "P-0250", "field_verified": true, "verification_date": "2026-02-14", "notes": "Structure matches records"}}, {"type": "Feature", "geometry": {"type": "Point", "coordinates": [74.25269005719812, 16.713649199818175]}, "properties": {"gt_id": "GT-0258", "parcel_id": "P-0258", "field_verified": true, "verification_date": "2026-02-14", "notes": "Structure matches records"}}, {"type": "Feature", "geometry": {"type": "Point", "coordinates": [74.25415765223394, 16.712858264997607]}, "properties": {"gt_id": "GT-0260", "parcel_id": "P-0260", "field_verified": true, "verification_date": "2026-02-14", "notes": "Boundary confirmed"}}, {"type": "Feature", "geometry": {"type": "Point", "coordinates": [74.25340244612231, 16.706890918302662]}, "properties": {"gt_id": "GT-0261", "parcel_id": "P-0261", "field_verified": true, "verification_date": "2026-02-14", "notes": "Verified via local witness"}}, {"type": "Feature", "geometry": {"type": "Point", "coordinates": [74.24966602008648, 16.707625372942957]}, "properties": {"gt_id": "GT-0262", "parcel_id": "P-0262", "field_verified": true, "verification_date": "2026-02-14", "notes": "Structure matches records"}}, {"type": "Feature", "geometry": {"type": "Point", "coordinates": [74.24893633832163, 16.709107271464127]}, "properties": {"gt_id": "GT-0264", "parcel_id": "P-0264", "field_verified": true, "verification_date": "2026-02-14", "notes": "Boundary confirmed"}}, {"type": "Feature", "geometry": {"type": "Point", "coordinates": [74.251158903616, 16.71439302338749]}, "properties": {"gt_id": "GT-0268", "parcel_id": "P-0268", "field_verified": true, "verification_date": "2026-02-14", "notes": "Boundary confirmed"}}]}