{"type": "FeatureCollection", "features": [{"type": "Feature", "geometry": {"type": "Polygon", "coordinates": [[[420061.05646498024, 1847581.7811171655], [420085.0444955041, 1847581.6908626268], [420085.13813667686, 1847606.5825722276], [420061.1501342672, 1847606.672827841], [420061.05646498024, 1847581.7811171655]]]}, "properties": {"property_id": "B-0103-1", "owner_name": "Rekha Jadhav", "plot_area": 601.0, "usage_type": "Vacant", "linked_parcel": "P-0103"}}, {"type": "Feature", "geometry": {"type": "Polygon", "coordinates": [[[419902.7006741335, 1847997.2455400408], [419926.68824295135, 1847997.1550869301], [419926.782092042, 1848022.046812564], [419902.7945513445, 1848022.1372667518], [419902.7006741335, 1847997.2455400408]]]}, "properties": {"property_id": "B-0105-1", "owner_name": "Priya Joshi", "plot_area": 601.0, "usage_type": "Commercial", "linked_parcel": "P-0105"}}, {"type": "Feature", "geometry": {"type": "Polygon", "coordinates": [[[419580.66745760106, 1847417.6470295296], [419604.6556963234, 1847417.556240332], [419604.7498915523, 1847442.4479679477], [419580.76168094174, 1847442.538758227], [419580.66745760106, 1847417.6470295296]]]}, "properties": {"property_id": "B-0106-1", "owner_name": "Meena Chavan", "plot_area": 601.0, "usage_type": "Institutional", "linked_parcel": "P-0106"}}, {"type": "Feature", "geometry": {"type": "Polygon", "coordinates": [[[419502.90770744765, 1847998.7570814316], [419526.89529360563, 1847998.6661766742], [419526.9896113698, 1848023.5579202997], [419503.0020533324, 1848023.648826139], [419502.90770744765, 1847998.7570814316]]]}, "properties": {"property_id": "B-0108-1", "owner_name": "Sunil", "plot_area": 601.0, "usage_type": "Vacant", "linked_parcel": "P-0108"}}, {"type": "Feature", "geometry": {"type": "Polygon", "coordinates": [[[419526.9896113698, 1848023.5579202997], [419550.97716836445, 1848023.4670415588], [419551.0714592433, 1848048.3587846323], [419527.0839303696, 1848048.449664455], [419526.9896113698, 1848023.5579202997]]]}, "properties": {"property_id": "B-0108-2", "owner_name": "Sunil Kulkarni", "plot_area": 601.0, "usage_type": "Vacant", "linked_parcel": "P-0108"}}, {"type": "Feature", "geometry": {"type": "Polygon", "coordinates": [[[420222.22317441844, 1847913.0693559297], [420246.21082315804, 1847912.9792677106], [420246.3042932295, 1847937.870977243], [420222.31667260895, 1847937.9610665345], [420222.22317441844, 1847913.0693559297]]]}, "properties": {"property_id": "B-0109-1", "owner_name": "Anil More", "plot_area": 601.0, "usage_type": "Commercial", "linked_parcel": "P-0109"}}, {"type": "Feature", "geometry": {"type": "Polygon", "coordinates": [[[419741.21595887607, 1847582.987099938], [419765.2040032388, 1847582.8964841538], [419765.2980192679, 1847607.7882081128], [419741.3100030194, 1847607.8788249756], [419741.21595887607, 1847582.987099938]]]}, "properties": {"property_id": "B-0110-1", "owner_name": "Anita", "plot_area": 601.0, "usage_type": "Mixed Use", "linked_parcel": "P-0110"}}, {"type": "Feature", "geometry": {"type": "Polygon", "coordinates": [[[420220.0418976948, 1847332.2629260859], [420244.030202441, 1847332.172862897], [420244.123643941, 1847357.0645600236], [420220.1353673053, 1847357.1546242859], [420220.0418976948, 1847332.2629260859]]]}, "properties": {"property_id": "B-0111-1", "owner_name": "Ganesh", "plot_area": 601.0, "usage_type": "Institutional", "linked_parcel": "P-0111"}}, {"type": "Feature", "geometry": {"type": "Polygon", "coordinates": [[[420299.3804347071, 1847166.018203559], [420323.36892340233, 1847165.928237815], [420323.4622630457, 1847190.8199278244], [420299.4738024585, 1847190.9098946399], [420299.3804347071, 1847166.018203559]]]}, "properties": {"property_id": "B-0112-1", "owner_name": "Sita Pawar", "plot_area": 601.0, "usage_type": "Commercial", "linked_parcel": "P-0112"}}, {"type": "Feature", "geometry": {"type": "Polygon", "coordinates": [[[420323.4622630457, 1847190.8199278244], [420347.4507226003, 1847190.7299880965], [420347.54403535865, 1847215.621677566], [420323.55560391245, 1847215.7116183653], [420323.4622630457, 1847190.8199278244]]]}, "properties": {"property_id": "B-0112-2", "owner_name": "Sita", "plot_area": 601.0, "usage_type": "Commercial", "linked_parcel": "P-0112"}}, {"type": "Feature", "geometry": {"type": "Polygon", "coordinates": [[[420331.48952670756, 1847199.0871749069], [420355.47797654854, 1847198.9972438517], [420355.5712803451, 1847223.888933141], [420331.5828586126, 1847223.9788652677], [420331.48952670756, 1847199.0871749069]]]}, "properties": {"property_id": "B-0112-3", "owner_name": "Sita Pawar", "plot_area": 601.0, "usage_type": "Commercial", "linked_parcel": "P-0112"}}, {"type": "Feature", "geometry": {"type": "Polygon", "coordinates": [[[420459.3036731775, 1847165.4189435912], [420483.2921549939, 1847165.329158433], [420483.385307251, 1847190.220841305], [420459.3968535425, 1847190.310627533], [420459.3036731775, 1847165.4189435912]]]}, "properties": {"property_id": "B-0116-1", "owner_name": "Lata More", "plot_area": 601.0, "usage_type": "Mixed Use", "linked_parcel": "P-0116"}}, {"type": "Feature", "geometry": {"type": "Polygon", "coordinates": [[[419743.097075864, 1848080.8217016987], [419767.08455787133, 1848080.7310643322], [419767.1785985373, 1848105.6227989234], [419743.19114465156, 1848105.7134373689], [419743.097075864, 1848080.8217016987]]]}, "properties": {"property_id": "B-0118-1", "owner_name": "Prakash Chavan", "plot_area": 601.0, "usage_type": "Vacant", "linked_parcel": "P-0118"}}, {"type": "Feature", "geometry": {"type": "Polygon", "coordinates": [[[419767.1785985373, 1848105.6227989234], [419791.16605138336, 1848105.5321875787], [419791.2600651591, 1848130.4239216228], [419767.272640435, 1848130.5145340464], [419767.1785985373, 1848105.6227989234]]]}, "properties": {"property_id": "B-0118-2", "owner_name": "Prakash Chavan", "plot_area": 601.0, "usage_type": "Vacant", "linked_parcel": "P-0118"}}, {"type": "Feature", "geometry": {"type": "Polygon", "coordinates": [[[419775.20576030633, 1848113.8898369924], [419799.1932034319, 1848113.7992343209], [419799.28720824415, 1848138.6909681829], [419775.2997932407, 1848138.7815719328], [419775.20576030633, 1848113.8898369924]]]}, "properties": {"property_id": "B-0118-3", "owner_name": "Prakash Chavan", "plot_area": 601.0, "usage_type": "Vacant", "linked_parcel": "P-0118"}}, {"type": "Feature", "geometry": {"type": "Polygon", "coordinates": [[[419820.236666123, 1847333.767967504], [419844.2249881431, 1847333.677452813], [419844.31889815157, 1847358.569167862], [419820.3306042421, 1847358.6596836308], [419820.236666123, 1847333.767967504]]]}, "properties": {"property_id": "B-0119-1", "owner_name": "Prakash Bhosale", "plot_area": 601.0, "usage_type": "Vacant", "linked_parcel": "P-0119"}}, {"type": "Feature", "geometry": {"type": "Polygon", "coordinates": [[[419844.31889815157, 1847358.569167862], [419868.30719102226, 1847358.4786791827], [419868.40107415046, 1847383.3703936846], [419844.41280939075, 1847383.4608834414], [419844.31889815157, 1847358.569167862]]]}, "properties": {"property_id": "B-0119-2", "owner_name": "Prakash Bhosale", "plot_area": 601.0, "usage_type": "Vacant", "linked_parcel": "P-0119"}}, {"type": "Feature", "geometry": {"type": "Polygon", "coordinates": [[[419500.70665432874, 1847417.9498558482], [419524.6948965266, 1847417.858976346], [419524.7891854617, 1847442.750707568], [419500.8009713757, 1847442.8415881528], [419500.70665432874, 1847417.9498558482]]]}, "properties": {"property_id": "B-0120-1", "owner_name": "Vijay Kulkarni", "plot_area": 601.0, "usage_type": "Institutional", "linked_parcel": "P-0120"}}, {"type": "Feature", "geometry": {"type": "Polygon", "coordinates": [[[419524.7891854617, 1847442.750707568], [419548.7773985046, 1847442.6598540752], [419548.871660563, 1847467.5515847465], [419524.8834756323, 1847467.6424393216], [419524.7891854617, 1847442.750707568]]]}, "properties": {"property_id": "B-0120-2", "owner_name": "Vijay Kulkarni", "plot_area": 601.0, "usage_type": "Institutional", "linked_parcel": "P-0120"}}, {"type": "Feature", "geometry": {"type": "Polygon", "coordinates": [[[420301.55933439976, 1847746.8244672946], [420325.54716714623, 1847746.7344765447], [420325.64053533255, 1847771.6261789594], [420301.65273070266, 1847771.7161707806], [420301.55933439976, 1847746.8244672946]]]}, "properties": {"property_id": "B-0121-1", "owner_name": "Anita Bhosale Sr.", "plot_area": 601.0, "usage_type": "Commercial", "linked_parcel": "P-0121"}}, {"type": "Feature", "geometry": {"type": "Polygon", "coordinates": [[[420060.1198396133, 1847332.864039649], [420084.1081512587, 1847332.7737958592], [420084.20178016194, 1847357.6655001445], [420060.21349662705, 1847357.7557450093], [420060.1198396133, 1847332.864039649]]]}, "properties": {"property_id": "B-0122-1", "owner_name": "Anil Gaikwad", "plot_area": 601.0, "usage_type": "Institutional", "linked_parcel": "P-0122"}}, {"type": "Feature", "geometry": {"type": "Polygon", "coordinates": [[[420062.3054897182, 1847913.6706365522], [420086.29314535594, 1847913.5803676818], [420086.3868028879, 1847938.4720843716], [420062.39917536924, 1847938.5623543167], [420062.3054897182, 1847913.6706365522]]]}, "properties": {"property_id": "B-0123-1", "owner_name": "Sita Pawar", "plot_area": 601.0, "usage_type": "Commercial", "linked_parcel": "P-0123"}}, {"type": "Feature", "geometry": {"type": "Polygon", "coordinates": [[[420086.3868028879, 1847938.4720843716], [420110.3744293709, 1847938.3818415252], [420110.46806001035, 1847963.273557671], [420086.4804616467, 1847963.3638015923], [420086.3868028879, 1847938.4720843716]]]}, "properties": {"property_id": "B-0123-2", "owner_name": "Sita Pawar", "plot_area": 601.0, "usage_type": "Commercial", "linked_parcel": "P-0123"}}, {"type": "Feature", "geometry": {"type": "Polygon", "coordinates": [[[420094.41389482195, 1847946.7392393074], [420118.4015115868, 1847946.649005135], [420118.4951332618, 1847971.5407211005], [420094.5075446166, 1847971.6309563476], [420094.41389482195, 1847946.7392393074]]]}, "properties": {"property_id": "B-0123-3", "owner_name": "Sita Pawar", "plot_area": 601.0, "usage_type": "Commercial", "linked_parcel": "P-0123"}}, {"type": "Feature", "geometry": {"type": "Polygon", "coordinates": [[[419419.80179997714, 1847169.3356532636], [419443.7903267526, 1847169.2446942923], [419443.8846970261, 1847194.136423809], [419419.8961983589, 1847194.2273838639], [419419.80179997714, 1847169.3356532636]]]}, "properties": {"property_id": "B-0124-1", "owner_name": "Meena Shinde", "plot_area": 601.0, "usage_type": "Residential", "linked_parcel": "P-0124"}}, {"type": "Feature", "geometry": {"type": "Polygon", "coordinates": [[[419660.00074991595, 1847251.399683847], [419683.9891725691, 1847251.3089921551], [419684.0832658712, 1847276.200712626], [419660.0948713274, 1847276.2914053982], [419660.00074991595, 1847251.399683847]]]}, "properties": {"property_id": "B-0125-1", "owner_name": "Manoj Patil", "plot_area": 601.0, "usage_type": "Mixed Use", "linked_parcel": "P-0125"}}, {"type": "Feature", "geometry": {"type": "Polygon", "coordinates": [[[419684.0832658712, 1847276.200712626], [419708.07165937405, 1847276.1100469436], [419708.1657257995, 1847301.001766866], [419684.1773604064, 1847301.0924336277], [419684.0832658712, 1847276.200712626]]]}, "properties": {"property_id": "B-0125-2", "owner_name": "Manoj Patil", "plot_area": 601.0, "usage_type": "Mixed Use", "linked_parcel": "P-0125"}}, {"type": "Feature", "geometry": {"type": "Polygon", "coordinates": [[[419692.11075873836, 1847284.4677278772], [419716.0991425244, 1847284.3770708651], [419716.1931999908, 1847309.268790604], [419692.2048443146, 1847309.3594486965], [419692.11075873836, 1847284.4677278772]]]}, "properties": {"property_id": "B-0125-3", "owner_name": "Manoj Patil", "plot_area": 601.0, "usage_type": "Mixed Use", "linked_parcel": "P-0125"}}, {"type": "Feature", "geometry": {"type": "Polygon", "coordinates": [[[419981.7214656284, 1847748.0269330814], [420005.7093121718, 1847747.936581059], [420005.8030552463, 1847772.828297788], [419981.81523681956, 1847772.9186508867], [419981.7214656284, 1847748.0269330814]]]}, "properties": {"property_id": "B-0127-1", "owner_name": "Sunita Pawar", "plot_area": 601.0, "usage_type": "Commercial", "linked_parcel": "P-0127"}}, {"type": "Feature", "geometry": {"type": "Polygon", "coordinates": [[[420062.9300839071, 1848079.6154316915], [420086.91755207727, 1848079.525155656], [420087.0112177887, 1848104.4168758907], [420063.0237777401, 1848104.507153001], [420062.9300839071, 1848079.6154316915]]]}, "properties": {"property_id": "B-0128-1", "owner_name": "Sunita Jadhav", "plot_area": 601.0, "usage_type": "Residential", "linked_parcel": "P-0128"}}, {"type": "Feature", "geometry": {"type": "Polygon", "coordinates": [[[419819.92354795, 1847250.7955842542], [419843.91196366935, 1847250.705073157], [419844.00586957566, 1847275.5967864338], [419820.0174819657, 1847275.6872986092], [419819.92354795, 1847250.7955842542]]]}, "properties": {"property_id": "B-0129-1", "owner_name": "Vijaay Joshi", "plot_area": 601.0, "usage_type": "Institutional", "linked_parcel": "P-0129"}}, {"type": "Feature", "geometry": {"type": "Polygon", "coordinates": [[[419844.00586957566, 1847275.5967864338], [419867.9942561468, 1847275.5063013479], [419868.08813517407, 1847300.3980140781], [419844.0997767127, 1847300.4885002421], [419844.00586957566, 1847275.5967864338]]]}, "properties": {"property_id": "B-0129-2", "owner_name": "Vijay Joshi", "plot_area": 601.0, "usage_type": "Institutional", "linked_parcel": "P-0129"}}, {"type": "Feature", "geometry": {"type": "Polygon", "coordinates": [[[419580.4633112651, 1847363.7149525085], [419604.4516108952, 1847363.6241656535], [419604.5458034497, 1847388.5158921187], [419580.5575319307, 1847388.6066800551], [419580.4633112651, 1847363.7149525085]]]}, "properties": {"property_id": "B-0130-1", "owner_name": "Ashok Deshmukh", "plot_area": 601.0, "usage_type": "Residential", "linked_parcel": "P-0130"}}, {"type": "Feature", "geometry": {"type": "Polygon", "coordinates": [[[419822.1156623952, 1847831.6023910283], [419846.103422134, 1847831.5118547757], [419846.19735675515, 1847856.403580455], [419822.20962513424, 1847856.4941177862], [419822.1156623952, 1847831.6023910283]]]}, "properties": {"property_id": "B-0132-1", "owner_name": "Lata Patil", "plot_area": 601.0, "usage_type": "Commercial", "linked_parcel": "P-0132"}}, {"type": "Feature", "geometry": {"type": "Polygon", "coordinates": [[[420222.53483981674, 1847996.0417266805], [420246.52239482466, 1847995.951634886], [420246.61586897774, 1848020.8433461923], [420222.62834209, 1848020.9334390592], [420222.53483981674, 1847996.0417266805]]]}, "properties": {"property_id": "B-0133-1", "owner_name": "Suresh Kulkarni", "plot_area": 601.0, "usage_type": "Residential", "linked_parcel": "P-0133"}}, {"type": "Feature", "geometry": {"type": "Polygon", "coordinates": [[[419661.883412503, 1847749.2342158481], [419685.8712728986, 1847749.1435025516], [419685.9653908625, 1847774.0352336527], [419661.9775585836, 1847774.1259480293], [419661.883412503, 1847749.2342158481]]]}, "properties": {"property_id": "B-0134-1", "owner_name": "Ashok Bhosale", "plot_area": 601.0, "usage_type": "Mixed Use", "linked_parcel": "P-0134"}}, {"type": "Feature", "geometry": {"type": "Polygon", "coordinates": [[[420142.2643378163, 1847913.3698456986], [420166.2519900032, 1847913.279667154], [420166.3455538049, 1847938.171380263], [420142.357929737, 1847938.2615598815], [420142.2643378163, 1847913.3698456986]]]}, "properties": {"property_id": "B-0135-1", "owner_name": "Anil Jadhav", "plot_area": 601.0, "usage_type": "Mixed Use", "linked_parcel": "P-0135"}}, {"type": "Feature", "geometry": {"type": "Polygon", "coordinates": [[[419581.2956365278, 1847583.5918975507], [419605.2836878309, 1847583.5011011441], [419605.37789128855, 1847608.3928323037], [419581.3898680998, 1847608.4836297915], [419581.2956365278, 1847583.5918975507]]]}, "properties": {"property_id": "B-0136-1", "owner_name": "Sunil More", "plot_area": 601.0, "usage_type": "Residential", "linked_parcel": "P-0136"}}, {"type": "Feature", "geometry": {"type": "Polygon", "coordinates": [[[419605.37789128855, 1847608.3928323037], [419629.3659134353, 1847608.3020619093], [419629.46009001264, 1847633.1937925192], [419605.47209598054, 1847633.2845639943], [419605.37789128855, 1847608.3928323037]]]}, "properties": {"property_id": "B-0136-2", "owner_name": "SUNIL MORE", "plot_area": 601.0, "usage_type": "Residential", "linked_parcel": "P-0136"}}, {"type": "Feature", "geometry": {"type": "Polygon", "coordinates": [[[419662.19723756844, 1847832.2066585193], [419686.18500424013, 1847832.1159416216], [419686.2791263142, 1847857.0076744948], [419662.29138776055, 1847857.0983924724], [419662.19723756844, 1847832.2066585193]]]}, "properties": {"property_id": "B-0138-1", "owner_name": "Anita Deshmukh", "plot_area": 601.0, "usage_type": "Institutional", "linked_parcel": "P-0138"}}, {"type": "Feature", "geometry": {"type": "Polygon", "coordinates": [[[419686.2791263142, 1847857.0076744948], [419710.2668638271, 1847856.9169836137], [419710.36095901596, 1847881.8087159393], [419686.3732496214, 1847881.8994079002], [419686.2791263142, 1847857.0076744948]]]}, "properties": {"property_id": "B-0138-2", "owner_name": "Anita Deshmukh", "plot_area": 601.0, "usage_type": "Institutional", "linked_parcel": "P-0138"}}, {"type": "Feature", "geometry": {"type": "Polygon", "coordinates": [[[419820.8629435026, 1847499.712751721], [419844.851078112, 1847499.6222298427], [419844.9449963248, 1847524.513948434], [419820.95688982843, 1847524.6044713906], [419820.8629435026, 1847499.712751721]]]}, "properties": {"property_id": "B-0139-1", "owner_name": "Suresh Jadhav Sr.", "plot_area": 601.0, "usage_type": "Vacant", "linked_parcel": "P-0139"}}, {"type": "Feature", "geometry": {"type": "Polygon", "coordinates": [[[419420.11646606086, 1847252.3080906654], [419444.1048991409, 1847252.217128082], [419444.1992735371, 1847277.1088593702], [419420.21086856653, 1847277.1998230373], [419420.11646606086, 1847252.3080906654]]]}, "properties": {"property_id": "B-0142-1", "owner_name": "Sunita More", "plot_area": 601.0, "usage_type": "Residential", "linked_parcel": "P-0142"}}, {"type": "Feature", "geometry": {"type": "Polygon", "coordinates": [[[419902.38775897847, 1847914.2731215134], [419926.37542152824, 1847914.1826719933], [419926.4692665209, 1847939.0743958538], [419902.4816320903, 1847939.1648464515], [419902.38775897847, 1847914.2731215134]]]}, "properties": {"property_id": "B-0143-1", "owner_name": "Nirmala Deshmukh", "plot_area": 601.0, "usage_type": "Commercial", "linked_parcel": "P-0143"}}, {"type": "Feature", "geometry": {"type": "Polygon", "coordinates": [[[419926.4692665209, 1847939.0743958538], [419950.45689991384, 1847938.983972354], [419950.55071801634, 1847963.8756956696], [419926.56311274297, 1847963.9661202463], [419926.4692665209, 1847939.0743958538]]]}, "properties": {"property_id": "B-0143-2", "owner_name": "Nirmala Deshmukh", "plot_area": 601.0, "usage_type": "Commercial", "linked_parcel": "P-0143"}}, {"type": "Feature", "geometry": {"type": "Polygon", "coordinates": [[[419740.90248729766, 1847500.014686984], [419764.89062537206, 1847499.9240747972], [419764.9846372949, 1847524.8157969834], [419740.99652733357, 1847524.9064102499], [419740.90248729766, 1847500.014686984]]]}, "properties": {"property_id": "B-0144-1", "owner_name": "Lata Gaikwad Sr.", "plot_area": 601.0, "usage_type": "Vacant", "linked_parcel": "P-0144"}}, {"type": "Feature", "geometry": {"type": "Polygon", "coordinates": [[[420221.2882598798, 1847664.1522791227], [420245.27618978964, 1847664.0622016303], [420245.3696476163, 1847688.9539058458], [420221.38174582185, 1847689.0439844113], [420221.2882598798, 1847664.1522791227]]]}, "properties": {"property_id": "B-0145-1", "owner_name": "Lata Patil", "plot_area": 601.0, "usage_type": "Institutional", "linked_parcel": "P-0145"}}, {"type": "Feature", "geometry": {"type": "Polygon", "coordinates": [[[420245.3696476163, 1847688.9539058458], [420269.3575483771, 1847688.8638543757], [420269.4509793126, 1847713.75555805], [420245.46310666745, 1847713.845610593], [420245.3696476163, 1847688.9539058458]]]}, "properties": {"property_id": "B-0145-2", "owner_name": "Lata Patil", "plot_area": 601.0, "usage_type": "Institutional", "linked_parcel": "P-0145"}}, {"type": "Feature", "geometry": {"type": "Polygon", "coordinates": [[[419980.78382128617, 1847499.1097842727], [420004.77194897586, 1847499.0194430097], [420004.86567976867, 1847523.9111544215], [419980.87758019194, 1847524.001496761], [419980.78382128617, 1847499.1097842727]]]}, "properties": {"property_id": "B-0146-1", "owner_name": "Sita Shinde", "plot_area": 601.0, "usage_type": "Institutional", "linked_parcel": "P-0146"}}, {"type": "Feature", "geometry": {"type": "Polygon", "coordinates": [[[420460.9655729837, 1847609.320720355], [420484.95355348673, 1847609.2309161231], [420485.046727515, 1847634.1226084775], [420461.05877512647, 1847634.2124137792], [420460.9655729837, 1847609.320720355]]]}, "properties": {"property_id": "B-0148-1", "owner_name": "Prakash Pawar", "plot_area": 601.0, "usage_type": "Mixed Use", "linked_parcel": "P-0148"}}, {"type": "Feature", "geometry": {"type": "Polygon", "coordinates": [[[420484.9380246007, 1847605.082300783], [420508.92600875895, 1847604.992523823], [420509.01915446925, 1847629.884215019], [420485.0311984255, 1847629.9739930478], [420484.9380246007, 1847605.082300783]]]}, "properties": {"property_id": "B-0148-2", "owner_name": "Prakash Pawar", "plot_area": 601.0, "usage_type": "Mixed Use", "linked_parcel": "P-0148"}}, {"type": "Feature", "geometry": {"type": "Polygon", "coordinates": [[[420492.9650741158, 1847613.3496026967], [420516.95304856054, 1847613.259834411], [420517.0461853062, 1847638.1515254278], [420493.05823897605, 1847638.241294782], [420492.9650741158, 1847613.3496026967]]]}, "properties": {"property_id": "B-0148-3", "owner_name": "Praakash Pawar", "plot_area": 601.0, "usage_type": "Mixed Use", "linked_parcel": "P-0148"}}, {"type": "Feature", "geometry": {"type": "Polygon", "coordinates": [[[420380.2748552653, 1847414.6353221056], [420404.26305942325, 1847414.5454359478], [420404.35631759395, 1847439.4371277033], [420380.3681415476, 1847439.5270149312], [420380.2748552653, 1847414.6353221056]]]}, "properties": {"property_id": "B-0149-1", "owner_name": "Kavita Joshi", "plot_area": 601.0, "usage_type": "Vacant", "linked_parcel": "P-0149"}}, {"type": "Feature", "geometry": {"type": "Polygon", "coordinates": [[[419502.5932300912, 1847915.7846029166], [419526.5809099814, 1847915.6937017664], [419526.67522362724, 1847940.5854436192], [419502.68757185625, 1847940.6763458513], [419502.5932300912, 1847915.7846029166]]]}, "properties": {"property_id": "B-0150-1", "owner_name": "Rekha Joshi", "plot_area": 601.0, "usage_type": "Institutional", "linked_parcel": "P-0150"}}, {"type": "Feature", "geometry": {"type": "Polygon", "coordinates": [[[419580.0393335493, 1847251.7021851286], [419604.0277596747, 1847251.6114031405], [419604.1219466748, 1847276.5031272138], [419580.1335486588, 1847276.5939102836], [419580.0393335493, 1847251.7021851286]]]}, "properties": {"property_id": "B-0155-1", "owner_name": "Kavita Gaikwad", "plot_area": 601.0, "usage_type": "Vacant", "linked_parcel": "P-0155"}}, {"type": "Feature", "geometry": {"type": "Polygon", "coordinates": [[[419821.4892755935, 1847665.6575595613], [419845.4772227758, 1847665.5670304953], [419845.57114919275, 1847690.4587526312], [419821.58323012595, 1847690.5492827757], [419821.4892755935, 1847665.6575595613]]]}, "properties": {"property_id": "B-0156-1", "owner_name": "Anil Kulkarni", "plot_area": 601.0, "usage_type": "Residential", "linked_parcel": "P-0156"}}, {"type": "Feature", "geometry": {"type": "Polygon", "coordinates": [[[419845.57114919275, 1847690.4587526312], [419869.5590672208, 1847690.3682495821], [419869.65296675253, 1847715.259971172], [419845.6650768403, 1847715.350475299], [419845.57114919275, 1847690.4587526312]]]}, "properties": {"property_id": "B-0156-2", "owner_name": "Anil Kulkarni", "plot_area": 601.0, "usage_type": "Residential", "linked_parcel": "P-0156"}}, {"type": "Feature", "geometry": {"type": "Polygon", "coordinates": [[[419853.5984279384, 1847698.725822648], [419877.5863362483, 1847698.6353282707], [419877.6802268182, 1847723.5270496786], [419853.6923466242, 1847723.6175451332], [419853.5984279384, 1847698.725822648]]]}, "properties": {"property_id": "B-0156-3", "owner_name": "Anil Kulkarni", "plot_area": 601.0, "usage_type": "Residential", "linked_parcel": "P-0156"}}, {"type": "Feature", "geometry": {"type": "Polygon", "coordinates": [[[420381.207773097, 1847663.552274289], [420405.195696122, 1847663.4623774255], [420405.28896651306, 1847688.354074498], [420381.3010716034, 1847688.4439724323], [420381.207773097, 1847663.552274289]]]}, "properties": {"property_id": "B-0159-1", "owner_name": "Sunil Chavan", "plot_area": 601.0, "usage_type": "Institutional", "linked_parcel": "P-0159"}}, {"type": "Feature", "geometry": {"type": "Polygon", "coordinates": [[[419742.7835221379, 1847997.8492533038], [419766.7710978815, 1847997.758619534], [419766.8651344413, 1848022.6503523542], [419742.8775868182, 1848022.7409872024], [419742.7835221379, 1847997.8492533038]]]}, "properties": {"property_id": "B-0160-1", "owner_name": "Ganesh Joshi", "plot_area": 601.0, "usage_type": "Vacant", "linked_parcel": "P-0160"}}, {"type": "Feature", "geometry": {"type": "Polygon", "coordinates": [[[420299.6916653037, 1847248.9905092288], [420323.68006030424, 1847248.9005399123], [420323.77340402524, 1847273.7922316939], [420299.78503713396, 1847273.8822020816], [420299.6916653037, 1847248.9905092288]]]}, "properties": {"property_id": "B-0161-1", "owner_name": "Anil Chavan", "plot_area": 601.0, "usage_type": "Residential", "linked_parcel": "P-0161"}}, {"type": "Feature", "geometry": {"type": "Polygon", "coordinates": [[[419422.3195135372, 1847833.1153178124], [419446.30729063414, 1847833.024329948], [419446.4016938883, 1847857.9160736373], [419422.41394490947, 1847858.007062585], [419422.3195135372, 1847833.1153178124]]]}, "properties": {"property_id": "B-0163-1", "owner_name": "Rekha Kadam", "plot_area": 601.0, "usage_type": "Commercial", "linked_parcel": "P-0163"}}, {"type": "Feature", "geometry": {"type": "Polygon", "coordinates": [[[420459.61427914316, 1847248.3912254646], [420483.6026672651, 1847248.3014367411], [420483.6958235916, 1847273.193121386], [420459.70746357884, 1847273.2829111794], [420459.61427914316, 1847248.3912254646]]]}, "properties": {"property_id": "B-0166-1", "owner_name": "Ashok Kadam", "plot_area": 601.0, "usage_type": "Residential", "linked_parcel": "P-0166"}}, {"type": "Feature", "geometry": {"type": "Polygon", "coordinates": [[[419822.7421039073, 1847997.5472461237], [419846.7296761862, 1847997.4567026831], [419846.82361901144, 1848022.3484319088], [419822.83607485285, 1848022.4389764266], [419822.7421039073, 1847997.5472461237]]]}, "properties": {"property_id": "B-0167-1", "owner_name": "Shobha Deshmukh", "plot_area": 601.0, "usage_type": "Mixed Use", "linked_parcel": "P-0167"}}, {"type": "Feature", "geometry": {"type": "Polygon", "coordinates": [[[419846.82361901144, 1848022.3484319088], [419870.8111621314, 1848022.2579144898], [419870.9050780664, 1848047.1496431674], [419846.9175630672, 1848047.240161664], [419846.82361901144, 1848022.3484319088]]]}, "properties": {"property_id": "B-0167-2", "owner_name": "Shobha Deshmukh", "plot_area": 601.0, "usage_type": "Mixed Use", "linked_parcel": "P-0167"}}, {"type": "Feature", "geometry": {"type": "Polygon", "coordinates": [[[419854.85077825654, 1848030.6154994972], [419878.8383116567, 1848030.5249907519], [419878.93221862824, 1848055.4167192485], [419854.94471334893, 1848055.5072290716], [419854.85077825654, 1848030.6154994972]]]}, "properties": {"property_id": "B-0167-3", "owner_name": "Shobha Deshmukh", "plot_area": 601.0, "usage_type": "Mixed Use", "linked_parcel": "P-0167"}}, {"type": "Feature", "geometry": {"type": "Polygon", "coordinates": [[[419901.13623499795, 1847582.3835064762], [419925.12427243433, 1847582.2930713154], [419925.2181010351, 1847607.184788088], [419901.2300917129, 1847607.2752243262], [419901.13623499795, 1847582.3835064762]]]}, "properties": {"property_id": "B-0168-1", "owner_name": "Nirmala More", "plot_area": 601.0, "usage_type": "Mixed Use", "linked_parcel": "P-0168"}}, {"type": "Feature", "geometry": {"type": "Polygon", "coordinates": [[[420140.39275687805, 1847415.5356736933], [420164.3809713691, 1847415.4455166243], [420164.4745106565, 1847440.3372191002], [420140.4863242772, 1847440.4273772426], [420140.39275687805, 1847415.5356736933]]]}, "properties": {"property_id": "B-0169-1", "owner_name": "Shobha Deshmukh", "plot_area": 601.0, "usage_type": "Vacant", "linked_parcel": "P-0169"}}, {"type": "Feature", "geometry": {"type": "Polygon", "coordinates": [[[419422.9490793864, 1847999.0602930046], [419446.9366690228, 1847998.9692979176], [419447.03108052193, 1848023.8610451517], [419423.0435190061, 1848023.9520413221], [419422.9490793864, 1847999.0602930046]]]}, "properties": {"property_id": "B-0170-1", "owner_name": "Priya More", "plot_area": 601.0, "usage_type": "Commercial", "linked_parcel": "P-0170"}}, {"type": "Feature", "geometry": {"type": "Polygon", "coordinates": [[[419581.9238703294, 1847749.536789195], [419605.9117341967, 1847749.4459855794], [419606.0059458831, 1847774.3377202824], [419582.01811013254, 1847774.4285249792], [419581.9238703294, 1847749.536789195]]]}, "properties": {"property_id": "B-0172-1", "owner_name": "Suresh Deshmukh", "plot_area": 601.0, "usage_type": "Residential", "linked_parcel": "P-0172"}}, {"type": "Feature", "geometry": {"type": "Polygon", "coordinates": [[[420460.0336187205, 1847360.4038153647], [420484.0218803483, 1847360.314021828], [420484.1150421684, 1847385.2057088658], [420460.1268086515, 1847385.295503472], [420460.0336187205, 1847360.4038153647]]]}, "properties": {"property_id": "B-0174-1", "owner_name": "Deepak More", "plot_area": 601.0, "usage_type": "Vacant", "linked_parcel": "P-0174"}}, {"type": "Feature", "geometry": {"type": "Polygon", "coordinates": [[[420382.76290779334, 1848078.413979425], [420406.75036218157, 1848078.3240647204], [420406.8436529396, 1848103.215770655], [420382.8562266728, 1848103.3056864312], [420382.76290779334, 1848078.413979425]]]}, "properties": {"property_id": "B-0175-1", "owner_name": "Prakash Kadam", "plot_area": 601.0, "usage_type": "Institutional", "linked_parcel": "P-0175"}}, {"type": "Feature", "geometry": {"type": "Polygon", "coordinates": [[[419663.13879499387, 1848081.124021974], [419687.1262804692, 1848081.033294275], [419687.2204148739, 1848105.9250324646], [419663.2329575203, 1848106.0157612432], [419663.13879499387, 1848081.124021974]]]}, "properties": {"property_id": "B-0179-1", "owner_name": "REKHA CHAVAN", "plot_area": 601.0, "usage_type": "Vacant", "linked_parcel": "P-0179"}}, {"type": "Feature", "geometry": {"type": "Polygon", "coordinates": [[[419660.314492751, 1847334.3720910833], [419684.30282170477, 1847334.281395791], [419684.3969191172, 1847359.1731180341], [419660.40861827397, 1847359.263814407], [419660.314492751, 1847334.3720910833]]]}, "properties": {"property_id": "B-0181-1", "owner_name": "ANIL GAIKWAD", "plot_area": 601.0, "usage_type": "Mixed Use", "linked_parcel": "P-0181"}}, {"type": "Feature", "geometry": {"type": "Polygon", "coordinates": [[[419684.3969191172, 1847359.1731180341], [419708.38521891955, 1847359.0824487512], [419708.47928945406, 1847383.9741704448], [419684.4910177627, 1847384.064840807], [419684.3969191172, 1847359.1731180341]]]}, "properties": {"property_id": "B-0181-2", "owner_name": "Anil Gaikwad", "plot_area": 601.0, "usage_type": "Mixed Use", "linked_parcel": "P-0181"}}, {"type": "Feature", "geometry": {"type": "Polygon", "coordinates": [[[419692.4243821208, 1847367.440132675], [419716.4126722059, 1847367.3494720622], [419716.506733781, 1847392.2411935735], [419692.518471807, 1847392.3318552652], [419692.4243821208, 1847367.440132675]]]}, "properties": {"property_id": "B-0181-3", "owner_name": "Anil Gaikwad", "plot_area": 601.0, "usage_type": "Mixed Use", "linked_parcel": "P-0181"}}, {"type": "Feature", "geometry": {"type": "Polygon", "coordinates": [[[419979.8462997986, 1847250.1926886218], [420003.8347085978, 1847250.1023581184], [420003.92842710874, 1847274.994064215], [419979.9400464188, 1847275.0843957951], [419979.8462997986, 1847250.1926886218]]]}, "properties": {"property_id": "B-0183-1", "owner_name": "Anita Gaikwad", "plot_area": 601.0, "usage_type": "Vacant", "linked_parcel": "P-0183"}}, {"type": "Feature", "geometry": {"type": "Polygon", "coordinates": [[[420301.2480222273, 1847663.8521261814], [420325.23594869295, 1847663.7621390035], [420325.3293128018, 1847688.6538396461], [420301.3414144515, 1847688.7438278953], [420301.2480222273, 1847663.8521261814]]]}, "properties": {"property_id": "B-0184-1", "owner_name": "Ganesh Joshi", "plot_area": 601.0, "usage_type": "Vacant", "linked_parcel": "P-0184"}}, {"type": "Feature", "geometry": {"type": "Polygon", "coordinates": [[[420325.3293128018, 1847688.6538396461], [420349.31721011957, 1847688.563878491], [420349.410547336, 1847713.4555785938], [420325.4226781339, 1847713.54554082], [420325.3293128018, 1847688.6538396461]]]}, "properties": {"property_id": "B-0184-2", "owner_name": "Ganesh Joshi", "plot_area": 601.0, "usage_type": "Vacant", "linked_parcel": "P-0184"}}, {"type": "Feature", "geometry": {"type": "Polygon", "coordinates": [[[420333.46531308716, 1847725.9614010076], [420357.4531678871, 1847725.871447278], [420357.54649756575, 1847750.7631478207], [420333.558670882, 1847750.853102622], [420333.46531308716, 1847725.9614010076]]]}, "properties": {"property_id": "B-0184-3", "owner_name": "Ganesh", "plot_area": 601.0, "usage_type": "Vacant", "linked_parcel": "P-0184"}}, {"type": "Feature", "geometry": {"type": "Polygon", "coordinates": [[[419981.09635574976, 1847582.082161302], [420005.08438972814, 1847581.9918164522], [420005.1781246149, 1847606.883529637], [419981.19011875073, 1847606.9738755631], [419981.09635574976, 1847582.082161302]]]}, "properties": {"property_id": "B-0185-1", "owner_name": "Nirmala Bhosale", "plot_area": 601.0, "usage_type": "Residential", "linked_parcel": "P-0185"}}, {"type": "Feature", "geometry": {"type": "Polygon", "coordinates": [[[420005.1781246149, 1847606.883529637], [420029.1661294423, 1847606.7932108052], [420029.25983744266, 1847631.6849234453], [420005.2718607298, 1847631.7752433536], [420005.1781246149, 1847606.883529637]]]}, "properties": {"property_id": "B-0185-2", "owner_name": "Nirmala Bhosale", "plot_area": 601.0, "usage_type": "Residential", "linked_parcel": "P-0185"}}, {"type": "Feature", "geometry": {"type": "Polygon", "coordinates": [[[420013.205368451, 1847615.1506580766], [420037.19336356147, 1847615.060347917], [420037.2870625995, 1847639.9520603756], [420013.2990956037, 1847640.0423716106], [420013.205368451, 1847615.1506580766]]]}, "properties": {"property_id": "B-0185-3", "owner_name": "Nirmala Bhosale", "plot_area": 601.0, "usage_type": "Residential", "linked_parcel": "P-0185"}}, {"type": "Feature", "geometry": {"type": "Polygon", "coordinates": [[[420380.89678690414, 1847580.579950987], [420404.88480364427, 1847580.4900576922], [420404.9780699619, 1847605.3817529923], [420380.9900813359, 1847605.4716473576], [420380.89678690414, 1847580.579950987]]]}, "properties": {"property_id": "B-0187-1", "owner_name": "Meena Pawar", "plot_area": 601.0, "usage_type": "Vacant", "linked_parcel": "P-0187"}}, {"type": "Feature", "geometry": {"type": "Polygon", "coordinates": [[[419501.6498804147, 1847666.8672028063], [419525.6378414772, 1847666.77631248], [419525.7321427677, 1847691.668049017], [419501.7442098208, 1847691.758940426], [419501.6498804147, 1847666.8672028063]]]}, "properties": {"property_id": "B-0190-1", "owner_name": "Suresh Pawar", "plot_area": 601.0, "usage_type": "Vacant", "linked_parcel": "P-0190"}}, {"type": "Feature", "geometry": {"type": "Polygon", "coordinates": [[[419982.3466301085, 1847913.9717284904], [420006.33428920055, 1847913.8813692944], [420006.4280404628, 1847938.7730895684], [419982.4404094899, 1847938.8634498399], [419982.3466301085, 1847913.9717284904]]]}, "properties": {"property_id": "B-0191-1", "owner_name": "Manoj Shinde", "plot_area": 601.0, "usage_type": "Residential", "linked_parcel": "P-0191"}}, {"type": "Feature", "geometry": {"type": "Polygon", "coordinates": [[[419660.62824929116, 1847417.344504225], [419684.61648454156, 1847417.253805332], [419684.71058606426, 1847442.1455293456], [419660.72237892577, 1847442.2362293194], [419660.62824929116, 1847417.344504225]]]}, "properties": {"property_id": "B-0192-1", "owner_name": "Nirmala Deshmukh", "plot_area": 601.0, "usage_type": "Institutional", "linked_parcel": "P-0192"}}, {"type": "Feature", "geometry": {"type": "Polygon", "coordinates": [[[419820.5497979739, 1847416.7403566597], [419844.53802629065, 1847416.6498383747], [419844.63194040133, 1847441.5415551944], [419820.64374019636, 1847441.632074558], [419820.5497979739, 1847416.7403566597]]]}, "properties": {"property_id": "B-0193-1", "owner_name": "Prakash More", "plot_area": 601.0, "usage_type": "Mixed Use", "linked_parcel": "P-0193"}}, {"type": "Feature", "geometry": {"type": "Polygon", "coordinates": [[[419844.63194040133, 1847441.5415551944], [419868.6201395674, 1847441.4510629233], [419868.7140267966, 1847466.342779197], [419844.7258557426, 1847466.4332725469], [419844.63194040133, 1847441.5415551944]]]}, "properties": {"property_id": "B-0193-2", "owner_name": "Prakash More", "plot_area": 601.0, "usage_type": "Mixed Use", "linked_parcel": "P-0193"}}, {"type": "Feature", "geometry": {"type": "Polygon", "coordinates": [[[419852.659308758, 1847449.8086270327], [419876.6474982072, 1847449.7181434322], [419876.7413764757, 1847474.6098595238], [419852.75321513874, 1847474.7003442016], [419852.659308758, 1847449.8086270327]]]}, "properties": {"property_id": "B-0193-3", "owner_name": "Prakash More", "plot_area": 601.0, "usage_type": "Mixed Use", "linked_parcel": "P-0193"}}, {"type": "Feature", "geometry": {"type": "Polygon", "coordinates": [[[419899.88492964325, 1847250.493985943], [419923.87334190076, 1847250.403565143], [419923.9671541094, 1847275.295274828], [419899.97876996116, 1847275.3856967057], [419899.88492964325, 1847250.493985943]]]}, "properties": {"property_id": "B-0194-1", "owner_name": "Ganesh Shinde", "plot_area": 601.0, "usage_type": "Residential", "linked_parcel": "P-0194"}}, {"type": "Feature", "geometry": {"type": "Polygon", "coordinates": [[[419923.9671541094, 1847275.295274828], [419947.95553721976, 1847275.20488004], [419948.0493225482, 1847300.0965891795], [419924.06096754747, 1847300.1869850445], [419923.9671541094, 1847275.295274828]]]}, "properties": {"property_id": "B-0194-2", "owner_name": "Ganesh Shinde", "plot_area": 601.0, "usage_type": "Residential", "linked_parcel": "P-0194"}}, {"type": "Feature", "geometry": {"type": "Polygon", "coordinates": [[[420461.47819988104, 1847746.2250407636], [420485.4660257498, 1847746.1352306497], [420485.5592064925, 1847771.0269259282], [420461.5714087403, 1847771.1167371122], [420461.47819988104, 1847746.2250407636]]]}, "properties": {"property_id": "B-0195-1", "owner_name": "Priya Joshi", "plot_area": 601.0, "usage_type": "Residential", "linked_parcel": "P-0195"}}, {"type": "Feature", "geometry": {"type": "Polygon", "coordinates": [[[420485.5592064925, 1847771.0269259282], [420509.54700321413, 1847770.9371418408], [420509.6401570608, 1847795.828836582], [420485.652388456, 1847795.9186217391], [420485.5592064925, 1847771.0269259282]]]}, "properties": {"property_id": "B-0195-2", "owner_name": "Priya Joshi", "plot_area": 601.0, "usage_type": "Residential", "linked_parcel": "P-0195"}}, {"type": "Feature", "geometry": {"type": "Polygon", "coordinates": [[[420301.870660168, 1847829.7968143157], [420325.8583991911, 1847829.7068199934], [420325.951771455, 1847854.59852418], [420301.9640605496, 1847854.6885195738], [420301.870660168, 1847829.7968143157]]]}, "properties": {"property_id": "B-0197-1", "owner_name": "Lata Patil", "plot_area": 601.0, "usage_type": "Residential", "linked_parcel": "P-0197"}}, {"type": "Feature", "geometry": {"type": "Polygon", "coordinates": [[[420326.0607073088, 1847883.6388464044], [420350.04838437703, 1847883.548876858], [420350.1417311727, 1847908.4405811257], [420326.1540822231, 1847908.530551743], [420326.0607073088, 1847883.6388464044]]]}, "properties": {"property_id": "B-0197-2", "owner_name": "Lata Patil", "plot_area": 601.0, "usage_type": "Residential", "linked_parcel": "P-0197"}}, {"type": "Feature", "geometry": {"type": "Polygon", "coordinates": [[[419982.03404104325, 1847830.999327832], [420006.0217938631, 1847830.908972223], [420006.11554103147, 1847855.800690724], [419982.1278163296, 1847855.8910474088], [419982.03404104325, 1847830.999327832]]]}, "properties": {"property_id": "B-0199-1", "owner_name": "Ganesh Pawar", "plot_area": 601.0, "usage_type": "Mixed Use", "linked_parcel": "P-0199"}}, {"type": "Feature", "geometry": {"type": "Polygon", "coordinates": [[[420006.11554103147, 1847855.800690724], [420030.10326469666, 1847855.7103611361], [420030.19698497496, 1847880.6020790937], [420006.209289428, 1847880.6924097573], [420006.11554103147, 1847855.800690724]]]}, "properties": {"property_id": "B-0199-2", "owner_name": "Ganesh", "plot_area": 601.0, "usage_type": "Mixed Use", "linked_parcel": "P-0199"}}, {"type": "Feature", "geometry": {"type": "Polygon", "coordinates": [[[420379.3420596748, 1847165.7184230871], [420403.3305449289, 1847165.6285476359], [420403.4237908791, 1847190.520234075], [420379.4353337329, 1847190.6101105968], [420379.3420596748, 1847165.7184230871]]]}, "properties": {"property_id": "B-0200-1", "owner_name": "Shobha Pawar", "plot_area": 601.0, "usage_type": "Institutional", "linked_parcel": "P-0200"}}, {"type": "Feature", "geometry": {"type": "Polygon", "coordinates": [[[419901.7619696602, 1847748.328302181], [419925.74981966143, 1847748.23785984], [419925.8436564582, 1847773.1295801564], [419901.8558345736, 1847773.2200235745], [419901.7619696602, 1847748.328302181]]]}, "properties": {"property_id": "B-0201-1", "owner_name": "Manoj More Sr.", "plot_area": 601.0, "usage_type": "Commercial", "linked_parcel": "P-0201"}}, {"type": "Feature", "geometry": {"type": "Polygon", "coordinates": [[[419925.8436564582, 1847773.1295801564], [419949.83147730504, 1847773.0391638337], [419949.92528721417, 1847797.9308836053], [419925.9374944843, 1847798.0213010048], [419925.8436564582, 1847773.1295801564]]]}, "properties": {"property_id": "B-0201-2", "owner_name": "Manoj More", "plot_area": 601.0, "usage_type": "Commercial", "linked_parcel": "P-0201"}}, {"type": "Feature", "geometry": {"type": "Polygon", "coordinates": [[[419742.1564557594, 1847831.9043742372], [419766.1442189629, 1847831.813747662], [419766.23824731045, 1847856.705476936], [419742.2505122249, 1847856.7961045904], [419742.1564557594, 1847831.9043742372]]]}, "properties": {"property_id": "B-0203-1", "owner_name": "Sunil Jadhav", "plot_area": 601.0, "usage_type": "Institutional", "linked_parcel": "P-0203"}}, {"type": "Feature", "geometry": {"type": "Polygon", "coordinates": [[[419766.23824731045, 1847856.705476936], [419790.2259813563, 1847856.6148763786], [419790.3199828174, 1847881.5066051069], [419766.3322768899, 1847881.597206743], [419766.23824731045, 1847856.705476936]]]}, "properties": {"property_id": "B-0203-2", "owner_name": "Sunil Jadhav", "plot_area": 601.0, "usage_type": "Institutional", "linked_parcel": "P-0203"}}, {"type": "Feature", "geometry": {"type": "Polygon", "coordinates": [[[419774.2654987071, 1847864.97251683], [419798.2532230336, 1847864.881924945], [419798.3472155324, 1847889.77365349], [419774.35951932427, 1847889.8642464532], [419774.2654987071, 1847864.97251683]]]}, "properties": {"property_id": "B-0203-3", "owner_name": "Sunil Jadhav", "plot_area": 601.0, "usage_type": "Institutional", "linked_parcel": "P-0203"}}, {"type": "Feature", "geometry": {"type": "Polygon", "coordinates": [[[419422.0047512313, 1847750.1428390758], [419445.9926220524, 1847750.0518548226], [419446.08702118404, 1847774.94359674], [419422.0991784798, 1847775.0345820764], [419422.0047512313, 1847750.1428390758]]]}, "properties": {"property_id": "B-0204-1", "owner_name": "Priyaa Joshi", "plot_area": 601.0, "usage_type": "Institutional", "linked_parcel": "P-0204"}}, {"type": "Feature", "geometry": {"type": "Polygon", "coordinates": [[[419500.39227309823, 1847334.9774186723], [419524.38060899964, 1847334.8865427787], [419524.4748938163, 1847359.7782722297], [419500.48658602545, 1847359.869149206], [419500.39227309823, 1847334.9774186723]]]}, "properties": {"property_id": "B-0205-1", "owner_name": "Sita Joshi", "plot_area": 601.0, "usage_type": "Residential", "linked_parcel": "P-0205"}}, {"type": "Feature", "geometry": {"type": "Polygon", "coordinates": [[[419421.6900026713, 1847667.170366244], [419445.6779672124, 1847667.0793856024], [419445.7723622215, 1847691.9711257485], [419421.784425796, 1847692.0621074738], [419421.6900026713, 1847667.170366244]]]}, "properties": {"property_id": "B-0206-1", "owner_name": "Nirmala Shinde", "plot_area": 601.0, "usage_type": "Mixed Use", "linked_parcel": "P-0206"}}, {"type": "Feature", "geometry": {"type": "Polygon", "coordinates": [[[419445.7723622215, 1847691.9711257485], [419469.76029760303, 1847691.880171118], [419469.854665733, 1847716.7719107128], [419445.8667584674, 1847716.8628664266], [419445.7723622215, 1847691.9711257485]]]}, "properties": {"property_id": "B-0206-2", "owner_name": "Nirmala Shinde Sr.", "plot_area": 601.0, "usage_type": "Mixed Use", "linked_parcel": "P-0206"}}, {"type": "Feature", "geometry": {"type": "Polygon", "coordinates": [[[419901.449095497, 1847665.355901375], [419925.4370392179, 1847665.2654626237], [419925.5308719167, 1847690.1571811687], [419901.54295631126, 1847690.2476209968], [419901.449095497, 1847665.355901375]]]}, "properties": {"property_id": "B-0209-1", "owner_name": "Anita Gaikwad", "plot_area": 601.0, "usage_type": "Mixed Use", "linked_parcel": "P-0209"}}, {"type": "Feature", "geometry": {"type": "Polygon", "coordinates": [[[419742.4699821031, 1847914.8768108175], [419766.45765157865, 1847914.786180645], [419766.55168403237, 1847939.6779116918], [419742.56404267595, 1847939.7685429428], [419742.4699821031, 1847914.8768108175]]]}, "properties": {"property_id": "B-0210-1", "owner_name": "Vijay Pawar", "plot_area": 601.0, "usage_type": "Commercial", "linked_parcel": "P-0210"}}, {"type": "Feature", "geometry": {"type": "Polygon", "coordinates": [[[419740.58902941074, 1847417.0422799352], [419764.57726119255, 1847416.9516713466], [419764.67126900924, 1847441.843391761], [419740.6830653392, 1847441.9340014297], [419740.58902941074, 1847417.0422799352]]]}, "properties": {"property_id": "B-0212-1", "owner_name": "Shobha Jadhav", "plot_area": 601.0, "usage_type": "Institutional", "linked_parcel": "P-0212"}}, {"type": "Feature", "geometry": {"type": "Polygon", "coordinates": [[[419764.7809463523, 1847470.8837329173], [419788.76911618485, 1847470.7931490825], [419788.863098558, 1847495.6848695702], [419764.874956838, 1847495.7754544844], [419764.7809463523, 1847470.8837329173]]]}, "properties": {"property_id": "B-0212-2", "owner_name": "SHOBHA JADHAV", "plot_area": 601.0, "usage_type": "Institutional", "linked_parcel": "P-0212"}}, {"type": "Feature", "geometry": {"type": "Polygon", "coordinates": [[[420220.97664891917, 1847581.1799320031], [420244.9646725443, 1847581.089858086], [420245.0581262893, 1847605.9815605294], [420221.07013077836, 1847606.071635519], [420220.97664891917, 1847581.1799320031]]]}, "properties": {"property_id": "B-0215-1", "owner_name": "Ganesh Patil", "plot_area": 601.0, "usage_type": "Residential", "linked_parcel": "P-0215"}}, {"type": "Feature", "geometry": {"type": "Polygon", "coordinates": [[[420140.0808744029, 1847332.5633323668], [420164.0691825969, 1847332.4731788777], [420164.1627177986, 1847357.364879582], [420140.17443771503, 1847357.455034145], [420140.0808744029, 1847332.5633323668]]]}, "properties": {"property_id": "B-0217-1", "owner_name": "Prakash Jadhav", "plot_area": 601.0, "usage_type": "Commercial", "linked_parcel": "P-0217"}}, {"type": "Feature", "geometry": {"type": "Polygon", "coordinates": [[[420222.95560969214, 1848108.0544365686], [420246.94303815597, 1848107.9643399473], [420247.03651781904, 1848132.8560536455], [420223.04911747715, 1848132.9461513397], [420222.95560969214, 1848108.0544365686]]]}, "properties": {"property_id": "B-0218-1", "owner_name": "Kavita Deshmukh", "plot_area": 601.0, "usage_type": "Residential", "linked_parcel": "P-0218"}}, {"type": "Feature", "geometry": {"type": "Polygon", "coordinates": [[[420219.52783673146, 1847195.3585954916], [420243.51629607857, 1847195.2685382024], [420243.6097308438, 1847220.1602324059], [420219.6212996052, 1847220.2502907673], [420219.52783673146, 1847195.3585954916]]]}, "properties": {"property_id": "B-0219-1", "owner_name": "Anita Joshi", "plot_area": 601.0, "usage_type": "Vacant", "linked_parcel": "P-0219"}}, {"type": "Feature", "geometry": {"type": "Polygon", "coordinates": [[[420243.5007237367, 1847191.119922554], [420267.4891867348, 1847191.029892532], [420267.58259318763, 1847215.9215855738], [420243.5941582979, 1847216.0116166684], [420243.5007237367, 1847191.119922554]]]}, "properties": {"property_id": "B-0219-2", "owner_name": "Anita Joshi", "plot_area": 601.0, "usage_type": "Vacant", "linked_parcel": "P-0219"}}, {"type": "Feature", "geometry": {"type": "Polygon", "coordinates": [[[420251.52801977925, 1847199.3871407297], [420275.5164730634, 1847199.29711938], [420275.60987055476, 1847224.1888122414], [420251.6214453791, 1847224.2788346633], [420251.52801977925, 1847199.3871407297]]]}, "properties": {"property_id": "B-0219-3", "owner_name": "Anita Joshi", "plot_area": 601.0, "usage_type": "Vacant", "linked_parcel": "P-0219"}}, {"type": "Feature", "geometry": {"type": "Polygon", "coordinates": [[[419902.07485748734, 1847831.3007088937], [419926.0626137649, 1847831.2102629626], [419926.1564546596, 1847856.101985051], [419902.16872649995, 1847856.1924320592], [419902.07485748734, 1847831.3007088937]]]}, "properties": {"property_id": "B-0221-1", "owner_name": "Sunita Bhosale", "plot_area": 601.0, "usage_type": "Commercial", "linked_parcel": "P-0221"}}, {"type": "Feature", "geometry": {"type": "Polygon", "coordinates": [[[419580.9815402051, 1847500.6194605876], [419604.9696852198, 1847500.5286677857], [419605.0638845631, 1847525.4203971724], [419581.07576766144, 1847525.5111910563], [419580.9815402051, 1847500.6194605876]]]}, "properties": {"property_id": "B-0224-1", "owner_name": "Ashok Chavan", "plot_area": 601.0, "usage_type": "Residential", "linked_parcel": "P-0224"}}, {"type": "Feature", "geometry": {"type": "Polygon", "coordinates": [[[420141.3284860431, 1847664.4527331123], [420165.3164194005, 1847664.362565305], [420165.4099709451, 1847689.254273098], [420141.4220657031, 1847689.3444419785], [420141.3284860431, 1847664.4527331123]]]}, "properties": {"property_id": "B-0225-1", "owner_name": "Lata Chavan", "plot_area": 601.0, "usage_type": "Residential", "linked_parcel": "P-0225"}}, {"type": "Feature", "geometry": {"type": "Polygon", "coordinates": [[[420165.4099709451, 1847689.254273098], [420189.3978751538, 1847689.164131312], [420189.4913998083, 1847714.0558385623], [420165.5035237154, 1847714.1459814217], [420165.4099709451, 1847689.254273098]]]}, "properties": {"property_id": "B-0225-2", "owner_name": "Lata", "plot_area": 601.0, "usage_type": "Residential", "linked_parcel": "P-0225"}}, {"type": "Feature", "geometry": {"type": "Polygon", "coordinates": [[[420173.4371201262, 1847697.521458755], [420197.4250146169, 1847697.4313256426], [420197.5185303079, 1847722.3230327123], [420173.5306639331, 1847722.4131668983], [420173.4371201262, 1847697.521458755]]]}, "properties": {"property_id": "B-0225-3", "owner_name": "Lata Chavan", "plot_area": 601.0, "usage_type": "Residential", "linked_parcel": "P-0225"}}, {"type": "Feature", "geometry": {"type": "Polygon", "coordinates": [[[419819.61044345493, 1847167.82320691], [419843.5989528694, 1847167.7326994068], [419843.6928546736, 1847192.6244109122], [419819.70437336725, 1847192.7149194935], [419819.61044345493, 1847167.82320691]]]}, "properties": {"property_id": "B-0226-1", "owner_name": "Prakash Joshi", "plot_area": 601.0, "usage_type": "Institutional", "linked_parcel": "P-0226"}}, {"type": "Feature", "geometry": {"type": "Polygon", "coordinates": [[[419821.8024621555, 1847748.6299723415], [419845.7903156181, 1847748.5394396822], [419845.88424613717, 1847773.4311635897], [419821.8964207913, 1847773.5216973277], [419821.8024621555, 1847748.6299723415]]]}, "properties": {"property_id": "B-0227-1", "owner_name": "Rekha Pawar", "plot_area": 601.0, "usage_type": "Commercial", "linked_parcel": "P-0227"}}, {"type": "Feature", "geometry": {"type": "Polygon", "coordinates": [[[420300.62543866993, 1847497.9074616798], [420324.61355256184, 1847497.8174816456], [420324.7069085156, 1847522.7091787427], [420300.7188227366, 1847522.7991598481], [420300.62543866993, 1847497.9074616798]]]}, "properties": {"property_id": "B-0228-1", "owner_name": "Shobha Bhosale", "plot_area": 601.0, "usage_type": "Residential", "linked_parcel": "P-0228"}}, {"type": "Feature", "geometry": {"type": "Polygon", "coordinates": [[[419741.52944414585, 1847665.9595187975], [419765.517394793, 1847665.868899416], [419765.6114149282, 1847690.7606251473], [419741.62349239655, 1847690.8512456077], [419741.52944414585, 1847665.9595187975]]]}, "properties": {"property_id": "B-0229-1", "owner_name": "Meena More", "plot_area": 601.0, "usage_type": "Commercial", "linked_parcel": "P-0229"}}, {"type": "Feature", "geometry": {"type": "Polygon", "coordinates": [[[420462.51910146035, 1848024.1823468362], [420486.5066133402, 1848024.0925247802], [420486.59980771504, 1848048.9842259975], [420462.61232395587, 1848049.074049123], [420462.51910146035, 1848024.1823468362]]]}, "properties": {"property_id": "B-0233-1", "owner_name": "Sita Bhosale", "plot_area": 601.0, "usage_type": "Mixed Use", "linked_parcel": "P-0233"}}, {"type": "Feature", "geometry": {"type": "Polygon", "coordinates": [[[420486.49108106305, 1848019.9439079629], [420510.4785965993, 1848019.854113184], [420510.5717626501, 1848044.7458132433], [420486.5842752345, 1848044.835609091], [420486.49108106305, 1848019.9439079629]]]}, "properties": {"property_id": "B-0233-2", "owner_name": "Sita Bhosale", "plot_area": 601.0, "usage_type": "Mixed Use", "linked_parcel": "P-0233"}}, {"type": "Feature", "geometry": {"type": "Polygon", "coordinates": [[[419903.1231312671, 1848109.258314425], [419927.1105735404, 1848109.1678564674], [419927.2044281632, 1848134.0595844937], [419903.21701401187, 1848134.150043528], [419903.1231312671, 1848109.258314425]]]}, "properties": {"property_id": "B-0234-1", "owner_name": "Suresh Kadam", "plot_area": 601.0, "usage_type": "Commercial", "linked_parcel": "P-0234"}}, {"type": "Feature", "geometry": {"type": "Polygon", "coordinates": [[[419927.0949312228, 1848105.0192351816], [419951.0823771454, 1848104.9288045042], [419951.1762034414, 1848129.8205313648], [419927.18878564064, 1848129.9109631188], [419927.0949312228, 1848105.0192351816]]]}, "properties": {"property_id": "B-0234-2", "owner_name": "Suresh Kadam", "plot_area": 601.0, "usage_type": "Commercial", "linked_parcel": "P-0234"}}, {"type": "Feature", "geometry": {"type": "Polygon", "coordinates": [[[419935.1220281894, 1848113.2863310778], [419959.10946439236, 1848113.1959090754], [419959.2032817239, 1848138.0876357546], [419935.2158736431, 1848138.1780588338], [419935.1220281894, 1848113.2863310778]]]}, "properties": {"property_id": "B-0234-3", "owner_name": "Suresh Kadam", "plot_area": 601.0, "usage_type": "Commercial", "linked_parcel": "P-0234"}}, {"type": "Feature", "geometry": {"type": "Polygon", "coordinates": [[[419581.6097465693, 1847666.5643404198], [419605.59770415653, 1847666.4735404085], [419605.6919117285, 1847691.3652733401], [419581.7039822569, 1847691.4560744327], [419581.6097465693, 1847666.5643404198]]]}, "properties": {"property_id": "B-0235-1", "owner_name": "Sunita Pawar", "plot_area": 601.0, "usage_type": "Vacant", "linked_parcel": "P-0235"}}, {"type": "Feature", "geometry": {"type": "Polygon", "coordinates": [[[419605.6919117285, 1847691.3652733401], [419629.6798401583, 1847691.2744993423], [419629.77402084874, 1847716.166231724], [419605.7861205349, 1847716.2570068028], [419605.6919117285, 1847691.3652733401]]]}, "properties": {"property_id": "B-0235-2", "owner_name": "Sunita Pawar", "plot_area": 601.0, "usage_type": "Vacant", "linked_parcel": "P-0235"}}, {"type": "Feature", "geometry": {"type": "Polygon", "coordinates": [[[419613.71928766096, 1847699.6322566387], [419637.7072063716, 1847699.5414913124], [419637.80137810134, 1847724.433223511], [419613.81348750676, 1847724.5239899184], [419613.71928766096, 1847699.6322566387]]]}, "properties": {"property_id": "B-0235-3", "owner_name": "Sunita Pawar Sr.", "plot_area": 601.0, "usage_type": "Vacant", "linked_parcel": "P-0235"}}, {"type": "Feature", "geometry": {"type": "Polygon", "coordinates": [[[420382.45185368997, 1847995.4416265802], [420406.4394018137, 1847995.3517154432], [420406.5326884984, 1848020.2434196067], [420382.54516849486, 1848020.3333318138], [420382.45185368997, 1847995.4416265802]]]}, "properties": {"property_id": "B-0236-1", "owner_name": "Sita Patil", "plot_area": 601.0, "usage_type": "Residential", "linked_parcel": "P-0236"}}, {"type": "Feature", "geometry": {"type": "Polygon", "coordinates": [[[420300.11184817593, 1847361.0031312525], [420324.1001166821, 1847360.9131571131], [420324.19346590794, 1847385.804851287], [420300.2052255126, 1847385.894826498], [420300.11184817593, 1847361.0031312525]]]}, "properties": {"property_id": "B-0237-1", "owner_name": "Anil Gaikwad", "plot_area": 601.0, "usage_type": "Mixed Use", "linked_parcel": "P-0237"}}, {"type": "Feature", "geometry": {"type": "Polygon", "coordinates": [[[419661.56960114255, 1847666.2617790832], [419685.5575552579, 1847666.1710693873], [419685.65166911157, 1847691.0627987166], [419661.66374311165, 1847691.1535094932], [419661.56960114255, 1847666.2617790832]]]}, "properties": {"property_id": "B-0239-1", "owner_name": "Suresh", "plot_area": 601.0, "usage_type": "Vacant", "linked_parcel": "P-0239"}}, {"type": "Feature", "geometry": {"type": "Polygon", "coordinates": [[[419583.29046831804, 1848110.4670100957], [419607.2779244561, 1848110.3761908016], [419607.3721540397, 1848135.2679332132], [419583.38472602377, 1848135.358753588], [419583.29046831804, 1848110.4670100957]]]}, "properties": {"property_id": "B-0240-1", "owner_name": "Lata Joshi", "plot_area": 601.0, "usage_type": "Vacant", "linked_parcel": "P-0240"}}, {"type": "Feature", "geometry": {"type": "Polygon", "coordinates": [[[419823.05534517963, 1848080.5196825326], [419847.0428237225, 1848080.4291354993], [419847.1367706497, 1848105.3208664958], [419823.14932022843, 1848105.4114146074], [419823.05534517963, 1848080.5196825326]]]}, "properties": {"property_id": "B-0247-1", "owner_name": "Ramesh Pawar", "plot_area": 601.0, "usage_type": "Commercial", "linked_parcel": "P-0247"}}, {"type": "Feature", "geometry": {"type": "Polygon", "coordinates": [[[419662.8249288139, 1847998.1515615815], [419686.8125080255, 1847998.0608374828], [419686.90663832, 1848022.9525739008], [419662.9190872289, 1848023.0432990796], [419662.8249288139, 1847998.1515615815]]]}, "properties": {"property_id": "B-0249-1", "owner_name": "Anil Bhosale", "plot_area": 601.0, "usage_type": "Residential", "linked_parcel": "P-0249"}}, {"type": "Feature", "geometry": {"type": "Polygon", "coordinates": [[[419686.90663832, 1848022.9525739008], [419710.8941883703, 1848022.861875821], [419710.9882917772, 1848047.75361169], [419687.00076984765, 1848047.8443108492], [419686.90663832, 1848022.9525739008]]]}, "properties": {"property_id": "B-0249-2", "owner_name": "Anil Bhosale", "plot_area": 601.0, "usage_type": "Residential", "linked_parcel": "P-0249"}}, {"type": "Feature", "geometry": {"type": "Polygon", "coordinates": [[[419694.9338623659, 1848031.2195836667], [419718.9214026958, 1848031.1288942602], [419719.0154971399, 1848056.0206299466], [419695.02798493084, 1848056.111320433], [419694.9338623659, 1848031.2195836667]]]}, "properties": {"property_id": "B-0249-3", "owner_name": "ANIL BHOSALE", "plot_area": 601.0, "usage_type": "Residential", "linked_parcel": "P-0249"}}, {"type": "Feature", "geometry": {"type": "Polygon", "coordinates": [[[420302.8047190471, 1848078.713890829], [420326.79217687564, 1848078.6238857917], [420326.8855613719, 1848103.5155952966], [420302.89813166484, 1848103.6056014057], [420302.8047190471, 1848078.713890829]]]}, "properties": {"property_id": "B-0250-1", "owner_name": "Anita Pawar", "plot_area": 601.0, "usage_type": "Commercial", "linked_parcel": "P-0250"}}, {"type": "Feature", "geometry": {"type": "Polygon", "coordinates": [[[419662.51107633876, 1847915.179107098], [419686.4987492824, 1847915.0883865992], [419686.5928754668, 1847939.980121244], [419662.60523064225, 1847940.0708428225], [419662.51107633876, 1847915.179107098]]]}, "properties": {"property_id": "B-0251-1", "owner_name": "Ramesh Chavan", "plot_area": 601.0, "usage_type": "Institutional", "linked_parcel": "P-0251"}}, {"type": "Feature", "geometry": {"type": "Polygon", "coordinates": [[[419686.5928754668, 1847939.980121244], [419710.5805192504, 1847939.889426764], [419710.67461854825, 1847964.7811608608], [419686.68700288417, 1847964.8718564208], [419686.5928754668, 1847939.980121244]]]}, "properties": {"property_id": "B-0251-2", "owner_name": "Ramesh Chavan", "plot_area": 601.0, "usage_type": "Institutional", "linked_parcel": "P-0251"}}, {"type": "Feature", "geometry": {"type": "Polygon", "coordinates": [[[419660.9420195365, 1847500.3169232726], [419684.9301610794, 1847500.2262207784], [419685.0242667124, 1847525.1179465633], [419661.0361532826, 1847525.208650138], [419660.9420195365, 1847500.3169232726]]]}, "properties": {"property_id": "B-0252-1", "owner_name": "Anil Patil", "plot_area": 601.0, "usage_type": "Residential", "linked_parcel": "P-0252"}}, {"type": "Feature", "geometry": {"type": "Polygon", "coordinates": [[[419685.0242667124, 1847525.1179465633], [419709.01237910124, 1847525.0272700815], [419709.106457854, 1847549.9189953182], [419685.11837357853, 1847550.00967288], [419685.0242667124, 1847525.1179465633]]]}, "properties": {"property_id": "B-0252-2", "owner_name": "Anil Patil Sr.", "plot_area": 601.0, "usage_type": "Residential", "linked_parcel": "P-0252"}}, {"type": "Feature", "geometry": {"type": "Polygon", "coordinates": [[[419693.05166998476, 1847533.3849599855], [419717.03977265564, 1847533.2942921747], [419717.13384244806, 1847558.186017229], [419693.14576789073, 1847558.2766861198], [419693.05166998476, 1847533.3849599855]]]}, "properties": {"property_id": "B-0252-3", "owner_name": "Anil Patil", "plot_area": 601.0, "usage_type": "Residential", "linked_parcel": "P-0252"}}, {"type": "Feature", "geometry": {"type": "Polygon", "coordinates": [[[420460.2355317811, 1847414.3358069344], [420484.2237325016, 1847414.2460110807], [420484.3168969669, 1847439.1376992692], [420460.328724358, 1847439.2274961928], [420460.2355317811, 1847414.3358069344]]]}, "properties": {"property_id": "B-0253-1", "owner_name": "Sunita Patil", "plot_area": 601.0, "usage_type": "Residential", "linked_parcel": "P-0253"}}, {"type": "Feature", "geometry": {"type": "Polygon", "coordinates": [[[419979.5338199373, 1847167.220335217], [420003.52232243156, 1847167.1300083003], [420003.6160368485, 1847192.0217126254], [419979.62756246235, 1847192.1120406182], [419979.5338199373, 1847167.220335217]]]}, "properties": {"property_id": "B-0255-1", "owner_name": "Kavita Joshi", "plot_area": 601.0, "usage_type": "Commercial", "linked_parcel": "P-0255"}}, {"type": "Feature", "geometry": {"type": "Polygon", "coordinates": [[[420003.6160368485, 1847192.0217126254], [420027.6045101978, 1847191.9314117208], [420027.6981977346, 1847216.8231155027], [420003.7097524937, 1847216.913417483], [420003.6160368485, 1847192.0217126254]]]}, "properties": {"property_id": "B-0255-2", "owner_name": "Kavita Joshi", "plot_area": 601.0, "usage_type": "Commercial", "linked_parcel": "P-0255"}}, {"type": "Feature", "geometry": {"type": "Polygon", "coordinates": [[[420011.643430036, 1847200.288844088], [420035.63189367036, 1847200.1985518546], [420035.7255722469, 1847225.090255454], [420011.7371367211, 1847225.1805487636], [420011.643430036, 1847200.288844088]]]}, "properties": {"property_id": "B-0255-3", "owner_name": "Kavita", "plot_area": 601.0, "usage_type": "Commercial", "linked_parcel": "P-0255"}}, {"type": "Feature", "geometry": {"type": "Polygon", "coordinates": [[[420059.49549088685, 1847166.919350837], [420083.4839899261, 1847166.8291142134], [420083.57761064963, 1847191.720814954], [420059.5891397184, 1847191.811052652], [420059.49549088685, 1847166.919350837]]]}, "properties": {"property_id": "B-0256-1", "owner_name": "Manoj Joshi", "plot_area": 601.0, "usage_type": "Institutional", "linked_parcel": "P-0256"}}, {"type": "Feature", "geometry": {"type": "Polygon", "coordinates": [[[420221.7089562647, 1847776.1649571063], [420245.69675965246, 1847776.0748747864], [420245.7902229893, 1847800.966581395], [420221.80244771857, 1847801.0566647865], [420221.7089562647, 1847776.1649571063]]]}, "properties": {"property_id": "B-0257-1", "owner_name": "Ashok Patil", "plot_area": 601.0, "usage_type": "Residential", "linked_parcel": "P-0257"}}, {"type": "Feature", "geometry": {"type": "Polygon", "coordinates": [[[420245.6811825487, 1847771.9262570702], [420269.66898958903, 1847771.8362020252], [420269.76242460485, 1847796.727907472], [420245.7746456815, 1847796.8179635894], [420245.6811825487, 1847771.9262570702]]]}, "properties": {"property_id": "B-0257-2", "owner_name": "Ashok Patil", "plot_area": 601.0, "usage_type": "Residential", "linked_parcel": "P-0257"}}, {"type": "Feature", "geometry": {"type": "Polygon", "coordinates": [[[420253.7082694615, 1847780.1934710387], [420277.69606678514, 1847780.1034246685], [420277.7894928366, 1847804.995129936], [420253.8017236301, 1847805.0851773785], [420253.7082694615, 1847780.1934710387]]]}, "properties": {"property_id": "B-0257-3", "owner_name": "Ashok Patil", "plot_area": 601.0, "usage_type": "Residential", "linked_parcel": "P-0257"}}, {"type": "Feature", "geometry": {"type": "Polygon", "coordinates": [[[420302.49335249176, 1847995.7415260824], [420326.4809040559, 1847995.6515246164], [420326.57428447466, 1848020.5432323494], [420302.58676103083, 1848020.6332348867], [420302.49335249176, 1847995.7415260824]]]}, "properties": {"property_id": "B-0258-1", "owner_name": "Meena Kadam", "plot_area": 601.0, "usage_type": "Vacant", "linked_parcel": "P-0258"}}, {"type": "Feature", "geometry": {"type": "Polygon", "coordinates": [[[420326.57428447466, 1848020.5432323494], [420350.5618068861, 1848020.4532569111], [420350.65516040754, 1848045.3449641033], [420326.66766611673, 1848045.434940613], [420326.57428447466, 1848020.5432323494]]]}, "properties": {"property_id": "B-0258-2", "owner_name": "Meena Kadam", "plot_area": 601.0, "usage_type": "Vacant", "linked_parcel": "P-0258"}}, {"type": "Feature", "geometry": {"type": "Polygon", "coordinates": [[[420059.8076584316, 1847249.8916922898], [420083.79606377595, 1847249.801452083], [420083.8896885893, 1847274.6931545963], [420059.90131135425, 1847274.7833958773], [420059.8076584316, 1847249.8916922898]]]}, "properties": {"property_id": "B-0259-1", "owner_name": "MANOJ KULKARNI", "plot_area": 601.0, "usage_type": "Institutional", "linked_parcel": "P-0259"}}, {"type": "Feature", "geometry": {"type": "Polygon", "coordinates": [[[420083.8896885893, 1847274.6931545963], [420107.87806478865, 1847274.6029404043], [420107.9716627193, 1847299.4946423732], [420083.98331462964, 1847299.5848576403], [420083.8896885893, 1847274.6931545963]]]}, "properties": {"property_id": "B-0259-2", "owner_name": "Manoj", "plot_area": 601.0, "usage_type": "Institutional", "linked_parcel": "P-0259"}}, {"type": "Feature", "geometry": {"type": "Polygon", "coordinates": [[[420091.91701952374, 1847282.9603143581], [420115.9053860081, 1847282.8701088375], [420115.99897497776, 1847307.7618106261], [420092.01063660317, 1847307.8520172215], [420091.91701952374, 1847282.9603143581]]]}, "properties": {"property_id": "B-0259-3", "owner_name": "Manoj Kulkarni", "plot_area": 601.0, "usage_type": "Institutional", "linked_parcel": "P-0259"}}, {"type": "Feature", "geometry": {"type": "Polygon", "coordinates": [[[420379.6529779558, 1847248.6907168527], [420403.64136951533, 1847248.600837833], [420403.734619539, 1847273.492526044], [420379.7462560887, 1847273.582406135], [420379.6529779558, 1847248.6907168527]]]}, "properties": {"property_id": "B-0261-1", "owner_name": "Anita Kulkarni", "plot_area": 601.0, "usage_type": "Mixed Use", "linked_parcel": "P-0261"}}, {"type": "Feature", "geometry": {"type": "Polygon", "coordinates": [[[420403.734619539, 1847273.492526044], [420427.72298195906, 1847273.4026730426], [420427.8162050953, 1847298.2943607147], [420403.8278707848, 1847298.3842147866], [420403.734619539, 1847273.492526044]]]}, "properties": {"property_id": "B-0261-2", "owner_name": "Anita Kulkarni", "plot_area": 601.0, "usage_type": "Mixed Use", "linked_parcel": "P-0261"}}, {"type": "Feature", "geometry": {"type": "Polygon", "coordinates": [[[419980.1587933105, 1847333.1650479324], [420004.1471084106, 1847333.0747138425], [420004.2408310156, 1847357.9664217122], [419980.25254402595, 1847358.056756878], [419980.1587933105, 1847333.1650479324]]]}, "properties": {"property_id": "B-0262-1", "owner_name": "Vijay Kulkarni", "plot_area": 601.0, "usage_type": "Residential", "linked_parcel": "P-0262"}}, {"type": "Feature", "geometry": {"type": "Polygon", "coordinates": [[[420004.2408310156, 1847357.9664217122], [420028.2291169684, 1847357.8761136362], [420028.32281269063, 1847382.7678209604], [420004.3345548487, 1847382.858130112], [420004.2408310156, 1847357.9664217122]]]}, "properties": {"property_id": "B-0262-2", "owner_name": "Vijay Kulkarni", "plot_area": 601.0, "usage_type": "Residential", "linked_parcel": "P-0262"}}, {"type": "Feature", "geometry": {"type": "Polygon", "coordinates": [[[420012.37749860354, 1847395.2738782715], [420036.3657420444, 1847395.183577613], [420036.45943023794, 1847420.0752853767], [420012.4712149085, 1847420.1655871116], [420012.37749860354, 1847395.2738782715]]]}, "properties": {"property_id": "B-0262-3", "owner_name": "Vijay Kulkarni", "plot_area": 601.0, "usage_type": "Residential", "linked_parcel": "P-0262"}}, {"type": "Feature", "geometry": {"type": "Polygon", "coordinates": [[[419421.3752678572, 1847584.1978993183], [419445.36332611425, 1847584.1069222884], [419445.4577170008, 1847608.998660663], [419421.4696868581, 1847609.0896387761], [419421.3752678572, 1847584.1978993183]]]}, "properties": {"property_id": "B-0265-1", "owner_name": "Anil Chavan", "plot_area": 601.0, "usage_type": "Vacant", "linked_parcel": "P-0265"}}, {"type": "Feature", "geometry": {"type": "Polygon", "coordinates": [[[419420.5412870788, 1847364.3208905233], [419444.5295936634, 1847364.2299230644], [419444.62397362513, 1847389.1216567447], [419420.63569515164, 1847389.212625287], [419420.5412870788, 1847364.3208905233]]]}, "properties": {"property_id": "B-0267-1", "owner_name": "Ashok Kadam", "plot_area": 601.0, "usage_type": "Commercial", "linked_parcel": "P-0267"}}, {"type": "Feature", "geometry": {"type": "Polygon", "coordinates": [[[420142.88830711343, 1848079.3146169619], [420166.87577183294, 1848079.2244312596], [420166.9693438059, 1848104.116147914], [420142.981907208, 1848104.20633469], [420142.88830711343, 1848079.3146169619]]]}, "properties": {"property_id": "B-0268-1", "owner_name": "Anil Joshi", "plot_area": 601.0, "usage_type": "Institutional", "linked_parcel": "P-0268"}}], "crs_hint": "EPSG:32643"}