{"type": "FeatureCollection", "features": [{"type": "Feature", "geometry": {"type": "Polygon", "coordinates": [[[74.24732165141465, 16.706756584632128], [74.24751190627742, 16.706756584632128], [74.24751190627742, 16.706909889943194], [74.24735860096636, 16.706946839494904], [74.24732165141465, 16.706756584632128]]]}, "properties": {"survey_no": "P-0101", "landholder": "Meena More", "area": 4770.1, "classification": "Vacant", "khasra_no": "KH-0101"}}, {"type": "Feature", "geometry": {"type": "Polygon", "coordinates": [[[74.2451253149787, 16.712053848839385], [74.24528040857001, 16.712053848839385], [74.24528040857001, 16.712174108174718], [74.24516014923468, 16.712208942430706], [74.2451253149787, 16.712053848839385]]]}, "properties": {"survey_no": "P-0102", "landholder": "Suresh Gaikwad", "area": 4856.4, "classification": "Institutional", "khasra_no": "KH-0102"}}, {"type": "Feature", "geometry": {"type": "Polygon", "coordinates": [[[74.25024594538692, 16.70971743702607], [74.250571668381, 16.70971743702607], [74.250571668381, 16.710034901868223], [74.25025420353884, 16.71004316002014], [74.25024594538692, 16.70971743702607]]]}, "properties": {"survey_no": "P-0103", "landholder": "Rekha Jadhav", "area": 4330.2, "classification": "Vacant", "khasra_no": "KH-0103"}}, {"type": "Feature", "geometry": {"type": "Polygon", "coordinates": [[[74.25169154753242, 16.708121500310313], [74.2521501786095, 16.708121500310313], [74.2521501786095, 16.708564247189027], [74.25170743173078, 16.70858013138739], [74.25169154753242, 16.708121500310313]]]}, "properties": {"survey_no": "P-0104", "landholder": "Manoj Jadhav", "area": 4467.1, "classification": "Commercial", "khasra_no": "KH-0104"}}, {"type": "Feature", "geometry": {"type": "Polygon", "coordinates": [[[74.24876074125106, 16.713420333701972], [74.24914005062085, 16.713420333701972], [74.24914005062085, 16.713783025668835], [74.248777358654, 16.713799643071773], [74.24876074125106, 16.713420333701972]]]}, "properties": {"survey_no": "P-0105", "landholder": "Priya Joshi", "area": 4860.7, "classification": "Vacant", "khasra_no": "KH-0105"}}, {"type": "Feature", "geometry": {"type": "Polygon", "coordinates": [[[74.2456775120101, 16.70810421602733], [74.24615933860083, 16.70810421602733], [74.24615933860083, 16.70855129819031], [74.24571225643787, 16.70858604261807], [74.2456775120101, 16.70810421602733]]]}, "properties": {"survey_no": "P-0106", "landholder": "Meena Chavan", "area": 4669.3, "classification": "Institutional", "khasra_no": "KH-0106"}}, {"type": "Feature", "geometry": {"type": "Polygon", "coordinates": [[[74.251077417757, 16.71356886637424], [74.25121944207575, 16.71356886637424], [74.25121944207575, 16.71368898403321], [74.2510993244168, 16.713710890693005], [74.251077417757, 16.71356886637424]]]}, "properties": {"survey_no": "P-0107", "landholder": "Vijay Shinde", "area": 4554.3, "classification": "Commercial", "khasra_no": "KH-0107"}}, {"type": "Feature", "geometry": {"type": "Polygon", "coordinates": [[[74.2449008061479, 16.713356334922338], [74.24545702108296, 16.713356334922338], [74.24545702108296, 16.71390068598817], [74.24491267001711, 16.713912549857394], [74.2449008061479, 16.713356334922338]]]}, "properties": {"survey_no": "P-0108", "landholder": "Sunil Kulkarni", "area": 4520.8, "classification": "Vacant", "khasra_no": "KH-0108"}}, {"type": "Feature", "geometry": {"type": "Polygon", "coordinates": [[[74.2519985605035, 16.712979145092707], [74.25183578274716, 16.712979145092707], [74.25183578274716, 16.712810451830173], [74.2520044760097, 16.712816367336387], [74.2519985605035, 16.712979145092707]]]}, "properties": {"survey_no": "P-0109", "landholder": "Anil More", "area": 4695.4, "classification": "Commercial", "khasra_no": "KH-0109"}}, {"type": "Feature", "geometry": {"type": "Polygon", "coordinates": [[[74.24718745782465, 16.709659673068078], [74.24763422024354, 16.709659673068078], [74.24763422024354, 16.71008811554253], [74.24720577776911, 16.710106435486985], [74.24718745782465, 16.709659673068078]]]}, "properties": {"survey_no": "P-0110", "landholder": "Anita Deshmukh", "area": 4807.7, "classification": "Institutional", "khasra_no": "KH-0110"}}, {"type": "Feature", "geometry": {"type": "Polygon", "coordinates": [[[74.2516718044237, 16.707387046302607], [74.25220111793116, 16.707387046302607], [74.25220111793116, 16.707910770274367], [74.2516773939594, 16.707916359810074], [74.2516718044237, 16.707387046302607]]]}, "properties": {"survey_no": "P-0111", "landholder": "Ganesh Deshmukh", "area": 4218.9, "classification": "Institutional", "khasra_no": "KH-0111"}}, {"type": "Feature", "geometry": {"type": "Polygon", "coordinates": [[[74.25270543495225, 16.706184100390928], [74.25263333033455, 16.706184100390928], [74.25263333033455, 16.706088720966616], [74.25272870975888, 16.706111995773245], [74.25270543495225, 16.706184100390928]]]}, "properties": {"survey_no": "P-0112", "landholder": "Sita Pawar", "area": 4424.3, "classification": "Commercial", "khasra_no": "KH-0112"}}, {"type": "Feature", "geometry": {"type": "Polygon", "coordinates": [[[74.24448582107537, 16.708473990647384], [74.24433087097074, 16.708473990647384], [74.24433087097074, 16.708288418545063], [74.24451644307308, 16.708319040542772], [74.24448582107537, 16.708473990647384]]]}, "properties": {"survey_no": "P-0113", "landholder": "Priya Shinde", "area": 4651.9, "classification": "Commercial", "khasra_no": "KH-0113"}}, {"type": "Feature", "geometry": {"type": "Polygon", "coordinates": [[[74.24982443233391, 16.71372739434393], [74.24958107178398, 16.71372739434393], [74.24958107178398, 16.713474078805415], [74.24983438732251, 16.71348403379401], [74.24982443233391, 16.71372739434393]]]}, "properties": {"survey_no": "P-0114", "landholder": "Deepak Chavan", "area": 4386.4, "classification": "Vacant", "khasra_no": "KH-0114"}}, {"type": "Feature", "geometry": {"type": "Polygon", "coordinates": [[[74.2456311691611, 16.705826137391096], [74.24622122128075, 16.705826137391096], [74.24622122128075, 16.70638594535314], [74.24566141331871, 16.706416189510755], [74.2456311691611, 16.705826137391096]]]}, "properties": {"survey_no": "P-0115", "landholder": "Deepak Kulkarni", "area": 4798.2, "classification": "Institutional", "khasra_no": "KH-0115"}}, {"type": "Feature", "geometry": {"type": "Polygon", "coordinates": [[[74.25398827162117, 16.705920682109078], [74.25435218193888, 16.705920682109078], [74.25435218193888, 16.706249328789152], [74.25402353525882, 16.706284592426805], [74.25398827162117, 16.705920682109078]]]}, "properties": {"survey_no": "P-0116", "landholder": "Lata More", "area": 4730.9, "classification": "Mixed Use", "khasra_no": "KH-0116"}}, {"type": "Feature", "geometry": {"type": "Polygon", "coordinates": [[[74.24967820983498, 16.708400713695372], [74.24964584453363, 16.708400713695372], [74.24964584453363, 16.708343453875163], [74.24970310435384, 16.708368348394025], [74.24967820983498, 16.708400713695372]]]}, "properties": {"survey_no": "P-0117", "landholder": "VIJAY MORE", "area": 4535.3, "classification": "Institutional", "khasra_no": "KH-0117"}}, {"type": "Feature", "geometry": {"type": "Polygon", "coordinates": [[[74.24730110113308, 16.714218698068997], [74.24757141355649, 16.714218698068997], [74.24757141355649, 16.71445553574893], [74.24733457587656, 16.71448901049241], [74.24730110113308, 16.714218698068997]]]}, "properties": {"survey_no": "P-0118", "landholder": "Prakash Chavan", "area": 4871.0, "classification": "Vacant", "khasra_no": "KH-0118"}}, {"type": "Feature", "geometry": {"type": "Polygon", "coordinates": [[[74.24792862524383, 16.70740331075298], [74.24841538312702, 16.70740331075298], [74.24841538312702, 16.7078618770067], [74.24795681687333, 16.707890068636193], [74.24792862524383, 16.70740331075298]]]}, "properties": {"survey_no": "P-0119", "landholder": "Prakash Bhosale", "area": 4838.0, "classification": "Vacant", "khasra_no": "KH-0119"}}, {"type": "Feature", "geometry": {"type": "Polygon", "coordinates": [[[74.24488138817851, 16.70810799303992], [74.24545534903899, 16.70810799303992], [74.24545534903899, 16.708653086558932], [74.24491025551997, 16.708681953900395], [74.24488138817851, 16.70810799303992]]]}, "properties": {"survey_no": "P-0120", "landholder": "Vijay Kulkarni Sr.", "area": 4910.1, "classification": "Institutional", "khasra_no": "KH-0120"}}, {"type": "Feature", "geometry": {"type": "Polygon", "coordinates": [[[74.25238380968209, 16.711063228941597], [74.25298768734413, 16.711063228941597], [74.25298768734413, 16.71165194472855], [74.25239897155718, 16.711667106603645], [74.25238380968209, 16.711063228941597]]]}, "properties": {"survey_no": "P-0121", "landholder": "Anita Bhosale", "area": 4345.1, "classification": "Commercial", "khasra_no": "KH-0121"}}, {"type": "Feature", "geometry": {"type": "Polygon", "coordinates": [[[74.25022435230076, 16.707416711501278], [74.25062021161823, 16.707416711501278], [74.25062021161823, 16.7077999145482], [74.25023700857132, 16.707812570818753], [74.25022435230076, 16.707416711501278]]]}, "properties": {"survey_no": "P-0122", "landholder": "Anil Gaikwad", "area": 4944.3, "classification": "Institutional", "khasra_no": "KH-0122"}}, {"type": "Feature", "geometry": {"type": "Polygon", "coordinates": [[[74.25014431723028, 16.712558800497717], [74.25074639023127, 16.712558800497717], [74.25074639023127, 16.713137573411604], [74.2501676173174, 16.713160873498726], [74.25014431723028, 16.712558800497717]]]}, "properties": {"survey_no": "P-0123", "landholder": "Sita Pawar", "area": 4504.0, "classification": "Commercial", "khasra_no": "KH-0123"}}, {"type": "Feature", "geometry": {"type": "Polygon", "coordinates": [[[74.24454510000389, 16.706211130185533], [74.24435787646794, 16.706211130185533], [74.24435787646794, 16.70601646928295], [74.24455253737054, 16.70602390664959], [74.24454510000389, 16.706211130185533]]]}, "properties": {"survey_no": "P-0124", "landholder": "Meena Shinde", "area": 4620.2, "classification": "Residential", "khasra_no": "KH-0124"}}, {"type": "Feature", "geometry": {"type": "Polygon", "coordinates": [[[74.24660865689297, 16.706778156225848], [74.24678329218227, 16.706778156225848], [74.24678329218227, 16.706921954105706], [74.2466394943024, 16.706952791515135], [74.24660865689297, 16.706778156225848]]]}, "properties": {"survey_no": "P-0125", "landholder": "Manoj Patil", "area": 4318.2, "classification": "Mixed Use", "khasra_no": "KH-0125"}}, {"type": "Feature", "geometry": {"type": "Polygon", "coordinates": [[[74.25028111437506, 16.708939766772485], [74.25062104025037, 16.708939766772485], [74.25062104025037, 16.70926923283846], [74.2502915741844, 16.709279692647804], [74.25028111437506, 16.708939766772485]]]}, "properties": {"survey_no": "P-0126", "landholder": "Sunita Jadhav", "area": 4512.8, "classification": "Institutional", "khasra_no": "KH-0126"}}, {"type": "Feature", "geometry": {"type": "Polygon", "coordinates": [[[74.24952522350445, 16.71123597167821], [74.24984891854561, 16.71123597167821], [74.24984891854561, 16.71154930664777], [74.24953558357603, 16.71155966671936], [74.24952522350445, 16.71123597167821]]]}, "properties": {"survey_no": "P-0127", "landholder": "Sunita Pawar", "area": 4141.2, "classification": "Institutional", "khasra_no": "KH-0127"}}, {"type": "Feature", "geometry": {"type": "Polygon", "coordinates": [[[74.25021162855079, 16.71417932492504], [74.25062265390329, 16.71417932492504], [74.25062265390329, 16.714569595041738], [74.2502323837866, 16.71459035027755], [74.25021162855079, 16.71417932492504]]]}, "properties": {"survey_no": "P-0128", "landholder": "Sunita Jadhav", "area": 4484.8, "classification": "Residential", "khasra_no": "KH-0128"}}, {"type": "Feature", "geometry": {"type": "Polygon", "coordinates": [[[74.24807211815758, 16.706783066513292], [74.24822994497539, 16.706783066513292], [74.24822994497539, 16.706933613921915], [74.24807939756676, 16.706940893331094], [74.24807211815758, 16.706783066513292]]]}, "properties": {"survey_no": "P-0129", "landholder": "Vijay Joshi", "area": 4252.0, "classification": "Vacant", "khasra_no": "KH-0129"}}, {"type": "Feature", "geometry": {"type": "Polygon", "coordinates": [[[74.2456440258152, 16.707338909339416], [74.24621521672358, 16.707338909339416], [74.24621521672358, 16.70788435833463], [74.24566976772839, 16.707910100247815], [74.2456440258152, 16.707338909339416]]]}, "properties": {"survey_no": "P-0130", "landholder": "Ashok Deshmukh", "area": 4419.2, "classification": "Residential", "khasra_no": "KH-0130"}}, {"type": "Feature", "geometry": {"type": "Polygon", "coordinates": [[[74.24527413847825, 16.711456668157883], [74.24508648453838, 16.711456668157883], [74.24508648453838, 16.711252933099164], [74.24529021959711, 16.71126901421802], [74.24527413847825, 16.711456668157883]]]}, "properties": {"survey_no": "P-0131", "landholder": "Shobhaa Bhosale", "area": 4657.0, "classification": "Commercial", "khasra_no": "KH-0131"}}, {"type": "Feature", "geometry": {"type": "Polygon", "coordinates": [[[74.24808974875955, 16.712025557192085], [74.24831112056579, 16.712025557192085], [74.24831112056579, 16.712217385447325], [74.24811929231055, 16.712246928998322], [74.24808974875955, 16.712025557192085]]]}, "properties": {"survey_no": "P-0132", "landholder": "Lata Patil", "area": 4609.2, "classification": "Commercial", "khasra_no": "KH-0132"}}, {"type": "Feature", "geometry": {"type": "Polygon", "coordinates": [[[74.25197725734253, 16.713706179687332], [74.25186544107133, 16.713706179687332], [74.25186544107133, 16.713576787242257], [74.25199483351642, 16.713594363416142], [74.25197725734253, 16.713706179687332]]]}, "properties": {"survey_no": "P-0133", "landholder": "Suresh Kulkarni", "area": 4405.3, "classification": "Residential", "khasra_no": "KH-0133"}}, {"type": "Feature", "geometry": {"type": "Polygon", "coordinates": [[[74.24676322855294, 16.71144069332281], [74.24664086580042, 16.71144069332281], [74.24664086580042, 16.71128084660466], [74.24680071251856, 16.711318330570293], [74.24676322855294, 16.71144069332281]]]}, "properties": {"survey_no": "P-0134", "landholder": "Ashok Bhosale", "area": 4572.5, "classification": "Commercial", "khasra_no": "KH-0134"}}, {"type": "Feature", "geometry": {"type": "Polygon", "coordinates": [[[74.25125760031291, 16.712935768112292], [74.25111564052796, 16.712935768112292], [74.25111564052796, 16.71278300016001], [74.25126840848024, 16.712793808327334], [74.25125760031291, 16.712935768112292]]]}, "properties": {"survey_no": "P-0135", "landholder": "Anil Jadhav", "area": 4850.2, "classification": "Mixed Use", "khasra_no": "KH-0135"}}, {"type": "Feature", "geometry": {"type": "Polygon", "coordinates": [[[74.24564174987079, 16.709585498201967], [74.24622296619395, 16.709585498201967], [74.24622296619395, 16.71014802103379], [74.24566044336213, 16.710166714525126], [74.24564174987079, 16.709585498201967]]]}, "properties": {"survey_no": "P-0136", "landholder": "Sunil", "area": 4541.6, "classification": "Residential", "khasra_no": "KH-0136"}}, {"type": "Feature", "geometry": {"type": "Polygon", "coordinates": [[[74.24641276229737, 16.705882788357513], [74.2469370427632, 16.705882788357513], [74.2469370427632, 16.70638019619861], [74.2464396349221, 16.706407068823335], [74.24641276229737, 16.705882788357513]]]}, "properties": {"survey_no": "P-0137", "landholder": "Ramesh More", "area": 4590.7, "classification": "Institutional", "khasra_no": "KH-0137"}}, {"type": "Feature", "geometry": {"type": "Polygon", "coordinates": [[[74.24674227165899, 16.712227538430877], [74.24658087802936, 16.712227538430877], [74.24658087802936, 16.712036519569423], [74.24677189689082, 16.71206614480125], [74.24674227165899, 16.712227538430877]]]}, "properties": {"survey_no": "P-0138", "landholder": "Anita Deshmukh", "area": 4509.3, "classification": "Institutional", "khasra_no": "KH-0138"}}, {"type": "Feature", "geometry": {"type": "Polygon", "coordinates": [[[74.24809385016934, 16.70905186420534], [74.24823476311268, 16.70905186420534], [74.24823476311268, 16.709185702684664], [74.24810092463335, 16.70919277714868], [74.24809385016934, 16.70905186420534]]]}, "properties": {"survey_no": "P-0139", "landholder": "Suresh Jadhav", "area": 4703.7, "classification": "Vacant", "khasra_no": "KH-0139"}}, {"type": "Feature", "geometry": {"type": "Polygon", "coordinates": [[[74.24752043099171, 16.707734328797812], [74.24728161276056, 16.707734328797812], [74.24728161276056, 16.707463821588288], [74.24755211997008, 16.707495510566655], [74.24752043099171, 16.707734328797812]]]}, "properties": {"survey_no": "P-0140", "landholder": "Sunil Gaikwad", "area": 4377.1, "classification": "Commercial", "khasra_no": "KH-0140"}}, {"type": "Feature", "geometry": {"type": "Polygon", "coordinates": [[[74.25261528564948, 16.70833431572967], [74.25268435218901, 16.70833431572967], [74.25268435218901, 16.708391061059608], [74.25262760685906, 16.708403382269196], [74.25261528564948, 16.70833431572967]]]}, "properties": {"survey_no": "P-0141", "landholder": "Suresh Kulkarni", "area": 4767.5, "classification": "Institutional", "khasra_no": "KH-0141"}}, {"type": "Feature", "geometry": {"type": "Polygon", "coordinates": [[[74.24453922407646, 16.70700426364983], [74.24434038788755, 16.70700426364983], [74.24434038788755, 16.70678915353073], [74.24455549800666, 16.706805427460925], [74.24453922407646, 16.70700426364983]]]}, "properties": {"survey_no": "P-0142", "landholder": "Sunita More", "area": 4246.6, "classification": "Residential", "khasra_no": "KH-0142"}}, {"type": "Feature", "geometry": {"type": "Polygon", "coordinates": [[[74.24869759510598, 16.71262152976007], [74.24916554390845, 16.71262152976007], [74.24916554390845, 16.713075133151335], [74.24871194051718, 16.713089478562534], [74.24869759510598, 16.71262152976007]]]}, "properties": {"survey_no": "P-0143", "landholder": "Nirmala Deshmukh", "area": 4657.1, "classification": "Commercial", "khasra_no": "KH-0143"}}, {"type": "Feature", "geometry": {"type": "Polygon", "coordinates": [[[74.24758216500723, 16.709242392517794], [74.24732327848152, 16.709242392517794], [74.24732327848152, 16.70895761923538], [74.24760805176395, 16.708983505992098], [74.24758216500723, 16.709242392517794]]]}, "properties": {"survey_no": "P-0144", "landholder": "Lata Gaikwad", "area": 4423.4, "classification": "Vacant", "khasra_no": "KH-0144"}}, {"type": "Feature", "geometry": {"type": "Polygon", "coordinates": [[[74.25198487724433, 16.710688656396105], [74.25191439679013, 16.710688656396105], [74.25191439679013, 16.71059023198613], [74.25201282120011, 16.71061817594191], [74.25198487724433, 16.710688656396105]]]}, "properties": {"survey_no": "P-0145", "landholder": "Lata Patil", "area": 4713.8, "classification": "Institutional", "khasra_no": "KH-0145"}}, {"type": "Feature", "geometry": {"type": "Polygon", "coordinates": [[[74.24941540887099, 16.708838266646183], [74.2499642888328, 16.708838266646183], [74.2499642888328, 16.70938056010537], [74.24942199537362, 16.709387146608012], [74.24941540887099, 16.708838266646183]]]}, "properties": {"survey_no": "P-0146", "landholder": "Sita Shinde", "area": 4245.4, "classification": "Institutional", "khasra_no": "KH-0146"}}, {"type": "Feature", "geometry": {"type": "Polygon", "coordinates": [[[74.24712742159416, 16.71110913380199], [74.24768965216933, 16.71110913380199], [74.24768965216933, 16.711646002237494], [74.24715278373384, 16.71167136437717], [74.24712742159416, 16.71110913380199]]]}, "properties": {"survey_no": "P-0147", "landholder": "Sunita Shinde", "area": 4710.2, "classification": "Mixed Use", "khasra_no": "KH-0147"}}, {"type": "Feature", "geometry": {"type": "Polygon", "coordinates": [[[74.25388025722496, 16.70959278506012], [74.25441274573299, 16.70959278506012], [74.25441274573299, 16.710092114761444], [74.25391341603166, 16.71012527356814], [74.25388025722496, 16.70959278506012]]]}, "properties": {"survey_no": "P-0148", "landholder": "Prakash Pawar", "area": 4499.3, "classification": "Mixed Use", "khasra_no": "KH-0148"}}, {"type": "Feature", "geometry": {"type": "Polygon", "coordinates": [[[74.25353963289551, 16.70849901038528], [74.25331519020395, 16.70849901038528], [74.25331519020395, 16.708252542430753], [74.25356165815847, 16.70827456769371], [74.25353963289551, 16.70849901038528]]]}, "properties": {"survey_no": "P-0149", "landholder": "Kavita Joshi", "area": 4776.1, "classification": "Vacant", "khasra_no": "KH-0149"}}, {"type": "Feature", "geometry": {"type": "Polygon", "coordinates": [[[74.24490737753275, 16.712615850397], [74.24544795837062, 16.712615850397], [74.24544795837062, 16.71311976214], [74.24494404662761, 16.713156431234854], [74.24490737753275, 16.712615850397]]]}, "properties": {"survey_no": "P-0150", "landholder": "Rekha Joshi", "area": 4376.7, "classification": "Institutional", "khasra_no": "KH-0150"}}, {"type": "Feature", "geometry": {"type": "Polygon", "coordinates": [[[74.24789078235756, 16.712620540426943], [74.24840745086077, 16.712620540426943], [74.24840745086077, 16.713108515528567], [74.24791947575915, 16.713137208930164], [74.24789078235756, 16.712620540426943]]]}, "properties": {"survey_no": "P-0151", "landholder": "Shobha Patil", "area": 4426.4, "classification": "Residential", "khasra_no": "KH-0151"}}, {"type": "Feature", "geometry": {"type": "Polygon", "coordinates": [[[74.25049139608659, 16.7106778097436], [74.25034159298693, 16.7106778097436], [74.25034159298693, 16.710498440461404], [74.25052096226914, 16.710528006643944], [74.25049139608659, 16.7106778097436]]]}, "properties": {"survey_no": "P-0152", "landholder": "Suresh", "area": 4747.6, "classification": "Institutional", "khasra_no": "KH-0152"}}, {"type": "Feature", "geometry": {"type": "Polygon", "coordinates": [[[74.25097333197021, 16.711916603800564], [74.25140393718944, 16.711916603800564], [74.25140393718944, 16.712313130831493], [74.25100741015851, 16.71234720901979], [74.25097333197021, 16.711916603800564]]]}, "properties": {"survey_no": "P-0153", "landholder": "Sunita Jadhav", "area": 4703.4, "classification": "Mixed Use", "khasra_no": "KH-0153"}}, {"type": "Feature", "geometry": {"type": "Polygon", "coordinates": [[[74.25190367204021, 16.709096064753737], [74.25197178629536, 16.709096064753737], [74.25197178629536, 16.70914989509393], [74.25191795595516, 16.709164179008884], [74.25190367204021, 16.709096064753737]]]}, "properties": {"survey_no": "P-0154", "landholder": "Anil Kulkarni", "area": 4749.5, "classification": "Mixed Use", "khasra_no": "KH-0154"}}, {"type": "Feature", "geometry": {"type": "Polygon", "coordinates": [[[74.24602928611338, 16.706954469774164], [74.2458600041936, 16.706954469774164], [74.2458600041936, 16.70677023547246], [74.24604423849529, 16.706785187854372], [74.24602928611338, 16.706954469774164]]]}, "properties": {"survey_no": "P-0155", "landholder": "Kavita Gaikwad", "area": 4761.5, "classification": "Vacant", "khasra_no": "KH-0155"}}, {"type": "Feature", "geometry": {"type": "Polygon", "coordinates": [[[74.24823048408334, 16.71067867842251], [74.24812989172658, 16.71067867842251], [74.24812989172658, 16.710557026575238], [74.24825154357386, 16.710578086065762], [74.24823048408334, 16.71067867842251]]]}, "properties": {"survey_no": "P-0156", "landholder": "Anil Kulkarni", "area": 4386.3, "classification": "Residential", "khasra_no": "KH-0156"}}, {"type": "Feature", "geometry": {"type": "Polygon", "coordinates": [[[74.248097033557, 16.70978721258306], [74.2482263946285, 16.70978721258306], [74.2482263946285, 16.709908092688526], [74.24810551452303, 16.709916573654564], [74.248097033557, 16.70978721258306]]]}, "properties": {"survey_no": "P-0157", "landholder": "Vijay Deshmukh", "area": 4562.4, "classification": "Institutional", "khasra_no": "KH-0157"}}, {"type": "Feature", "geometry": {"type": "Polygon", "coordinates": [[[74.2539925134027, 16.714161176440637], [74.25438181045006, 16.714161176440637], [74.25438181045006, 16.714538886562167], [74.25400410032853, 16.714550473487996], [74.2539925134027, 16.714161176440637]]]}, "properties": {"survey_no": "P-0158", "landholder": "ANITA PATIL", "area": 4370.1, "classification": "Vacant", "khasra_no": "KH-0158"}}, {"type": "Feature", "geometry": {"type": "Polygon", "coordinates": [[[74.25326174572777, 16.710482456746874], [74.2535998011249, 16.710482456746874], [74.2535998011249, 16.71078738681208], [74.2532948710597, 16.710820512144], [74.25326174572777, 16.710482456746874]]]}, "properties": {"survey_no": "P-0159", "landholder": "Sunil Chavan", "area": 4370.4, "classification": "Residential", "khasra_no": "KH-0159"}}, {"type": "Feature", "geometry": {"type": "Polygon", "coordinates": [[[74.24741681409826, 16.713620786106844], [74.2474364179946, 16.713620786106844], [74.2474364179946, 16.713628824276007], [74.24742837982545, 16.713640390003203], [74.24741681409826, 16.713620786106844]]]}, "properties": {"survey_no": "P-0160", "landholder": "Ganesh Joshi", "area": 4471.6, "classification": "Commercial", "khasra_no": "KH-0160"}}, {"type": "Feature", "geometry": {"type": "Polygon", "coordinates": [[[74.25275235348698, 16.706952495055766], [74.25260645447473, 16.706952495055766], [74.25260645447473, 16.70677998983246], [74.25277895969805, 16.706806596043517], [74.25275235348698, 16.706952495055766]]]}, "properties": {"survey_no": "P-0161", "landholder": "Anil Chaavan", "area": 4401.9, "classification": "Residential", "khasra_no": "KH-0161"}}, {"type": "Feature", "geometry": {"type": "Polygon", "coordinates": [[[74.25036873808155, 16.713576429832315], [74.25046875392206, 16.713576429832315], [74.25046875392206, 16.713664810376773], [74.25038037337761, 16.713676445672842], [74.25036873808155, 16.713576429832315]]]}, "properties": {"survey_no": "P-0162", "landholder": "Rekha Kulkarni", "area": 4524.8, "classification": "Institutional", "khasra_no": "KH-0162"}}, {"type": "Feature", "geometry": {"type": "Polygon", "coordinates": [[[74.2442036237029, 16.71186724674744], [74.2446774745827, 16.71186724674744], [74.2446774745827, 16.71233827187948], [74.24420644945066, 16.71234109762724], [74.2442036237029, 16.71186724674744]]]}, "properties": {"survey_no": "P-0163", "landholder": "Rekha Kadam", "area": 4975.7, "classification": "Commercial", "khasra_no": "KH-0163"}}, {"type": "Feature", "geometry": {"type": "Polygon", "coordinates": [[[74.25114960848943, 16.709111903084757], [74.25121136188139, 16.709111903084757], [74.25121136188139, 16.70916045864339], [74.25116280632278, 16.709173656476736], [74.25114960848943, 16.709111903084757]]]}, "properties": {"survey_no": "P-0164", "landholder": "Shobha Pawar", "area": 4270.0, "classification": "Mixed Use", "khasra_no": "KH-0164"}}, {"type": "Feature", "geometry": {"type": "Polygon", "coordinates": [[[74.25388275962241, 16.70885300321863], [74.25447583917995, 16.70885300321863], [74.25447583917995, 16.709439023796218], [74.25388981860236, 16.709446082776157], [74.25388275962241, 16.70885300321863]]]}, "properties": {"survey_no": "P-0165", "landholder": "Prakash Bhosale", "area": 4585.0, "classification": "Vacant", "khasra_no": "KH-0165"}}, {"type": "Feature", "geometry": {"type": "Polygon", "coordinates": [[[74.25417987388013, 16.706907888928303], [74.25417301434625, 16.706907888928303], [74.25417301434625, 16.706878161691673], [74.25420274158287, 16.70690102939441], [74.25417987388013, 16.706907888928303]]]}, "properties": {"survey_no": "P-0166", "landholder": "Ashok Kadam", "area": 4598.5, "classification": "Residential", "khasra_no": "KH-0166"}}, {"type": "Feature", "geometry": {"type": "Polygon", "coordinates": [[[74.24802932815216, 16.713495481144854], [74.24834448944338, 16.713495481144854], [74.24834448944338, 16.713795944011657], [74.24804402657657, 16.71381064243607], [74.24802932815216, 16.713495481144854]]]}, "properties": {"survey_no": "P-0167", "landholder": "Shobha Deshmukh", "area": 4743.5, "classification": "Mixed Use", "khasra_no": "KH-0167"}}, {"type": "Feature", "geometry": {"type": "Polygon", "coordinates": [[[74.24870556295281, 16.709683246793595], [74.24914278955772, 16.709683246793595], [74.24914278955772, 16.710111978034263], [74.24871405831705, 16.710120473398508], [74.24870556295281, 16.709683246793595]]]}, "properties": {"survey_no": "P-0168", "landholder": "Nirmaala More", "area": 4391.3, "classification": "Mixed Use", "khasra_no": "KH-0168"}}, {"type": "Feature", "geometry": {"type": "Polygon", "coordinates": [[[74.25119593989734, 16.70837926496718], [74.25120237882057, 16.70837926496718], [74.25120237882057, 16.70835865952799], [74.25122298425975, 16.708385703890407], [74.25119593989734, 16.70837926496718]]]}, "properties": {"survey_no": "P-0169", "landholder": "Shobha Deshmukh", "area": 4321.1, "classification": "Vacant", "khasra_no": "KH-0169"}}, {"type": "Feature", "geometry": {"type": "Polygon", "coordinates": [[[74.24420153244291, 16.7134080056888], [74.2446569178843, 16.7134080056888], [74.2446569178843, 16.713846868727572], [74.24421805484555, 16.713863391130204], [74.24420153244291, 16.7134080056888]]]}, "properties": {"survey_no": "P-0170", "landholder": "Priya More", "area": 4657.7, "classification": "Commercial", "khasra_no": "KH-0170"}}, {"type": "Feature", "geometry": {"type": "Polygon", "coordinates": [[[74.24751363614766, 16.706196228713395], [74.24732886055956, 16.706196228713395], [74.24732886055956, 16.705975962627953], [74.24754912664503, 16.706011453125317], [74.24751363614766, 16.706196228713395]]]}, "properties": {"survey_no": "P-0171", "landholder": "Kavita Shinde", "area": 4429.8, "classification": "Residential", "khasra_no": "KH-0171"}}, {"type": "Feature", "geometry": {"type": "Polygon", "coordinates": [[[74.24566937279977, 16.711134788881832], [74.24617445937712, 16.711134788881832], [74.24617445937712, 16.71163967853926], [74.24566956971971, 16.7116398754592], [74.24566937279977, 16.711134788881832]]]}, "properties": {"survey_no": "P-0172", "landholder": "Suresh Deshmukh", "area": 4216.3, "classification": "Residential", "khasra_no": "KH-0172"}}, {"type": "Feature", "geometry": {"type": "Polygon", "coordinates": [[[74.24434284044652, 16.714287086377066], [74.24452299414651, 16.714287086377066], [74.24452299414651, 16.714445675797393], [74.24436440472618, 16.71446724007705], [74.24434284044652, 16.714287086377066]]]}, "properties": {"survey_no": "P-0173", "landholder": "Priya Chavan", "area": 4639.8, "classification": "Mixed Use", "khasra_no": "KH-0173"}}, {"type": "Feature", "geometry": {"type": "Polygon", "coordinates": [[[74.25404893559018, 16.707476494737914], [74.25433074240081, 16.707476494737914], [74.25433074240081, 16.707744910528167], [74.25406232661055, 16.707758301548537], [74.25404893559018, 16.707476494737914]]]}, "properties": {"survey_no": "P-0174", "landholder": "Deepak More", "area": 4374.5, "classification": "Vacant", "khasra_no": "KH-0174"}}, {"type": "Feature", "geometry": {"type": "Polygon", "coordinates": [[[74.25344689223414, 16.71440674645451], [74.2533783208744, 16.71440674645451], [74.2533783208744, 16.714336532359443], [74.25344853496948, 16.71433817509478], [74.25344689223414, 16.71440674645451]]]}, "properties": {"survey_no": "P-0175", "landholder": "Prakash", "area": 4468.5, "classification": "Institutional", "khasra_no": "KH-0175"}}, {"type": "Feature", "geometry": {"type": "Polygon", "coordinates": [[[74.2527910102878, 16.712955785558822], [74.25261583654233, 16.712955785558822], [74.25261583654233, 16.71276200419237], [74.2528096179088, 16.712780611813365], [74.2527910102878, 16.712955785558822]]]}, "properties": {"survey_no": "P-0176", "landholder": "Kavita Pawar", "area": 4506.2, "classification": "Institutional", "khasra_no": "KH-0176"}}, {"type": "Feature", "geometry": {"type": "Polygon", "coordinates": [[[74.24573187008288, 16.712668350763018], [74.24609748030576, 16.712668350763018], [74.24609748030576, 16.713022874487812], [74.24574295658098, 16.713033960985914], [74.24573187008288, 16.712668350763018]]]}, "properties": {"survey_no": "P-0177", "landholder": "Anil Chavan", "area": 4621.2, "classification": "Vacant", "khasra_no": "KH-0177"}}, {"type": "Feature", "geometry": {"type": "Polygon", "coordinates": [[[74.24441494640058, 16.712838679309886], [74.2444711851165, 16.712838679309886], [74.2444711851165, 16.712869440127996], [74.24444042429838, 16.71289491802579], [74.24441494640058, 16.712838679309886]]]}, "properties": {"survey_no": "P-0178", "landholder": "Rekha Bhosale", "area": 5030.7, "classification": "Institutional", "khasra_no": "KH-0178"}}, {"type": "Feature", "geometry": {"type": "Polygon", "coordinates": [[[74.24680275565649, 16.714479291390877], [74.24657881448015, 16.714479291390877], [74.24657881448015, 16.714233828147847], [74.24682427772318, 16.714255350214536], [74.24680275565649, 16.714479291390877]]]}, "properties": {"survey_no": "P-0179", "landholder": "Rekha Chavan", "area": 4546.6, "classification": "Vacant", "khasra_no": "KH-0179"}}, {"type": "Feature", "geometry": {"type": "Polygon", "coordinates": [[[74.2532181955299, 16.711913269322405], [74.25365508214702, 16.711913269322405], [74.25365508214702, 16.712312707357892], [74.25325564411153, 16.712350155939525], [74.2532181955299, 16.711913269322405]]]}, "properties": {"survey_no": "P-0180", "landholder": "Anita Kulkarni", "area": 4301.7, "classification": "Commercial", "khasra_no": "KH-0180"}}, {"type": "Feature", "geometry": {"type": "Polygon", "coordinates": [[[74.2466250588356, 16.707577457013493], [74.2467671046105, 16.707577457013493], [74.2467671046105, 16.70769280994699], [74.246651751677, 16.70771950278839], [74.2466250588356, 16.707577457013493]]]}, "properties": {"survey_no": "P-0181", "landholder": "Anil Gaikwad", "area": 5014.6, "classification": "Mixed Use", "khasra_no": "KH-0181"}}, {"type": "Feature", "geometry": {"type": "Polygon", "coordinates": [[[74.25178789189796, 16.712002188007254], [74.25205954791525, 16.712002188007254], [74.25205954791525, 16.712258439207538], [74.25180329671498, 16.712273844024562], [74.25178789189796, 16.712002188007254]]]}, "properties": {"survey_no": "P-0182", "landholder": "Anita Deshmukh", "area": 4625.5, "classification": "Vacant", "khasra_no": "KH-0182"}}, {"type": "Feature", "geometry": {"type": "Polygon", "coordinates": [[[74.24974727018918, 16.706943145292925], [74.24955762914531, 16.706943145292925], [74.24955762914531, 16.70674776616907], [74.24975300826918, 16.706753504249075], [74.24974727018918, 16.706943145292925]]]}, "properties": {"survey_no": "P-0183", "landholder": "Anita Gaikwad", "area": 4345.7, "classification": "Vacant", "khasra_no": "KH-0183"}}, {"type": "Feature", "geometry": {"type": "Polygon", "coordinates": [[[74.2525801832675, 16.71055021950208], [74.25273005304071, 16.71055021950208], [74.25273005304071, 16.71066477901324], [74.25261549352955, 16.710700089275285], [74.2525801832675, 16.71055021950208]]]}, "properties": {"survey_no": "P-0184", "landholder": "Ganesh Joshi", "area": 4371.7, "classification": "Vacant", "khasra_no": "KH-0184"}}, {"type": "Feature", "geometry": {"type": "Polygon", "coordinates": [[[74.24963355095484, 16.709836983926962], [74.24968583439446, 16.709836983926962], [74.24968583439446, 16.709858991767298], [74.24966382655413, 16.709889267366588], [74.24963355095484, 16.709836983926962]]]}, "properties": {"survey_no": "P-0185", "landholder": "Nirmala Bhosale", "area": 4492.8, "classification": "Residential", "khasra_no": "KH-0185"}}, {"type": "Feature", "geometry": {"type": "Polygon", "coordinates": [[[74.25088513408467, 16.705842287041776], [74.2514195685444, 16.705842287041776], [74.2514195685444, 16.70635986165108], [74.25090199393512, 16.70637672150153], [74.25088513408467, 16.705842287041776]]]}, "properties": {"survey_no": "P-0186", "landholder": "Rekha Chavan Sr.", "area": 4307.0, "classification": "Commercial", "khasra_no": "KH-0186"}}, {"type": "Feature", "geometry": {"type": "Polygon", "coordinates": [[[74.25333414507642, 16.70978510298428], [74.25351570608858, 16.70978510298428], [74.25351570608858, 16.709955093728347], [74.2533457153445, 16.709966663996425], [74.25333414507642, 16.70978510298428]]]}, "properties": {"survey_no": "P-0187", "landholder": "Meena Pawar", "area": 4159.2, "classification": "Vacant", "khasra_no": "KH-0187"}}, {"type": "Feature", "geometry": {"type": "Polygon", "coordinates": [[[74.25352293648476, 16.71297075556271], [74.25335872632694, 16.71297075556271], [74.25335872632694, 16.712792822754167], [74.25353665913548, 16.712806545404888], [74.25352293648476, 16.71297075556271]]]}, "properties": {"survey_no": "P-0188", "landholder": "Lata More", "area": 4519.5, "classification": "Residential", "khasra_no": "KH-0188"}}, {"type": "Feature", "geometry": {"type": "Polygon", "coordinates": [[[74.2489940406668, 16.707658048870766], [74.24890863316125, 16.707658048870766], [74.24890863316125, 16.707544330171263], [74.24902235186076, 16.707572641365225], [74.2489940406668, 16.707658048870766]]]}, "properties": {"survey_no": "P-0189", "landholder": "Shobha Gaikwad", "area": 4381.1, "classification": "Vacant", "khasra_no": "KH-0189"}}, {"type": "Feature", "geometry": {"type": "Polygon", "coordinates": [[[74.24518287611939, 16.710630647772806], [74.24514748869487, 16.710630647772806], [74.24514748869487, 16.710564199496318], [74.24521393697135, 16.710595260348292], [74.24518287611939, 16.710630647772806]]]}, "properties": {"survey_no": "P-0190", "landholder": "Suresh Pawar", "area": 4465.2, "classification": "Vacant", "khasra_no": "KH-0190"}}, {"type": "Feature", "geometry": {"type": "Polygon", "coordinates": [[[74.24971696485991, 16.71292887651765], [74.24964235126761, 16.71292887651765], [74.24964235126761, 16.712827210421153], [74.24974401736412, 16.712854262925365], [74.24971696485991, 16.71292887651765]]]}, "properties": {"survey_no": "P-0191", "landholder": "Manoj Shinde", "area": 4507.8, "classification": "Residential", "khasra_no": "KH-0191"}}, {"type": "Feature", "geometry": {"type": "Polygon", "coordinates": [[[74.24665606774666, 16.70833346145478], [74.24673573749274, 16.70833346145478], [74.24673573749274, 16.70838585362217], [74.24668334532537, 16.708413131200878], [74.24665606774666, 16.70833346145478]]]}, "properties": {"survey_no": "P-0192", "landholder": "Nirmala Deshmukh", "area": 4723.8, "classification": "Institutional", "khasra_no": "KH-0192"}}, {"type": "Feature", "geometry": {"type": "Polygon", "coordinates": [[[74.2481960148512, 16.708393014598595], [74.248177182746, 16.708393014598595], [74.248177182746, 16.708351304621647], [74.24821889272296, 16.7083741824934], [74.2481960148512, 16.708393014598595]]]}, "properties": {"survey_no": "P-0193", "landholder": "Prakash More", "area": 4278.7, "classification": "Mixed Use", "khasra_no": "KH-0193"}}, {"type": "Feature", "geometry": {"type": "Polygon", "coordinates": [[[74.24907834877361, 16.7070201748894], [74.24882620429003, 16.7070201748894], [74.24882620429003, 16.706737857312042], [74.24910852186738, 16.706768030405815], [74.24907834877361, 16.7070201748894]]]}, "properties": {"survey_no": "P-0194", "landholder": "Ganesh Shinde", "area": 4452.2, "classification": "Residential", "khasra_no": "KH-0194"}}, {"type": "Feature", "geometry": {"type": "Polygon", "coordinates": [[[74.25395459406931, 16.711140788329455], [74.25437504116549, 16.711140788329455], [74.25437504116549, 16.711543520279115], [74.25397230921583, 16.711561235425627], [74.25395459406931, 16.711140788329455]]]}, "properties": {"survey_no": "P-0195", "landholder": "Priya Joshi", "area": 4783.8, "classification": "Residential", "khasra_no": "KH-0195"}}, {"type": "Feature", "geometry": {"type": "Polygon", "coordinates": [[[74.25248551907575, 16.709678820280985], [74.25290652089645, 16.709678820280985], [74.25290652089645, 16.71009842341744], [74.25248691776, 16.710099822101686], [74.25248551907575, 16.709678820280985]]]}, "properties": {"survey_no": "P-0196", "landholder": "Lata Pawar", "area": 4838.2, "classification": "Mixed Use", "khasra_no": "KH-0196"}}, {"type": "Feature", "geometry": {"type": "Polygon", "coordinates": [[[74.25283169321797, 16.712239420948908], [74.25257699871844, 16.712239420948908], [74.25257699871844, 16.71196435268124], [74.25285206698611, 16.711984726449373], [74.25283169321797, 16.712239420948908]]]}, "properties": {"survey_no": "P-0197", "landholder": "Lata Patil", "area": 4677.3, "classification": "Residential", "khasra_no": "KH-0197"}}, {"type": "Feature", "geometry": {"type": "Polygon", "coordinates": [[[74.24972214602788, 16.714381306932445], [74.24967059155264, 16.714381306932445], [74.24967059155264, 16.714296113353647], [74.24975578513144, 16.714329752457214], [74.24972214602788, 16.714381306932445]]]}, "properties": {"survey_no": "P-0198", "landholder": "Meena Patil", "area": 4793.6, "classification": "Residential", "khasra_no": "KH-0198"}}, {"type": "Feature", "geometry": {"type": "Polygon", "coordinates": [[[74.24962788497508, 16.712115723630607], [74.24966956994473, 16.712115723630607], [74.24966956994473, 16.712152975168447], [74.24963231840688, 16.71215740860024], [74.24962788497508, 16.712115723630607]]]}, "properties": {"survey_no": "P-0199", "landholder": "Ganesh Pawar", "area": 4563.1, "classification": "Mixed Use", "khasra_no": "KH-0199"}}, {"type": "Feature", "geometry": {"type": "Polygon", "coordinates": [[[74.25348660932349, 16.706190433956845], [74.2533948138309, 16.706190433956845], [74.2533948138309, 16.706073125642245], [74.25351212214548, 16.70609863846424], [74.25348660932349, 16.706190433956845]]]}, "properties": {"survey_no": "P-0200", "landholder": "Shobha Pawar", "area": 4573.3, "classification": "Institutional", "khasra_no": "KH-0200"}}, {"type": "Feature", "geometry": {"type": "Polygon", "coordinates": [[[74.24891546253508, 16.711379147935045], [74.24893319682094, 16.711379147935045], [74.24893319682094, 16.711363173870208], [74.24894917088577, 16.711396882220896], [74.24891546253508, 16.711379147935045]]]}, "properties": {"survey_no": "P-0201", "landholder": "MANOJ MORE", "area": 4549.6, "classification": "Commercial", "khasra_no": "KH-0201"}}, {"type": "Feature", "geometry": {"type": "Polygon", "coordinates": [[[74.25052473101931, 16.712202103095425], [74.25031433301298, 16.712202103095425], [74.25031433301298, 16.71196286863675], [74.25055356747166, 16.711991705089098], [74.25052473101931, 16.712202103095425]]]}, "properties": {"survey_no": "P-0202", "landholder": "Anil More", "area": 4892.2, "classification": "Residential", "khasra_no": "KH-0202"}}, {"type": "Feature", "geometry": {"type": "Polygon", "coordinates": [[[74.24752516636963, 16.71218152856314], [74.2473680680201, 16.71218152856314], [74.2473680680201, 16.712019981469844], [74.2475296151134, 16.712024430213617], [74.24752516636963, 16.71218152856314]]]}, "properties": {"survey_no": "P-0203", "landholder": "Sunil Jadhav", "area": 4800.0, "classification": "Institutional", "khasra_no": "KH-0203"}}, {"type": "Feature", "geometry": {"type": "Polygon", "coordinates": [[[74.24447577671748, 16.711469773074334], [74.2443180893603, 16.711469773074334], [74.2443180893603, 16.711287328303953], [74.2445005341307, 16.71131208571717], [74.24447577671748, 16.711469773074334]]]}, "properties": {"survey_no": "P-0204", "landholder": "Priya Joshi", "area": 4745.0, "classification": "Institutional", "khasra_no": "KH-0204"}}, {"type": "Feature", "geometry": {"type": "Polygon", "coordinates": [[[74.24517788170344, 16.707666037386222], [74.24512893456557, 16.707666037386222], [74.24512893456557, 16.707579834619303], [74.2452151373325, 16.70761709024835], [74.24517788170344, 16.707666037386222]]]}, "properties": {"survey_no": "P-0205", "landholder": "Sita Joshi", "area": 4368.8, "classification": "Residential", "khasra_no": "KH-0205"}}, {"type": "Feature", "geometry": {"type": "Polygon", "coordinates": [[[74.24451584198447, 16.710727769537787], [74.24432542208541, 16.710727769537787], [74.24432542208541, 16.710518763859195], [74.244534427764, 16.710537349638727], [74.24451584198447, 16.710727769537787]]]}, "properties": {"survey_no": "P-0206", "landholder": "Nirmala Shinde", "area": 4809.5, "classification": "Mixed Use", "khasra_no": "KH-0206"}}, {"type": "Feature", "geometry": {"type": "Polygon", "coordinates": [[[74.25390254194197, 16.71185491324894], [74.254411858466, 16.71185491324894], [74.254411858466, 16.712339978303554], [74.2539267934114, 16.712364229772987], [74.25390254194197, 16.71185491324894]]]}, "properties": {"survey_no": "P-0207", "landholder": "Sita More", "area": 4866.1, "classification": "Commercial", "khasra_no": "KH-0207"}}, {"type": "Feature", "geometry": {"type": "Polygon", "coordinates": [[[74.24496032341757, 16.714159999176115], [74.24541930208972, 16.714159999176115], [74.24541930208972, 16.714590690445387], [74.24498861082043, 16.714618977848247], [74.24496032341757, 16.714159999176115]]]}, "properties": {"survey_no": "P-0208", "landholder": "Sunita Joshi", "area": 4961.3, "classification": "Mixed Use", "khasra_no": "KH-0208"}}, {"type": "Feature", "geometry": {"type": "Polygon", "coordinates": [[[74.2488626538893, 16.71050969127579], [74.24904510432552, 16.71050969127579], [74.24904510432552, 16.710674535821173], [74.24888025978014, 16.710692141712], [74.2488626538893, 16.71050969127579]]]}, "properties": {"survey_no": "P-0209", "landholder": "Anita Gaikwad", "area": 4818.6, "classification": "Mixed Use", "khasra_no": "KH-0209"}}, {"type": "Feature", "geometry": {"type": "Polygon", "coordinates": [[[74.24739001319021, 16.712865664381493], [74.2474308660207, 16.712865664381493], [74.2474308660207, 16.712875707514247], [74.24742082288795, 16.712906517211984], [74.24739001319021, 16.712865664381493]]]}, "properties": {"survey_no": "P-0210", "landholder": "Vijay Pawar", "area": 4915.3, "classification": "Commercial", "khasra_no": "KH-0210"}}, {"type": "Feature", "geometry": {"type": "Polygon", "coordinates": [[[74.24672450516262, 16.709898696012953], [74.24666660020341, 16.709898696012953], [74.24666660020341, 16.709832112301534], [74.24673318391483, 16.709840791053736], [74.24672450516262, 16.709898696012953]]]}, "properties": {"survey_no": "P-0211", "landholder": "Deepak Patil Sr.", "area": 4678.3, "classification": "Residential", "khasra_no": "KH-0211"}}, {"type": "Feature", "geometry": {"type": "Polygon", "coordinates": [[[74.2471018173799, 16.70806709799447], [74.24772115150857, 16.70806709799447], [74.24772115150857, 16.708649776647594], [74.24713847285545, 16.70868643212315], [74.2471018173799, 16.70806709799447]]]}, "properties": {"survey_no": "P-0212", "landholder": "Shobha Jadhav", "area": 4207.4, "classification": "Institutional", "khasra_no": "KH-0212"}}, {"type": "Feature", "geometry": {"type": "Polygon", "coordinates": [[[74.25342704287463, 16.711388690757584], [74.2534414054117, 16.711388690757584], [74.2534414054117, 16.7113708700762], [74.2534592260931, 16.71140305329466], [74.25342704287463, 16.711388690757584]]]}, "properties": {"survey_no": "P-0213", "landholder": "Prakash Bhosale Sr.", "area": 4842.0, "classification": "Commercial", "khasra_no": "KH-0213"}}, {"type": "Feature", "geometry": {"type": "Polygon", "coordinates": [[[74.25103750216239, 16.709737711531044], [74.25136935860709, 16.709737711531044], [74.25136935860709, 16.710036013305295], [74.25107105683284, 16.71006956797575], [74.25103750216239, 16.709737711531044]]]}, "properties": {"survey_no": "P-0214", "landholder": "Meena Kulkarni", "area": 4838.6, "classification": "Institutional", "khasra_no": "KH-0214"}}, {"type": "Feature", "geometry": {"type": "Polygon", "coordinates": [[[74.2518893054205, 16.70978555354563], [74.25201214654285, 16.70978555354563], [74.25201214654285, 16.70989660149199], [74.2519010985965, 16.709908394667988], [74.2518893054205, 16.70978555354563]]]}, "properties": {"survey_no": "P-0215", "landholder": "Ganesh Patil", "area": 4796.2, "classification": "Residential", "khasra_no": "KH-0215"}}, {"type": "Feature", "geometry": {"type": "Polygon", "coordinates": [[[74.25013604403085, 16.711110019854633], [74.25069545910894, 16.711110019854633], [74.25069545910894, 16.71166577171569], [74.25013970724788, 16.711669434932716], [74.25013604403085, 16.711110019854633]]]}, "properties": {"survey_no": "P-0216", "landholder": "Sunil Kadam Sr.", "area": 4328.7, "classification": "Commercial", "khasra_no": "KH-0216"}}, {"type": "Feature", "geometry": {"type": "Polygon", "coordinates": [[[74.25114100433319, 16.70762550300059], [74.25115927896091, 16.70762550300059], [74.25115927896091, 16.707620579532428], [74.25116420242908, 16.707643777628313], [74.25114100433319, 16.70762550300059]]]}, "properties": {"survey_no": "P-0217", "landholder": "Prakash Jadhav", "area": 4811.3, "classification": "Commercial", "khasra_no": "KH-0217"}}, {"type": "Feature", "geometry": {"type": "Polygon", "coordinates": [[[74.2518159755123, 16.714266795957425], [74.25198477874874, 16.714266795957425], [74.25198477874874, 16.71441481595115], [74.251836758755, 16.714435599193855], [74.2518159755123, 16.714266795957425]]]}, "properties": {"survey_no": "P-0218", "landholder": "Kavita Deshmukh", "area": 4628.9, "classification": "Residential", "khasra_no": "KH-0218"}}, {"type": "Feature", "geometry": {"type": "Polygon", "coordinates": [[[74.25167206546307, 16.705860545902453], [74.25217710941001, 16.705860545902453], [74.25217710941001, 16.70636321733125], [74.25167443798121, 16.706365589849387], [74.25167206546307, 16.705860545902453]]]}, "properties": {"survey_no": "P-0219", "landholder": "Anita Joshi", "area": 4558.2, "classification": "Vacant", "khasra_no": "KH-0219"}}, {"type": "Feature", "geometry": {"type": "Polygon", "coordinates": [[[74.24903764132875, 16.708476568887722], [74.24879083848991, 16.708476568887722], [74.24879083848991, 16.70819424308929], [74.24907316428833, 16.708229766048866], [74.24903764132875, 16.708476568887722]]]}, "properties": {"survey_no": "P-0220", "landholder": "Prakash Pawar", "area": 4262.7, "classification": "Institutional", "khasra_no": "KH-0220"}}, {"type": "Feature", "geometry": {"type": "Polygon", "coordinates": [[[74.2487906518389, 16.7119636540778], [74.24906701022213, 16.7119636540778], [74.24906701022213, 16.71221780394725], [74.24881286035269, 16.712240012461034], [74.2487906518389, 16.7119636540778]]]}, "properties": {"survey_no": "P-0221", "landholder": "Sunita Bhosale", "area": 4521.2, "classification": "Commercial", "khasra_no": "KH-0221"}}, {"type": "Feature", "geometry": {"type": "Polygon", "coordinates": [[[74.24505211387799, 16.706744071908524], [74.24531388644677, 16.706744071908524], [74.24531388644677, 16.706996768683517], [74.24506118967177, 16.707005844477305], [74.24505211387799, 16.706744071908524]]]}, "properties": {"survey_no": "P-0222", "landholder": "Lata Kadam", "area": 4608.1, "classification": "Residential", "khasra_no": "KH-0222"}}, {"type": "Feature", "geometry": {"type": "Polygon", "coordinates": [[[74.25352126650394, 16.70921519004107], [74.25334531514011, 16.70921519004107], [74.25334531514011, 16.709036051854717], [74.25352445332646, 16.709039238677246], [74.25352126650394, 16.70921519004107]]]}, "properties": {"survey_no": "P-0223", "landholder": "Nirmala More", "area": 4810.6, "classification": "Residential", "khasra_no": "KH-0223"}}, {"type": "Feature", "geometry": {"type": "Polygon", "coordinates": [[[74.24595734372697, 16.709149563467413], [74.24591517600209, 16.709149563467413], [74.24591517600209, 16.709099107052438], [74.24596563241708, 16.709107395742546], [74.24595734372697, 16.709149563467413]]]}, "properties": {"survey_no": "P-0224", "landholder": "Ashok Chavan", "area": 4556.3, "classification": "Residential", "khasra_no": "KH-0224"}}, {"type": "Feature", "geometry": {"type": "Polygon", "coordinates": [[[74.25098276269432, 16.710447670612865], [74.25133206138482, 16.710447670612865], [74.25133206138482, 16.7107788595784], [74.25100087241927, 16.710796969303356], [74.25098276269432, 16.710447670612865]]]}, "properties": {"survey_no": "P-0225", "landholder": "Lata Chavan", "area": 4654.5, "classification": "Residential", "khasra_no": "KH-0225"}}, {"type": "Feature", "geometry": {"type": "Polygon", "coordinates": [[[74.24806130691984, 16.705976212040053], [74.24830238591264, 16.705976212040053], [74.24830238591264, 16.706209891366523], [74.24806870658618, 16.706217291032864], [74.24806130691984, 16.705976212040053]]]}, "properties": {"survey_no": "P-0226", "landholder": "Prakash Joshi", "area": 4602.6, "classification": "Institutional", "khasra_no": "KH-0226"}}, {"type": "Feature", "geometry": {"type": "Polygon", "coordinates": [[[74.24806907203705, 16.711308222774456], [74.24825853645613, 16.711308222774456], [74.24825853645613, 16.71148311322125], [74.24808364600933, 16.711497687193532], [74.24806907203705, 16.711308222774456]]]}, "properties": {"survey_no": "P-0227", "landholder": "Rekha", "area": 4449.7, "classification": "Commercial", "khasra_no": "KH-0227"}}, {"type": "Feature", "geometry": {"type": "Polygon", "coordinates": [[[74.25250902719365, 16.70892840367224], [74.25286418519136, 16.70892840367224], [74.25286418519136, 16.709264405737354], [74.25252818312626, 16.70928356166996], [74.25250902719365, 16.70892840367224]]]}, "properties": {"survey_no": "P-0228", "landholder": "Shobha Bhosale", "area": 4617.7, "classification": "Residential", "khasra_no": "KH-0228"}}, {"type": "Feature", "geometry": {"type": "Polygon", "coordinates": [[[74.2475108246802, 16.71069605794509], [74.24738303798749, 16.71069605794509], [74.24738303798749, 16.71053257717922], [74.24754651875335, 16.710568271252363], [74.2475108246802, 16.71069605794509]]]}, "properties": {"survey_no": "P-0229", "landholder": "Meena More", "area": 4648.2, "classification": "Commercial", "khasra_no": "KH-0229"}}, {"type": "Feature", "geometry": {"type": "Polygon", "coordinates": [[[74.24944272888284, 16.710381199983043], [74.24987425232717, 16.710381199983043], [74.24987425232717, 16.710801898290743], [74.24945355401947, 16.710812723427374], [74.24944272888284, 16.710381199983043]]]}, "properties": {"survey_no": "P-0230", "landholder": "Prakash Jadhav", "area": 4695.8, "classification": "Commercial", "khasra_no": "KH-0230"}}, {"type": "Feature", "geometry": {"type": "Polygon", "coordinates": [[[74.25174758442878, 16.70674444445311], [74.25204740883389, 16.70674444445311], [74.25204740883389, 16.707017307099175], [74.25177454618783, 16.70704426885822], [74.25174758442878, 16.70674444445311]]]}, "properties": {"survey_no": "P-0231", "landholder": "Manoj Kulkarni", "area": 4519.9, "classification": "Mixed Use", "khasra_no": "KH-0231"}}, {"type": "Feature", "geometry": {"type": "Polygon", "coordinates": [[[74.25429149772127, 16.710773818856936], [74.25402693580537, 16.710773818856936], [74.25402693580537, 16.710478855589166], [74.25432189907315, 16.710509256941048], [74.25429149772127, 16.710773818856936]]]}, "properties": {"survey_no": "P-0232", "landholder": "Lata Patil", "area": 4654.9, "classification": "Institutional", "khasra_no": "KH-0232"}}, {"type": "Feature", "geometry": {"type": "Polygon", "coordinates": [[[74.25399300412174, 16.713467887352838], [74.25433171586747, 16.713467887352838], [74.25433171586747, 16.713796573733582], [74.25400302948673, 16.713806599098568], [74.25399300412174, 16.713467887352838]]]}, "properties": {"survey_no": "P-0233", "landholder": "Sita Bhosale", "area": 4824.6, "classification": "Mixed Use", "khasra_no": "KH-0233"}}, {"type": "Feature", "geometry": {"type": "Polygon", "coordinates": [[[74.24871496167803, 16.714192012972408], [74.24912216241202, 16.714192012972408], [74.24912216241202, 16.714593882270144], [74.24872029311427, 16.714599213706386], [74.24871496167803, 16.714192012972408]]]}, "properties": {"survey_no": "P-0234", "landholder": "Suresh Kadam", "area": 4720.3, "classification": "Commercial", "khasra_no": "KH-0234"}}, {"type": "Feature", "geometry": {"type": "Polygon", "coordinates": [[[74.24605930497005, 16.710755558064104], [74.24581436970729, 16.710755558064104], [74.24581436970729, 16.710478743817365], [74.24609118395404, 16.71051062280136], [74.24605930497005, 16.710755558064104]]]}, "properties": {"survey_no": "P-0235", "landholder": "Sunita Pawar", "area": 4907.5, "classification": "Vacant", "khasra_no": "KH-0235"}}, {"type": "Feature", "geometry": {"type": "Polygon", "coordinates": [[[74.25352563588207, 16.713707723804806], [74.25331914629425, 16.713707723804806], [74.25331914629425, 16.713464040283036], [74.25356282981602, 16.71350123421699], [74.25352563588207, 16.713707723804806]]]}, "properties": {"survey_no": "P-0236", "landholder": "Sita Patil", "area": 4652.9, "classification": "Residential", "khasra_no": "KH-0236"}}, {"type": "Feature", "geometry": {"type": "Polygon", "coordinates": [[[74.25265954630056, 16.70757511728062], [74.25270552621234, 16.70757511728062], [74.25270552621234, 16.707593872628753], [74.25268677086419, 16.707621097192384], [74.25265954630056, 16.70757511728062]]]}, "properties": {"survey_no": "P-0237", "landholder": "Anil Gaikwad", "area": 4714.2, "classification": "Residential", "khasra_no": "KH-0237"}}, {"type": "Feature", "geometry": {"type": "Polygon", "coordinates": [[[74.24576836602334, 16.713463358079974], [74.24606756050267, 16.713463358079974], [74.24606756050267, 16.713732051262177], [74.24579886732049, 16.713762552559317], [74.24576836602334, 16.713463358079974]]]}, "properties": {"survey_no": "P-0238", "landholder": "Priya Chavan", "area": 4963.6, "classification": "Residential", "khasra_no": "KH-0238"}}, {"type": "Feature", "geometry": {"type": "Polygon", "coordinates": [[[74.24641058373568, 16.710370356039405], [74.24695016513445, 16.710370356039405], [74.24695016513445, 16.710895536241576], [74.24642498493228, 16.710909937438178], [74.24641058373568, 16.710370356039405]]]}, "properties": {"survey_no": "P-0239", "landholder": "Suresh Chavan", "area": 5035.0, "classification": "Vacant", "khasra_no": "KH-0239"}}, {"type": "Feature", "geometry": {"type": "Polygon", "coordinates": [[[74.2457668686767, 16.71416626807092], [74.24613088083056, 16.71416626807092], [74.24613088083056, 16.71449448004313], [74.24580266885837, 16.714530280224803], [74.2457668686767, 16.71416626807092]]]}, "properties": {"survey_no": "P-0240", "landholder": "Lata Joshi Sr.", "area": 4503.1, "classification": "Vacant", "khasra_no": "KH-0240"}}, {"type": "Feature", "geometry": {"type": "Polygon", "coordinates": [[[74.25323400512215, 16.707432439079668], [74.25366983647747, 16.707432439079668], [74.25366983647747, 16.707853346371607], [74.25324892918555, 16.707868270435004], [74.25323400512215, 16.707432439079668]]]}, "properties": {"survey_no": "P-0241", "landholder": "Meena Jadhav", "area": 4547.2, "classification": "Residential", "khasra_no": "KH-0241"}}, {"type": "Feature", "geometry": {"type": "Polygon", "coordinates": [[[74.2451085707191, 16.706022278963868], [74.24527839649062, 16.706022278963868], [74.24527839649062, 16.70617199010392], [74.24512868535058, 16.7061921047354], [74.2451085707191, 16.706022278963868]]]}, "properties": {"survey_no": "P-0242", "landholder": "Anita More", "area": 4544.8, "classification": "Vacant", "khasra_no": "KH-0242"}}, {"type": "Feature", "geometry": {"type": "Polygon", "coordinates": [[[74.24514549833222, 16.709808835274668], [74.24522443121724, 16.709808835274668], [74.24522443121724, 16.70986309119617], [74.24517017529574, 16.70988776815969], [74.24514549833222, 16.709808835274668]]]}, "properties": {"survey_no": "P-0243", "landholder": "SITA JOSHI", "area": 4436.6, "classification": "Residential", "khasra_no": "KH-0243"}}, {"type": "Feature", "geometry": {"type": "Polygon", "coordinates": [[[74.24594703085035, 16.712159517366697], [74.24585063378835, 16.712159517366697], [74.24585063378835, 16.712036408182897], [74.24597374297215, 16.712063120304705], [74.24594703085035, 16.712159517366697]]]}, "properties": {"survey_no": "P-0244", "landholder": "Ganesh Kadam Sr.", "area": 4761.3, "classification": "Residential", "khasra_no": "KH-0244"}}, {"type": "Feature", "geometry": {"type": "Polygon", "coordinates": [[[74.2443012991454, 16.70901527283377], [74.24450671101478, 16.70901527283377], [74.24450671101478, 16.709185766200253], [74.2443362176483, 16.709220684703148], [74.2443012991454, 16.70901527283377]]]}, "properties": {"survey_no": "P-0245", "landholder": "Kavita Joshi", "area": 4909.4, "classification": "Vacant", "khasra_no": "KH-0245"}}, {"type": "Feature", "geometry": {"type": "Polygon", "coordinates": [[[74.25120886270378, 16.711435990805754], [74.25109546540777, 16.711435990805754], [74.25109546540777, 16.711297343795383], [74.25123411241816, 16.71132259350976], [74.25120886270378, 16.711435990805754]]]}, "properties": {"survey_no": "P-0246", "landholder": "Ashok Joshi", "area": 4292.1, "classification": "Institutional", "khasra_no": "KH-0246"}}, {"type": "Feature", "geometry": {"type": "Polygon", "coordinates": [[[74.2479974742618, 16.71416125921476], [74.2484091486676, 16.71416125921476], [74.2484091486676, 16.7145355166037], [74.24803489127865, 16.71457293362056], [74.2479974742618, 16.71416125921476]]]}, "properties": {"survey_no": "P-0247", "landholder": "Ramesh Pawar", "area": 4708.0, "classification": "Commercial", "khasra_no": "KH-0247"}}, {"type": "Feature", "geometry": {"type": "Polygon", "coordinates": [[[74.25014106711437, 16.70810856592805], [74.25067751299696, 16.70810856592805], [74.25067751299696, 16.708626560727755], [74.25015951819725, 16.708645011810635], [74.25014106711437, 16.70810856592805]]]}, "properties": {"survey_no": "P-0248", "landholder": "Ashok Patil", "area": 4194.6, "classification": "Institutional", "khasra_no": "KH-0248"}}, {"type": "Feature", "geometry": {"type": "Polygon", "coordinates": [[[74.24638977269065, 16.713347742961645], [74.24695242525476, 16.713347742961645], [74.24695242525476, 16.713874237340445], [74.24642593087594, 16.713910395525748], [74.24638977269065, 16.713347742961645]]]}, "properties": {"survey_no": "P-0249", "landholder": "Anil Bhosale", "area": 4298.5, "classification": "Residential", "khasra_no": "KH-0249"}}, {"type": "Feature", "geometry": {"type": "Polygon", "coordinates": [[[74.25242512439094, 16.714093418022983], [74.25294720219023, 16.714093418022983], [74.25294720219023, 16.714584506321465], [74.25245611389174, 16.71461549582226], [74.25242512439094, 16.714093418022983]]]}, "properties": {"survey_no": "P-0250", "landholder": "Anita", "area": 4784.2, "classification": "Commercial", "khasra_no": "KH-0250"}}, {"type": "Feature", "geometry": {"type": "Polygon", "coordinates": [[[74.24654630704435, 16.7127861532672], [74.24676046812037, 16.7127861532672], [74.24676046812037, 16.712999865958594], [74.24654675542898, 16.713000314343212], [74.24654630704435, 16.7127861532672]]]}, "properties": {"survey_no": "P-0251", "landholder": "Ramesh Chavan", "area": 4887.7, "classification": "Institutional", "khasra_no": "KH-0251"}}, {"type": "Feature", "geometry": {"type": "Polygon", "coordinates": [[[74.24643771756769, 16.70889226087527], [74.2469518051736, 16.70889226087527], [74.2469518051736, 16.709393915360252], [74.2464501506886, 16.709406348481174], [74.24643771756769, 16.70889226087527]]]}, "properties": {"survey_no": "P-0252", "landholder": "Anil Patil", "area": 4253.3, "classification": "Residential", "khasra_no": "KH-0252"}}, {"type": "Feature", "geometry": {"type": "Polygon", "coordinates": [[[74.25413414250184, 16.70836702551305], [74.25418575522876, 16.70836702551305], [74.25418575522876, 16.70838135996707], [74.25417142077474, 16.708418638239973], [74.25413414250184, 16.70836702551305]]]}, "properties": {"survey_no": "P-0253", "landholder": "Sunita Patil Sr.", "area": 4627.9, "classification": "Residential", "khasra_no": "KH-0253"}}, {"type": "Feature", "geometry": {"type": "Polygon", "coordinates": [[[74.25097527138152, 16.706682304971526], [74.25140815321224, 16.706682304971526], [74.25140815321224, 16.707112989631128], [74.25097746855266, 16.707115186802262], [74.25097527138152, 16.706682304971526]]]}, "properties": {"survey_no": "P-0254", "landholder": "Deepak Pawar", "area": 4986.9, "classification": "Institutional", "khasra_no": "KH-0254"}}, {"type": "Feature", "geometry": {"type": "Polygon", "coordinates": [[[74.24982916672727, 16.706241541116988], [74.2495624138836, 16.706241541116988], [74.2495624138836, 16.70594488612256], [74.24985906887804, 16.705974788273334], [74.24982916672727, 16.706241541116988]]]}, "properties": {"survey_no": "P-0255", "landholder": "Kavita Joshi", "area": 4587.1, "classification": "Commercial", "khasra_no": "KH-0255"}}, {"type": "Feature", "geometry": {"type": "Polygon", "coordinates": [[[74.25013374435608, 16.70583457322107], [74.25068251271692, 16.70583457322107], [74.25068251271692, 16.70636359976262], [74.25015348617536, 16.7063833415819], [74.25013374435608, 16.70583457322107]]]}, "properties": {"survey_no": "P-0256", "landholder": "Manoj Joshi", "area": 4210.7, "classification": "Institutional", "khasra_no": "KH-0256"}}, {"type": "Feature", "geometry": {"type": "Polygon", "coordinates": [[[74.25198010509249, 16.711429253777723], [74.25191317524353, 16.711429253777723], [74.25191317524353, 16.71132630297565], [74.25201612604562, 16.711362323928785], [74.25198010509249, 16.711429253777723]]]}, "properties": {"survey_no": "P-0257", "landholder": "Ashok Patil", "area": 4371.4, "classification": "Residential", "khasra_no": "KH-0257"}}, {"type": "Feature", "geometry": {"type": "Polygon", "coordinates": [[[74.25244097784409, 16.713415793755637], [74.25287006435151, 16.713415793755637], [74.25287006435151, 16.713833374391957], [74.25245248371519, 16.713844880263057], [74.25244097784409, 16.713415793755637]]]}, "properties": {"survey_no": "P-0258", "landholder": "Meena Kadam", "area": 4631.9, "classification": "Vacant", "khasra_no": "KH-0258"}}, {"type": "Feature", "geometry": {"type": "Polygon", "coordinates": [[[74.25027423576233, 16.706705235676854], [74.2505921066501, 16.706705235676854], [74.2505921066501, 16.706986991078722], [74.25031035124826, 16.70702310656464], [74.25027423576233, 16.706705235676854]]]}, "properties": {"survey_no": "P-0259", "landholder": "Manoj Kulkarni", "area": 4931.5, "classification": "Institutional", "khasra_no": "KH-0259"}}, {"type": "Feature", "geometry": {"type": "Polygon", "coordinates": [[[74.25410365993457, 16.712835619583533], [74.25421340999272, 16.712835619583533], [74.25421340999272, 16.712928446363478], [74.2541205832128, 16.712945369641695], [74.25410365993457, 16.712835619583533]]]}, "properties": {"survey_no": "P-0260", "landholder": "Anitaa Chavan", "area": 4711.0, "classification": "Residential", "khasra_no": "KH-0260"}}, {"type": "Feature", "geometry": {"type": "Polygon", "coordinates": [[[74.25343624520148, 16.706872906491014], [74.25343219101956, 16.706872906491014], [74.25343219101956, 16.70684607789812], [74.25345901961245, 16.706868852309082], [74.25343624520148, 16.706872906491014]]]}, "properties": {"survey_no": "P-0261", "landholder": "Anita", "area": 4421.0, "classification": "Mixed Use", "khasra_no": "KH-0261"}}, {"type": "Feature", "geometry": {"type": "Polygon", "coordinates": [[[74.24938537244662, 16.707367497387082], [74.24994162996138, 16.707367497387082], [74.24994162996138, 16.70790884987627], [74.24940027747219, 16.707923754901838], [74.24938537244662, 16.707367497387082]]]}, "properties": {"survey_no": "P-0262", "landholder": "Vijay Kulkarni", "area": 4622.6, "classification": "Vacant", "khasra_no": "KH-0262"}}, {"type": "Feature", "geometry": {"type": "Polygon", "coordinates": [[[74.24509947094867, 16.709072995126213], [74.24524750797788, 16.709072995126213], [74.24524750797788, 16.709187970135325], [74.24513253296878, 16.70922103215543], [74.24509947094867, 16.709072995126213]]]}, "properties": {"survey_no": "P-0263", "landholder": "Anitaa Patil", "area": 4578.4, "classification": "Institutional", "khasra_no": "KH-0263"}}, {"type": "Feature", "geometry": {"type": "Polygon", "coordinates": [[[74.24901979107695, 16.709217107554608], [74.24879563574223, 16.709217107554608], [74.24879563574223, 16.70898572499173], [74.2490270183051, 16.708992952219884], [74.24901979107695, 16.709217107554608]]]}, "properties": {"survey_no": "P-0264", "landholder": "Shobha Deshmukh Sr.", "area": 4251.9, "classification": "Residential", "khasra_no": "KH-0264"}}, {"type": "Feature", "geometry": {"type": "Polygon", "coordinates": [[[74.24431460150774, 16.709818889394537], [74.24447688214794, 16.709818889394537], [74.24447688214794, 16.709954904580194], [74.2443408669623, 16.70998117003475], [74.24431460150774, 16.709818889394537]]]}, "properties": {"survey_no": "P-0265", "landholder": "Anil Chavan", "area": 4540.4, "classification": "Vacant", "khasra_no": "KH-0265"}}, {"type": "Feature", "geometry": {"type": "Polygon", "coordinates": [[[74.24902303748426, 16.70622317201757], [74.24887230974326, 16.70622317201757], [74.24887230974326, 16.70606253915295], [74.2490329426079, 16.70607244427658], [74.24902303748426, 16.70622317201757]]]}, "properties": {"survey_no": "P-0266", "landholder": "Kavita Kulkarni", "area": 4608.0, "classification": "Vacant", "khasra_no": "KH-0266"}}, {"type": "Feature", "geometry": {"type": "Polygon", "coordinates": [[[74.24453270726849, 16.70768487808628], [74.24435537904255, 16.70768487808628], [74.24435537904255, 16.70749618529959], [74.24454407182924, 16.707507549860345], [74.24453270726849, 16.70768487808628]]]}, "properties": {"survey_no": "P-0267", "landholder": "Ashok Kadam", "area": 4303.9, "classification": "Commercial", "khasra_no": "KH-0267"}}, {"type": "Feature", "geometry": {"type": "Polygon", "coordinates": [[[74.2512210330264, 16.714423803321083], [74.25116748906069, 16.714423803321083], [74.25116748906069, 16.714350936741532], [74.25124035564025, 16.71437025935538], [74.2512210330264, 16.714423803321083]]]}, "properties": {"survey_no": "P-0268", "landholder": "Anil Joshi", "area": 4262.6, "classification": "Institutional", "khasra_no": "KH-0268"}}]}