{"type": "FeatureCollection", "features": [{"type": "Feature", "geometry": {"type": "LineString", "coordinates": [[74.2523, 16.70980719324954], [74.25305, 16.70980719324954]]}, "properties": {"utility_id": "U-001", "utility_type": "power_line", "department": "Utility Department", "install_year": 2014}}, {"type": "Feature", "geometry": {"type": "LineString", "coordinates": [[74.25155000000001, 16.710679352308134], [74.2523, 16.710679352308134]]}, "properties": {"utility_id": "U-002", "utility_type": "water_main", "department": "Utility Department", "install_year": 2009}}, {"type": "Feature", "geometry": {"type": "LineString", "coordinates": [[74.2508, 16.711278275108246], [74.25229999999999, 16.711278275108246]]}, "properties": {"utility_id": "U-003", "utility_type": "power_line", "department": "Utility Department", "install_year": 2016}}, {"type": "Feature", "geometry": {"type": "LineString", "coordinates": [[74.2478, 16.712024054084356], [74.24929999999999, 16.712024054084356]]}, "properties": {"utility_id": "U-004", "utility_type": "power_line", "department": "Utility Department", "install_year": 2021}}, {"type": "Feature", "geometry": {"type": "LineString", "coordinates": [[74.2448, 16.714233235146967], [74.24629999999999, 16.714233235146967]]}, "properties": {"utility_id": "U-005", "utility_type": "water_main", "department": "Utility Department", "install_year": 2003}}, {"type": "Feature", "geometry": {"type": "LineString", "coordinates": [[74.25305, 16.712982133356228], [74.2538, 16.712982133356228]]}, "properties": {"utility_id": "U-006", "utility_type": "sewer_line", "department": "Utility Department", "install_year": 2005}}, {"type": "Feature", "geometry": {"type": "LineString", "coordinates": [[74.2463, 16.71367047619986], [74.2478, 16.71367047619986]]}, "properties": {"utility_id": "U-007", "utility_type": "sewer_line", "department": "Utility Department", "install_year": 1998}}, {"type": "Feature", "geometry": {"type": "LineString", "coordinates": [[74.24405, 16.713748454631418], [74.24555, 16.713748454631418]]}, "properties": {"utility_id": "U-008", "utility_type": "sewer_line", "department": "Utility Department", "install_year": 2003}}, {"type": "Feature", "geometry": {"type": "LineString", "coordinates": [[74.25305, 16.712792131009515], [74.2538, 16.712792131009515]]}, "properties": {"utility_id": "U-009", "utility_type": "sewer_line", "department": "Utility Department", "install_year": 2023}}, {"type": "Feature", "geometry": {"type": "LineString", "coordinates": [[74.2523, 16.709167822093388], [74.25455000000001, 16.709167822093388]]}, "properties": {"utility_id": "U-010", "utility_type": "power_line", "department": "Utility Department", "install_year": 2010}}, {"type": "Feature", "geometry": {"type": "LineString", "coordinates": [[74.2493, 16.709790462716217], [74.2508, 16.709790462716217]]}, "properties": {"utility_id": "U-011", "utility_type": "power_line", "department": "Utility Department", "install_year": 2019}}, {"type": "Feature", "geometry": {"type": "LineString", "coordinates": [[74.2508, 16.712150346146753], [74.25229999999999, 16.712150346146753]]}, "properties": {"utility_id": "U-012", "utility_type": "water_main", "department": "Utility Department", "install_year": 2014}}, {"type": "Feature", "geometry": {"type": "LineString", "coordinates": [[74.2478, 16.71366920263602], [74.25005, 16.71366920263602]]}, "properties": {"utility_id": "U-013", "utility_type": "sewer_line", "department": "Utility Department", "install_year": 2007}}, {"type": "Feature", "geometry": {"type": "LineString", "coordinates": [[74.25155000000001, 16.709119521525643], [74.2523, 16.709119521525643]]}, "properties": {"utility_id": "U-014", "utility_type": "power_line", "department": "Utility Department", "install_year": 2006}}, {"type": "Feature", "geometry": {"type": "LineString", "coordinates": [[74.2478, 16.713553344072377], [74.24929999999999, 16.713553344072377]]}, "properties": {"utility_id": "U-015", "utility_type": "sewer_line", "department": "Utility Department", "install_year": 2018}}, {"type": "Feature", "geometry": {"type": "LineString", "coordinates": [[74.2463, 16.709130188075672], [74.24705, 16.709130188075672]]}, "properties": {"utility_id": "U-016", "utility_type": "water_main", "department": "Utility Department", "install_year": 1999}}, {"type": "Feature", "geometry": {"type": "LineString", "coordinates": [[74.24855000000001, 16.71282087572145], [74.25080000000001, 16.71282087572145]]}, "properties": {"utility_id": "U-017", "utility_type": "water_main", "department": "Utility Department", "install_year": 2021}}, {"type": "Feature", "geometry": {"type": "LineString", "coordinates": [[74.25155000000001, 16.706274240729872], [74.25305, 16.706274240729872]]}, "properties": {"utility_id": "U-018", "utility_type": "power_line", "department": "Utility Department", "install_year": 2011}}, {"type": "Feature", "geometry": {"type": "LineString", "coordinates": [[74.24855000000001, 16.71048559570145], [74.25080000000001, 16.71048559570145]]}, "properties": {"utility_id": "U-019", "utility_type": "sewer_line", "department": "Utility Department", "install_year": 2016}}, {"type": "Feature", "geometry": {"type": "LineString", "coordinates": [[74.2478, 16.70843901078676], [74.25005, 16.70843901078676]]}, "properties": {"utility_id": "U-020", "utility_type": "sewer_line", "department": "Utility Department", "install_year": 2015}}, {"type": "Feature", "geometry": {"type": "LineString", "coordinates": [[74.25305, 16.713746957951653], [74.25455, 16.713746957951653]]}, "properties": {"utility_id": "U-021", "utility_type": "sewer_line", "department": "Utility Department", "install_year": 2009}}, {"type": "Feature", "geometry": {"type": "LineString", "coordinates": [[74.24705, 16.712227191608378], [74.2478, 16.712227191608378]]}, "properties": {"utility_id": "U-022", "utility_type": "sewer_line", "department": "Utility Department", "install_year": 2003}}, {"type": "Feature", "geometry": {"type": "LineString", "coordinates": [[74.2448, 16.70901338324191], [74.24629999999999, 16.70901338324191]]}, "properties": {"utility_id": "U-023", "utility_type": "power_line", "department": "Utility Department", "install_year": 2021}}, {"type": "Feature", "geometry": {"type": "LineString", "coordinates": [[74.25305, 16.712259077014057], [74.2538, 16.712259077014057]]}, "properties": {"utility_id": "U-024", "utility_type": "power_line", "department": "Utility Department", "install_year": 2018}}, {"type": "Feature", "geometry": {"type": "LineString", "coordinates": [[74.2463, 16.70679199837761], [74.2478, 16.70679199837761]]}, "properties": {"utility_id": "U-025", "utility_type": "power_line", "department": "Utility Department", "install_year": 2011}}, {"type": "Feature", "geometry": {"type": "LineString", "coordinates": [[74.2478, 16.70990067120856], [74.24929999999999, 16.70990067120856]]}, "properties": {"utility_id": "U-026", "utility_type": "power_line", "department": "Utility Department", "install_year": 2001}}, {"type": "Feature", "geometry": {"type": "LineString", "coordinates": [[74.24405, 16.71140007238592], [74.2463, 16.71140007238592]]}, "properties": {"utility_id": "U-027", "utility_type": "sewer_line", "department": "Utility Department", "install_year": 2000}}, {"type": "Feature", "geometry": {"type": "LineString", "coordinates": [[74.2463, 16.711260944781152], [74.24855000000001, 16.711260944781152]]}, "properties": {"utility_id": "U-028", "utility_type": "sewer_line", "department": "Utility Department", "install_year": 2010}}, {"type": "Feature", "geometry": {"type": "LineString", "coordinates": [[74.24705, 16.711991218591194], [74.24855, 16.711991218591194]]}, "properties": {"utility_id": "U-029", "utility_type": "water_main", "department": "Utility Department", "install_year": 2002}}, {"type": "Feature", "geometry": {"type": "LineString", "coordinates": [[74.2478, 16.70852115747981], [74.24929999999999, 16.70852115747981]]}, "properties": {"utility_id": "U-030", "utility_type": "power_line", "department": "Utility Department", "install_year": 2002}}, {"type": "Feature", "geometry": {"type": "LineString", "coordinates": [[74.2523, 16.70995868235323], [74.25305, 16.70995868235323]]}, "properties": {"utility_id": "U-031", "utility_type": "power_line", "department": "Utility Department", "install_year": 2008}}, {"type": "Feature", "geometry": {"type": "LineString", "coordinates": [[74.24555000000001, 16.713665349690746], [74.24705, 16.713665349690746]]}, "properties": {"utility_id": "U-032", "utility_type": "water_main", "department": "Utility Department", "install_year": 2012}}, {"type": "Feature", "geometry": {"type": "LineString", "coordinates": [[74.2463, 16.70914788367472], [74.24705, 16.70914788367472]]}, "properties": {"utility_id": "U-033", "utility_type": "water_main", "department": "Utility Department", "install_year": 2013}}, {"type": "Feature", "geometry": {"type": "LineString", "coordinates": [[74.24555000000001, 16.706855113424282], [74.24780000000001, 16.706855113424282]]}, "properties": {"utility_id": "U-034", "utility_type": "power_line", "department": "Utility Department", "install_year": 2010}}, {"type": "Feature", "geometry": {"type": "LineString", "coordinates": [[74.2493, 16.710476400741275], [74.2508, 16.710476400741275]]}, "properties": {"utility_id": "U-035", "utility_type": "sewer_line", "department": "Utility Department", "install_year": 2004}}, {"type": "Feature", "geometry": {"type": "LineString", "coordinates": [[74.2478, 16.714492601917655], [74.24855, 16.714492601917655]]}, "properties": {"utility_id": "U-036", "utility_type": "sewer_line", "department": "Utility Department", "install_year": 2004}}, {"type": "Feature", "geometry": {"type": "LineString", "coordinates": [[74.25155000000001, 16.7061630060786], [74.2523, 16.7061630060786]]}, "properties": {"utility_id": "U-037", "utility_type": "water_main", "department": "Utility Department", "install_year": 2005}}, {"type": "Feature", "geometry": {"type": "LineString", "coordinates": [[74.2478, 16.714263679240126], [74.24929999999999, 16.714263679240126]]}, "properties": {"utility_id": "U-038", "utility_type": "power_line", "department": "Utility Department", "install_year": 2014}}, {"type": "Feature", "geometry": {"type": "LineString", "coordinates": [[74.24705, 16.712744586106737], [74.2478, 16.712744586106737]]}, "properties": {"utility_id": "U-039", "utility_type": "water_main", "department": "Utility Department", "install_year": 2007}}, {"type": "Feature", "geometry": {"type": "LineString", "coordinates": [[74.2493, 16.709131086523673], [74.25155000000001, 16.709131086523673]]}, "properties": {"utility_id": "U-040", "utility_type": "sewer_line", "department": "Utility Department", "install_year": 2008}}, {"type": "Feature", "geometry": {"type": "LineString", "coordinates": [[74.25155000000001, 16.71057781985178], [74.2523, 16.71057781985178]]}, "properties": {"utility_id": "U-041", "utility_type": "power_line", "department": "Utility Department", "install_year": 2009}}, {"type": "Feature", "geometry": {"type": "LineString", "coordinates": [[74.24555000000001, 16.708230737419935], [74.24705, 16.708230737419935]]}, "properties": {"utility_id": "U-042", "utility_type": "water_main", "department": "Utility Department", "install_year": 2021}}]}