{
"type": "FeatureCollection",
"name": "aoi",
"crs": { "type": "name", "properties": { "name": "urn:ogc:def:crs:OGC:1.3:CRS84" } },
"features": [
{"type":"Feature","properties":{"id":8702,"objectid_1":8702,"objectid":71545.0,"village":"Arvi","vlcode":"556280","gram_panchayat_name\n":" ","gram_panchayat_code\n":" ","block":"Haveli","bkcode":"244","subdistric":"Haveli","sdcode":"4193","sub_district_head_quarter\n":"Pune","district":"Pune","dtcode":"490","district_head_quarter\n":"PUNE","state":"MH","stcode":"27","uqcode":" ","country":"India","total_urban_rural\n":"Rural","total_households\n":260.0,"total_population_village\n":1292.0,"avg_household\n":4.96923077,"total_geographical_area\n":1143.0,"total_male_population_village\n":670.0,"total_female_population_village\n":622.0,"tapwater_treated_status\n":"Available","tapwater_untreated_status\n":"Not Available","covered_well_status\n":"Not Available","covered_well_function_year\n":"Not Available","covered_well_functioning_summer\n":"Not Available","uncovered_well_status\n":"Available","uncovered_well_function_year\n":"Not Available","uncovered_well_function_summer\n":"Not Available","handpump_status\n":"Available","hand_pump_function_year\n":"Available","hand_pump_function_summer\n":"Available","tubewell_borehole_status\n":"Available","tube_wells_borehole_function_year\n":"Available","tube_wells_borehole_function_Summer\n":"Available","spring_status\n":"Not Available","spring_functioning_all_round_year\n":"Not Available","spring_functioning_summer_month\n":"Not Available","river_canal_status\n":"Not Available","tank_pond_lake_status\n":"Not Available","others_status\n":"Not Available","closed_drainage_status\n":"Not Available","open_drainage_status\n":"Available","village_pin_code_status\n":"Available","forest_area\n":278.0,"area_under_non_agricultural_use\n":89.0,"barren_uncultivable_land\n":0.0,"permanent_pastures_grazing\n":0.0,"land_under_miscellaneous\n":0.0,"culturable_waste_land\n":379.0,"fallows_land_other_than_current\n":0.0,"current_fallows_area\n":0.0,"net_area_sown\n":397.0,"total_unirrigated_land\n":21.0,"area_irrigated_by_source\n":376.0,"canals_area\n":0.0,"wells_tube_wells_area\n":21.0,"tanks_lakes_area\n":0.0,"waterfall_area\n":0.0,"other_source_specify_area\n":0.0,"nearest_town_name\n":"PUNE","nearest_town_distance_from_village\n":18.0,"shape_leng":10905.652202619262,"shape_length":10905.652202619262,"shape_area":5771218.5438159779,"ds_name":"Administrative Boundary","src_agency":"Survey of India (SOI)","state_name":"Maharashtra\n"},"geometry":{"type":"MultiPolygon","coordinates":[[[[73.828976713433633,18.381536573835003],[73.829626971495941,18.381310034496703],[73.829727934423573,18.379735642229921],[73.830976760218149,18.376693971835891],[73.831898268517321,18.375388263971807],[73.831363019174546,18.374040999736458],[73.83122669443614,18.373477877043033],[73.830521537719505,18.372062870496926],[73.829828811860637,18.369948183460203],[73.829262730258506,18.368956577248511],[73.826964782199397,18.366949910409925],[73.824969126700609,18.364389900370156],[73.823803036152711,18.364365937512972],[73.820741769033276,18.36430256964076],[73.819289050311113,18.363992421189565],[73.816256097736982,18.362389747825308],[73.814808699104702,18.36179956937525],[73.813626343917505,18.362613709791351],[73.812157500254841,18.3631418618405],[73.809238040737981,18.363218803548211],[73.808379131117391,18.362360822315846],[73.80576740074136,18.361604379190094],[73.801391243529181,18.361507452016294],[73.797627212668388,18.360923245381837],[73.79759519698618,18.361339730407057],[73.797452139506404,18.361647424893306],[73.797309083206713,18.361955121302589],[73.797183907167621,18.362224353895598],[73.797022968897707,18.362570508654034],[73.796897792672937,18.362839741304814],[73.796772617950623,18.363108972211556],[73.796559176302964,18.363571197180352],[73.796413096286216,18.363926271664049],[73.796257135070491,18.364324609649639],[73.796101173975316,18.364722945927401],[73.795992000595717,18.365001782746194],[73.7958828268481,18.365280617773891],[73.795793737037471,18.365642210127159],[73.795837108040629,18.366011784271596],[73.795900561983302,18.36646411499726],[73.795958247988125,18.366875323760791],[73.796010165949255,18.367245410489232],[73.796056315729288,18.367574376033293],[73.796096695366771,18.367862219337834],[73.796139961332614,18.368170624007266],[73.796172949324585,18.368553551061826],[73.796655064463522,18.368343547159473],[73.799259531938446,18.368402531205334],[73.80103075056067,18.368669359018355],[73.802911553071141,18.369392513655946],[73.803802445082809,18.372364758317516],[73.803264901893698,18.375760728573759],[73.802954282252415,18.379731294494526],[73.803047640996667,18.381097463735284],[73.806635922241966,18.37924436674124],[73.808416226125075,18.379056032789986],[73.811729363425741,18.379241625876382],[73.815032047602685,18.379994552061952],[73.817736780687966,18.381075197100198],[73.819863560289718,18.381347473756556],[73.824464144702361,18.382353181250316],[73.827312265977341,18.381957204824268],[73.828976713433633,18.381536573835003]]]]}}
]
}
